X,Y,施設名,施設名かな,施設名（施設名かな）,所在地,地区名,TEL,FAX,詳細情報,開館時間,URL,バリアフリー情報,駐輪場 PC,駐輪場 携,大分類,小分類,カテゴリ,アイコン番号,施設ID
135.520133,34.614633,長居プール,ながいぷーる,長居プール（ながいぷーる）,東住吉区長居公園内,東住吉区,06-6609-1580,,,,http://www.nagai-park.jp/nagai_pool/,,,,公園・スポーツ,スポーツ施設,公園・スポーツ/スポーツ施設,153,3115
135.5171942,34.61186389,長居相撲場,ながいすもうじょう,長居相撲場（ながいすもうじょう）,東住吉区長居公園内,東住吉区,06-6691-2500,,,,http://www.nagai-park.jp/nagai_sumo/index.html,,,,公園・スポーツ,スポーツ施設,公園・スポーツ/スポーツ施設,153,3117
135.5184312,34.61118111,長居第2陸上競技場,ながいだい２りくじょうきょうぎじょう,長居第2陸上競技場（ながいだい２りくじょうきょうぎじょう）,東住吉区長居公園内,東住吉区,06-6691-2500,,,,http://www.nagai-park.jp/stadium2/index.html,,,,公園・スポーツ,スポーツ施設,公園・スポーツ/スポーツ施設,153,3109
135.511239,34.59197797,住吉屋内プール,すみよしおくないぷーる,住吉屋内プール（すみよしおくないぷーる）,住吉区浅香1丁目8番15号,住吉区,06-6694-9171,,,,http://www.sports.city.osaka.jp/sports/sa/tb/i/2/0/0/73/0/20730001/d.html,,,,公園・スポーツ,スポーツ施設,公園・スポーツ/スポーツ施設,153,409
135.5112417,34.59209406,住吉トレーニングルーム,すみよしとれーにんぐるーむ,住吉トレーニングルーム（すみよしとれーにんぐるーむ）,住吉区浅香1丁目8番15号,住吉区,06-6694-9173,,,,http://www.sports.city.osaka.jp/sports/sa/tb/i/2/0/0/73/0/20730002/d.html,,,,公園・スポーツ,スポーツ施設,公園・スポーツ/スポーツ施設,153,408
135.5112639,34.59220314,住吉スポーツセンター,すみよしすぽーつせんたー,住吉スポーツセンター（すみよしすぽーつせんたー）,住吉区浅香1丁目8番15号,住吉区,06-6694-9201,,,,http://www.sports.city.osaka.jp/sports/sa/tb/i/2/0/0/73/0/20730003/d.html,http://www.osaka-bfmap.jp/sisetu_data/data/210601.php?bunrui=1&name=21.php,,,公園・スポーツ,スポーツ施設,公園・スポーツ/スポーツ施設,153,407
135.4754138,34.62372486,住之江スポーツセンター,すみのえすぽーつせんたー,住之江スポーツセンター（すみのえすぽーつせんたー）,住之江区北加賀屋5-3-47住之江総合会館内,住之江区,06-6686-4172,,,,http://www.sports.city.osaka.jp/sports/sa/tb/i/2/0/0/72/0/20720001/d.html,http://www.osaka-bfmap.jp/sisetu_data/data/200601.php?bunrui=1&name=20.php,,,公園・スポーツ,スポーツ施設,公園・スポーツ/スポーツ施設,153,4949
135.4319611,34.631017,南港中央テニス場,なんこうちゅうおうてにすじょう,南港中央テニス場（なんこうちゅうおうてにすじょう）,住之江区南港東8南港中央公園内,住之江区,06-6614-0549,,,,http://www.sports.city.osaka.jp/sports/sa/tb/i/2/0/0/72/0/20720004/d.html,,,,公園・スポーツ,スポーツ施設,公園・スポーツ/スポーツ施設,153,669
135.4323108,34.62958303,南港中央野球場,なんこうちゅうおうやきゅうじょう,南港中央野球場（なんこうちゅうおうやきゅうじょう）,住之江区南港東8南港中央公園内,住之江区,06-6614-0549,,,,http://www.sports.city.osaka.jp/sports/sa/tb/i/2/0/0/0/18/20720005/d.html,,,,公園・スポーツ,スポーツ施設,公園・スポーツ/スポーツ施設,153,670
135.4425018,34.70323025,西淀川屋内プール,にしよどがわおくないぷーる,西淀川屋内プール（にしよどがわおくないぷーる）,西淀川区大和田2丁目5番7号,西淀川区,06-6474-9940,06-6474-9241,,,,,,,公園・スポーツ,スポーツ施設,公園・スポーツ/スポーツ施設,153,3708
135.4646219,34.68355792,此花屋内プール,このはなおくないぷーる,此花屋内プール（このはなおくないぷーる）,此花区西九条5-4-21,此花区,6465-6700,6465-6750,,,,,,,公園・スポーツ,スポーツ施設,公園・スポーツ/スポーツ施設,153,1275
135.4754252,34.623672,住之江屋内プール,すみのえおくないぷーる,住之江屋内プール（すみのえおくないぷーる）,住之江区北加賀屋5-3-47住之江総合会館内,住之江区,06-6686-4163,06-6686-3414,,,,,,,公園・スポーツ,スポーツ施設,公園・スポーツ/スポーツ施設,153,4950
135.4549308,34.63564217,鶴町南運動場,つるまちみなみうんどうじょう,鶴町南運動場（つるまちみなみうんどうじょう）,大正区鶴町1-19(鶴町南公園内),大正区,06-6571-0552,,,,,,,,公園・スポーツ,スポーツ施設,公園・スポーツ/スポーツ施設,153,3910
135.4750169,34.64435,小林野球場,こばやしやきゅうじょう,小林野球場（こばやしやきゅうじょう）,大正区小林東2-6(小林公園内),大正区,06-6571-0552,,,,,,,,公園・スポーツ,スポーツ施設,公園・スポーツ/スポーツ施設,153,3836
135.458947,34.66603617,磯路中央運動場,いそじちゅうおううんどうじょう,磯路中央運動場（いそじちゅうおううんどうじょう）,港区磯路2-17,港区,06-6571-0552(八幡屋公園事務所),,,,http://www.sports.city.osaka.jp/sports/sa/tb/i/2/0/0/57/0/20570005/d.html,,,,公園・スポーツ,スポーツ施設,公園・スポーツ/スポーツ施設,153,1960
135.461303,34.67384208,波除運動場,なみよけうんどうじょう,波除運動場（なみよけうんどうじょう）,港区波除5-5,港区,06-6571-0552(八幡屋公園事務所),,,,http://www.sports.city.osaka.jp/sports/sa/tb/i/2/0/0/57/0/20570004/d.html,,,,公園・スポーツ,スポーツ施設,公園・スポーツ/スポーツ施設,153,990
135.5209752,34.65286108,寺田町野球場,てらだちょうやきゅうじょう,寺田町野球場（てらだちょうやきゅうじょう）,天王寺区寺田町1-5　寺田町公園内,天王寺区,06-6761-1770(真田山公園事務所),,,,http://www.sports.city.osaka.jp/sports/sa/tb/i/2/0/0/59/0/20590007/d.html,,,,公園・スポーツ,スポーツ施設,公園・スポーツ/スポーツ施設,153,4262
135.5234781,34.65783897,五条運動場,ごじょううんどうじょう,五条運動場（ごじょううんどうじょう）,天王寺区烏ヶ辻2-5五条公園内,天王寺区,06-6761-1770(真田山公園事務所),,,,http://www.sports.city.osaka.jp/sports/sa/tb/i/2/0/0/59/0/20590008/d.html,,,,公園・スポーツ,スポーツ施設,公園・スポーツ/スポーツ施設,153,4244
135.5279639,34.67023897,真田山庭球場,さなだやまていきゅうじょう,真田山庭球場（さなだやまていきゅうじょう）,天王寺区真田山町5　真田山公園内,天王寺区,06-6761-1770(真田山公園事務所),,,,,,,,公園・スポーツ,スポーツ施設,公園・スポーツ/スポーツ施設,153,4294
135.5279639,34.66946914,真田山野球場,さなだやまやきゅうじょう,真田山野球場（さなだやまやきゅうじょう）,天王寺区真田山町5 真田山公園内,天王寺区,06-6761-1770(真田山公園事務所),,,,http://www.sports.city.osaka.jp/sports/sa/tb/i/2/0/0/59/0/20590003/d.html,,,,公園・スポーツ,スポーツ施設,公園・スポーツ/スポーツ施設,153,4295
135.5455423,34.67625786,東中本運動場,ひがしなかもとうんどうじょう,東中本運動場（ひがしなかもとうんどうじょう）,東成区(東中本公園内),東成区,06-6761-1770（真田山公園事務所）,06-6761-1645,,,http://www.sports.city.osaka.jp/sports/sa/tb/i/2/0/0/66/0/20660005/d.html,,,,公園・スポーツ,スポーツ施設,公園・スポーツ/スポーツ施設,153,42
135.5483188,34.677889,神路運動場,かみじうんどうじょう,神路運動場（かみじうんどうじょう）,東成区(神路公園内),東成区,6761-1770(真田山公園事務所),06-6761-1645,,,http://www.sports.city.osaka.jp/sports/sa/tb/i/2/0/0/66/0/20660003/d.html,,,,公園・スポーツ,スポーツ施設,公園・スポーツ/スポーツ施設,153,3325
135.4640889,34.64974186,マリンテニスパーク・北村,まりんてにすぱーくきたむら,マリンテニスパーク・北村（まりんてにすぱーくきたむら）,大正区北村3-3-70,大正区,06-6555-6161,06-6555-6171,,,,,,,公園・スポーツ,スポーツ施設,公園・スポーツ/スポーツ施設,153,3962
135.475719,34.66934983,京セラドーム大阪,きょうせらどーむおおさか,京セラドーム大阪（きょうせらどーむおおさか）,西区千代崎3-中2-1,西区,06-6586-0106,,,,http://www.kyoceradome-osaka.jp/,http://www.osaka-bfmap.jp/sisetu_data/data/060601.php?bunrui=1&amp;amp;name=6.php,,,公園・スポーツ,スポーツ施設,公園・スポーツ/スポーツ施設,153,62
135.4738143,34.61182211,住之江公園プール,すみのえこうえんぷーる,住之江公園プール（すみのえこうえんぷーる）,住之江区南加賀屋1住之江公園内,住之江区,06-6685-9521,,,,,,,,公園・スポーツ,スポーツ施設,公園・スポーツ/スポーツ施設,153,132
135.4755862,34.61166686,住之江公園野球場,すみのえこうえんやきゅうじょう,住之江公園野球場（すみのえこうえんやきゅうじょう）,住之江区南加賀屋１住之江公園内,住之江区,06-6685-9521,,,,,,,,公園・スポーツ,スポーツ施設,公園・スポーツ/スポーツ施設,153,134
135.4752359,34.61056081,住之江公園多目的広場,すみのえこうえんたもくてきひろば,住之江公園多目的広場（すみのえこうえんたもくてきひろば）,住之江区南加賀屋1住之江公園内,住之江区,06-6685-9521,,　（野球等）,,,,,,公園・スポーツ,スポーツ施設,公園・スポーツ/スポーツ施設,153,133
135.487475,34.61185317,住吉公園野球場,すみよしこうえんやきゅうじょう,住吉公園野球場（すみよしこうえんやきゅうじょう）,住之江区浜口東1住吉公園内,住之江区,06-6671-2292,,,,,,,,公園・スポーツ,スポーツ施設,公園・スポーツ/スポーツ施設,153,687
135.4892469,34.61098594,大阪府住吉公園体育館,おおさかふすみよしこうえんたいいくかん,大阪府住吉公園体育館（おおさかふすみよしこうえんたいいくかん）,住之江区浜口東1-1-13,住之江区,06-6671-3864,,,,,,,,公園・スポーツ,スポーツ施設,公園・スポーツ/スポーツ施設,153,685
135.4088277,34.61622508,エル・シティ・ナンコウ野球場・テニス場,える・してぃ・なんこうやきゅうじょう・てにすじょう,エル・シティ・ナンコウ野球場・テニス場（える・してぃ・なんこうやきゅうじょう・てにすじょう）,住之江区南港南7,住之江区,06-6613-8580,,,,,,,,公園・スポーツ,スポーツ施設,公園・スポーツ/スポーツ施設,153,673
135.4429888,34.61276403,コミュニティ広場,こみゅにてぃひろば,コミュニティ広場（こみゅにてぃひろば）,住之江区南港東2-5,住之江区,06-6683-2882,,（ソフトボール等）,,,,,,公園・スポーツ,スポーツ施設,公園・スポーツ/スポーツ施設,153,156
135.4769189,34.61226092,住之江公園テニス場,すみのえこうえんてにすじょう,住之江公園テニス場（すみのえこうえんてにすじょう）,住之江区南加賀屋1住之江公園内,住之江区,06-6685-9521,,,,,,,,公園・スポーツ,スポーツ施設,公園・スポーツ/スポーツ施設,153,131
135.4876252,34.612706,住吉公園テニス場,すみよしこうえんてにすじょう,住吉公園テニス場（すみよしこうえんてにすじょう）,住之江区浜口東1住吉公園内,住之江区,06-6671-2292,,,,,,,,公園・スポーツ,スポーツ施設,公園・スポーツ/スポーツ施設,153,686
135.4757109,34.62278086,北加賀屋野球場,きたかがややきゅうじょう,北加賀屋野球場（きたかがややきゅうじょう）,住之江区北加賀屋5北加賀屋公園内,住之江区,06-6771-2740,,天王寺動植物公園事務所の電話,,http://www.sports.city.osaka.jp/sports/sa/tb/i/2/0/0/72/0/20720003/d.html,,,,公園・スポーツ,スポーツ施設,公園・スポーツ/スポーツ施設,153,4951
135.508406,34.59117189,浅香中央運動場,あさかちゅうおううんどうじょう,浅香中央運動場（あさかちゅうおううんどうじょう）,住吉区浅香1丁目6番,住吉区,06-6691-7200,,,,http://www.sports.city.osaka.jp/sports/sa/tb/i/2/0/0/73/0/20730005/d.html,,,,公園・スポーツ,スポーツ施設,公園・スポーツ/スポーツ施設,153,403
135.5163082,34.61139997,長居運動場,ながいうんどうじょう,長居運動場（ながいうんどうじょう）,東住吉区長居公園内,東住吉区,06-6691-2500,,,,http://www.nagai-park.jp/nagai_ground/,,,,公園・スポーツ,スポーツ施設,公園・スポーツ/スポーツ施設,153,3116
135.5262027,34.59864989,東住吉スポーツセンター,ひがしすみよしすぽーつせんたー,東住吉スポーツセンター（ひがしすみよしすぽーつせんたー）,東住吉区公園南矢田4-30-3,東住吉区,06-6694-4580,,,,,http://www.osaka-bfmap.jp/sisetu_data/data/220601.php?bunrui=1&name=22.php,,,公園・スポーツ,スポーツ施設,公園・スポーツ/スポーツ施設,153,3064
135.5147559,34.61259694,長居障害者スポーツセンター,ながいしょうがいしゃすぽーつせんたー,長居障害者スポーツセンター（ながいしょうがいしゃすぽーつせんたー）,東住吉区長居公園内,東住吉区,06-6697-8681,,,,http://www.fukspo.org/,http://www.osaka-bfmap.jp/sisetu_data/data/220803.php?bunrui=1&name=22.php,,,公園・スポーツ,スポーツ施設,公園・スポーツ/スポーツ施設,153,38
135.5162328,34.61525586,キンチョウスタジアム,きんちょうすたじあむ,キンチョウスタジアム（きんちょうすたじあむ）,東住吉区長居公園内,東住吉区,06-6691-2500,,,,http://www.nagai-park.jp/ballgame/index.html,,,,公園・スポーツ,スポーツ施設,公園・スポーツ/スポーツ施設,153,3108
135.51845,34.61402197,長居陸上競技場,ながいりくじょうきょうぎじょう,長居陸上競技場（ながいりくじょうきょうぎじょう）,東住吉区長居公園内,東住吉区,06-6691-2500,,,,http://www.nagai-park.jp/stadium/index.html,,,,公園・スポーツ,スポーツ施設,公園・スポーツ/スポーツ施設,153,3110
135.5178942,34.61505294,長居トレーニングセンター,ながいとれーにんぐせんたー,長居トレーニングセンター（ながいとれーにんぐせんたー）,東住吉区長居公園内（長居陸上競技場内）,東住吉区,06-6699-8885,,,,http://www.nagai-park.jp/training-center/,,,,公園・スポーツ,スポーツ施設,公園・スポーツ/スポーツ施設,153,3111
135.5148556,34.61364381,長居テニス場,ながいてにすじょう,長居テニス場（ながいてにすじょう）,東住吉区長居公園内,東住吉区,06-6698-1235,,,,http://www.nagai-park.jp/tennis/index.html,,,,公園・スポーツ,スポーツ施設,公園・スポーツ/スポーツ施設,153,3114
135.5184217,34.623003,長池運動場,ながいけうんどうじょう,長池運動場（ながいけうんどうじょう）,阿倍野区長池町19,阿倍野区,06-6691-7200,06-6691-6976,,,http://www.sports.city.osaka.jp/sports/sa/tb/i/2/0/0/71/0/20710003/d.html,,,,公園・スポーツ,スポーツ施設,公園・スポーツ/スポーツ施設,153,1243
135.4955888,34.62815603,西成スポーツセンター,にしなりすぽーつせんたー,西成スポーツセンター（にしなりすぽーつせんたー）,西成区玉出東1丁目6番1号,西成区,4398-1601,,,,http://www.sports.city.osaka.jp/sports/sa/tb/i/2/0/0/76/0/20760001/d.html,,,,公園・スポーツ,スポーツ施設,公園・スポーツ/スポーツ施設,153,4838
135.4955922,34.62797492,西成屋内プール,にしなりおくないぷーる,西成屋内プール（にしなりおくないぷーる）,西成区玉出東1丁目6番1号,西成区,4398-1603,,,,http://www.sports.city.osaka.jp/sports/sa/tb/i/2/0/0/76/0/20760003/d.html,,,,公園・スポーツ,スポーツ施設,公園・スポーツ/スポーツ施設,153,4839
135.4955827,34.62778606,西成屋内プール　トレーニングルーム,にしなりおくないぷーる　とれーにんぐるーむ,西成屋内プール　トレーニングルーム（にしなりおくないぷーる　とれーにんぐるーむ）,西成区玉出東1丁目6番1号,西成区,4398-1605,,,,http://www.sports.city.osaka.jp/sports/sa/tb/i/2/0/0/76/0/20760002/d.html,,,,公園・スポーツ,スポーツ施設,公園・スポーツ/スポーツ施設,153,4840
135.5194418,34.629481,ゲートボール場,げーとぼーるじょう,ゲートボール場（げーとぼーるじょう）,阿倍野区桃ヶ池町1-11-7,阿倍野区,06-6714-7175,,,,,,,,公園・スポーツ,スポーツ施設,公園・スポーツ/スポーツ施設,153,783
135.5413423,34.62728306,平野白鷺運動場,ひらのしらさぎうんどうじょう,平野白鷺運動場（ひらのしらさぎうんどうじょう）,東住吉区平野白鷺公園内,東住吉区,06-6691-7200,,,,,,,,公園・スポーツ,スポーツ施設,公園・スポーツ/スポーツ施設,153,3057
135.56025,34.61751883,平野スポーツセンター,ひらのすぽーつせんたー,平野スポーツセンター（ひらのすぽーつせんたー）,平野区平野南4-6-1,平野区,06-6709-1255,06-6709-1026,,,http://www.sports.city.osaka.jp/sports/sa/tb/i/2/0/0/75/0/20750003/d.html,,,,公園・スポーツ,スポーツ施設,公園・スポーツ/スポーツ施設,153,2340
135.5602278,34.61788589,平野屋内プール,ひらのおくないぷーる,平野屋内プール（ひらのおくないぷーる）,平野区平野南4-6-1,平野区,06-6709-1255,06-6709-1026,,,http://www.sports.city.osaka.jp/sports/sa/tb/i/2/0/0/75/0/20750001/d.html,,,,公園・スポーツ,スポーツ施設,公園・スポーツ/スポーツ施設,153,2351
135.5603308,34.61777794,平野トレーニングルーム,ひらのとれーにんぐるーむ,平野トレーニングルーム（ひらのとれーにんぐるーむ）,平野区平野南4-6-1（平野屋内プール内）,平野区,06-6709-1255,06-6709-1026,,,http://www.sports.city.osaka.jp/sports/sa/tb/i/2/0/0/75/0/20750002/d.html,,,,公園・スポーツ,スポーツ施設,公園・スポーツ/スポーツ施設,153,2352
135.3949919,34.66289711,シーサイドテニスガーデン舞洲,しーさいどてにすがーでんまいしま,シーサイドテニスガーデン舞洲（しーさいどてにすがーでんまいしま）,此花区北港緑地2,此花区,6460-9711,,,,http://www.maishima.co.jp/shisetsu/tennis/index.html,,,,公園・スポーツ,スポーツ施設,公園・スポーツ/スポーツ施設,153,1326
135.397067,34.66311914,舞洲ベースボールスタジアム,まいしまべーすぼーるすたじあむ,舞洲ベースボールスタジアム（まいしまべーすぼーるすたじあむ）,此花区北港緑地2,此花区,6460-1011,,,,http://www.sports.city.osaka.jp/sports/sa/tb/i/2/0/0/54/0/20540011/d.html,http://www.osaka-bfmap.jp/sisetu_data/data/040604.php?bunrui=1&name=4.php,,,公園・スポーツ,スポーツ施設,公園・スポーツ/スポーツ施設,153,1328
135.3976309,34.66564383,舞洲アリーナ,まいしまありーな,舞洲アリーナ（まいしまありーな）,此花区北港緑地2,此花区,6460-1811,,,,http://www.sports.city.osaka.jp/sports/sa/tb/i/2/0/0/54/0/20540008/d.html,http://www.osaka-bfmap.jp/sisetu_data/data/040603.php?bunrui=1&name=4.php,,,公園・スポーツ,スポーツ施設,公園・スポーツ/スポーツ施設,153,1327
135.3953112,34.66930808,舞洲第2運動場,まいしまだい２うんどうじょう,舞洲第2運動場（まいしまだい２うんどうじょう）,此花区北港緑地2,此花区,6460-2870,,,,http://www.sports.city.osaka.jp/sports/sa/tb/i/2/0/0/54/0/20540014/d.html,,,,公園・スポーツ,スポーツ施設,公園・スポーツ/スポーツ施設,153,1329
135.4001358,34.66425589,舞洲運動広場,まいしまうんどうひろば,舞洲運動広場（まいしまうんどうひろば）,此花区北港緑地1,此花区,6460-9844,6460-9822,,,http://www.sports.city.osaka.jp/sports/sa/tb/i/2/0/0/54/0/20540009/d.html,,,,公園・スポーツ,スポーツ施設,公園・スポーツ/スポーツ施設,153,1325
135.4081331,34.66806908,舞洲障害者スポーツセンター（アミティ舞洲）,まいしましょうがいしゃすぽーつせんたー（あみてぃまいしま）,舞洲障害者スポーツセンター（アミティ舞洲）（まいしましょうがいしゃすぽーつせんたー（あみてぃまいしま））,此花区北港白津2丁目1番46号,此花区,06-6465-8200,06-6465-8207,,,http://www.fukspo.org/maishimassc/,http://www.osaka-bfmap.jp/sisetu_data/data/040602.php?bunrui=1&name=4.php,,,公園・スポーツ,スポーツ施設,公園・スポーツ/スポーツ施設,153,1324
135.4720889,34.64734417,市立大正スポーツセンター,しりつたいしょうすぽーつせんたー,市立大正スポーツセンター（しりつたいしょうすぽーつせんたー）,大正区小林東3-3-25,大正区,06-6555-8402,,,,http://www.sports.city.osaka.jp/sports/sa/tb/i/2/0/0/58/0/20580002/d.html,,,,公園・スポーツ,スポーツ施設,公園・スポーツ/スポーツ施設,153,3840
135.4720889,34.64718306,市立大正トレーニングルーム,しりつたいしょうとれーにんぐるーむ,市立大正トレーニングルーム（しりつたいしょうとれーにんぐるーむ）,大正区小林東3-3-25,大正区,06-6555-8952,,市立大正屋内プール内,,http://www.sports.city.osaka.jp/sports/sa/tb/i/2/0/0/58/0/20580003/d.html,,,,公園・スポーツ,スポーツ施設,公園・スポーツ/スポーツ施設,153,3841
135.4722782,34.64747792,市立大正屋内プール,しりつたいしょうおくないぷーる,市立大正屋内プール（しりつたいしょうおくないぷーる）,大正区小林東3-3-25,大正区,06-6555-8950,,,,,,,,公園・スポーツ,スポーツ施設,公園・スポーツ/スポーツ施設,153,3842
135.4723563,34.64948914,千島体育館,ちしまたいいくかん,千島体育館（ちしまたいいくかん）,大正区千島2-7-93,大正区,06-6553-7800,,,,http://www.sports.city.osaka.jp/sports/sa/tb/i/2/0/0/58/0/20580001/d.html,,,,公園・スポーツ,スポーツ施設,公園・スポーツ/スポーツ施設,153,3859
135.4444441,34.65950597,大阪市中央体育館,おおさかしちゅうおうたいいくかん,大阪市中央体育館（おおさかしちゅうおうたいいくかん）,港区田中3-1-40,港区,06-6576-0800,,,,http://www.sports.city.osaka.jp/sports/sa/tb/i/2/0/0/57/0/20570001/d.html,http://www.osaka-bfmap.jp/sisetu_data/data/070601.php?bunrui=1&name=7.php,,,公園・スポーツ,スポーツ施設,公園・スポーツ/スポーツ施設,153,2060
135.4444643,34.65933083,中央体育館トレーニング室,ちゅうおうたいいくかんとれーにんぐしつ,中央体育館トレーニング室（ちゅうおうたいいくかんとれーにんぐしつ）,港区田中3-1-40,港区,06-6576-0071,,,,http://www.sports.city.osaka.jp/sports/sa/tb/i/2/0/0/57/0/20570003/d.html,,,,公園・スポーツ,スポーツ施設,公園・スポーツ/スポーツ施設,153,2061
135.4474369,34.66084928,大阪プール,おおさかぷーる,大阪プール（おおさかぷーる）,港区田中3-1-20,港区,06-6571-2010,,,,http://www.sports.city.osaka.jp/sports/sa/tb/i/2/0/0/57/0/20570006/d.html,,,,公園・スポーツ,スポーツ施設,公園・スポーツ/スポーツ施設,153,2057
135.4472893,34.66085003,大阪プールアイススケート場,おおさかぷーるあいすすけーとじょう,大阪プールアイススケート場（おおさかぷーるあいすすけーとじょう）,港区田中3-1-20,港区,06-6571-2010,,,,http://www.sports.city.osaka.jp/sports/sa/tb/i/2/0/0/57/0/20570007/d.html,,,,公園・スポーツ,スポーツ施設,公園・スポーツ/スポーツ施設,153,2058
135.445578,34.66190589,港スポーツセンター,みなとすぽーつせんたー,港スポーツセンター（みなとすぽーつせんたー）,港区田中3-1-128,港区,06-6576-4081,,,,http://www.sports.city.osaka.jp/sports/sa/tb/i/2/0/0/57/0/20570002/d.html,,,,公園・スポーツ,スポーツ施設,公園・スポーツ/スポーツ施設,153,2054
135.4584558,34.67962208,春日出運動場,かすがでうんどうじょう,春日出運動場（かすがでうんどうじょう）,此花区春日出南1-2（春日出公園内）,此花区,6441-6748,,,,http://www.sports.city.osaka.jp/sports/sa/tb/i/2/0/0/54/0/20540004/d.html,,,,公園・スポーツ,スポーツ施設,公園・スポーツ/スポーツ施設,153,947
135.4630332,34.68146889,此花スポーツセンター,このはなすぽーつせんたー,此花スポーツセンター（このはなすぽーつせんたー）,此花区西九条6-1-27,此花区,6465-5800,6465-5816,,,http://www.sports.city.osaka.jp/sports/sa/tb/i/2/0/0/54/0/20540001/d.html,http://www.osaka-bfmap.jp/sisetu_data/data/040601.php?bunrui=1&name=4.php,,,公園・スポーツ,スポーツ施設,公園・スポーツ/スポーツ施設,153,1284
135.4801892,34.67612783,松島野球場,まつしまやきゅうじょう,松島野球場（まつしまやきゅうじょう）,西区千代崎1-3,西区,06-6441-6748,06-6441-6797,,,http://www.sports.city.osaka.jp/sports/sa/tb/i/2/0/0/56/0/20560003/d.html,,,,公園・スポーツ,スポーツ施設,公園・スポーツ/スポーツ施設,153,2195
135.4816249,34.67790786,西屋内プール・トレーニングルーム,にしおくないぷーる・とれーにんぐるーむ,西屋内プール・トレーニングルーム（にしおくないぷーる・とれーにんぐるーむ）,西区本田1-4-16,西区,06-6581-7601(プール）、06-6581-7603（トレーニングルーム）,06-6581-7602,,,,,,,公園・スポーツ,スポーツ施設,公園・スポーツ/スポーツ施設,153,2196
135.4876583,34.68066111,西スポーツセンター,にしすぽーつせんたー,西スポーツセンター（にしすぽーつせんたー）,西区立売堀4-10-18,西区,06-6538-3413,06-6538-3419,,,http://www.sports.city.osaka.jp/sports/sa/tb/i/2/0/0/56/0/20560001/d.html,,,,公園・スポーツ,スポーツ施設,公園・スポーツ/スポーツ施設,153,2194
135.4903471,34.68431103,靱テニスセンター,うつぼてにすせんたー,靱テニスセンター（うつぼてにすせんたー）,西区靱本町2-1-14,西区,06-6441-6211,06-6441-6226,,,http://www.sports.city.osaka.jp/sports/sa/tb/i/2/0/0/56/0/20560004/d.html,,,,公園・スポーツ,スポーツ施設,公園・スポーツ/スポーツ施設,153,2193
135.4709388,34.689711,吉野町運動場,よしのちょううんどうじょう,吉野町運動場（よしのちょううんどうじょう）,福島区吉野4-12,福島区,06-6441-6748,,,,http://www.sports.city.osaka.jp/sports/sa/tb/i/2/0/0/53/0/20530005/d.html,,,,公園・スポーツ,スポーツ施設,公園・スポーツ/スポーツ施設,153,3527
135.473119,34.69130017,福島スポーツセンター,ふくしますぽーつせんたー,福島スポーツセンター（ふくしますぽーつせんたー）,福島区吉野3-17-23（区民センター4階）,福島区,06-6468-0450,,,,http://www.sports.city.osaka.jp/sports/sa/tb/i/2/0/0/53/0/20530001/d.html,,,,公園・スポーツ,スポーツ施設,公園・スポーツ/スポーツ施設,153,3525
135.4835559,34.68653294,中之島西テニス場,なかのしまにしてにすじょう,中之島西テニス場（なかのしまにしてにすじょう）,北区中之島西公園内,北区,06-6312-8121,,,,http://www.sports.city.osaka.jp/sports/sa/tb/i/2/0/0/51/0/20510006/d.html,,,,公園・スポーツ,スポーツ施設,公園・スポーツ/スポーツ施設,153,788
135.4824887,34.68997211,下福島プール,しもふくしまぷーる,下福島プール（しもふくしまぷーる）,福島区福島4-1下福島公園内,福島区,06-6444-3450,,,,http://www.sports.city.osaka.jp/sports/sa/tb/i/2/0/0/53/0/20530004/d.html,,,,公園・スポーツ,スポーツ施設,公園・スポーツ/スポーツ施設,153,3559
135.4823829,34.69095006,下福島運動場,しもふくしまうんどうじょう,下福島運動場（しもふくしまうんどうじょう）,福島区福島4-1下福島公園内,福島区,06-6441-6748,,,,http://www.sports.city.osaka.jp/sports/sa/tb/i/2/0/0/53/0/20530002/d.html,,,,公園・スポーツ,スポーツ施設,公園・スポーツ/スポーツ施設,153,3560
135.5107809,34.64200608,阿倍野スポーツセンター,あべのすぽーつせんたー,阿倍野スポーツセンター（あべのすぽーつせんたー）,阿倍野区阿倍野筋3-10-1-100,阿倍野区,06-6647-0086,06-6647-0190,,,http://www.sports.city.osaka.jp/sports/sa/tb/i/2/0/0/71/0/20710001/d.html,http://www.osaka-bfmap.jp/sisetu_data/data/190601.php?bunrui=1&name=19.php,,,公園・スポーツ,スポーツ施設,公園・スポーツ/スポーツ施設,153,1693
135.5098141,34.64363903,阿倍野屋内プール,あべのおくないぷーる,阿倍野屋内プール（あべのおくないぷーる）,阿倍野区阿倍野筋3－13－23,阿倍野区,06-6636-7290,06-6636-7291,,,http://www.sports.city.osaka.jp/sports/sa/tb/i/2/0/0/71/0/20710005/d.html,,,,公園・スポーツ,スポーツ施設,公園・スポーツ/スポーツ施設,153,1752
135.5098417,34.64351117,阿倍野トレーニングルーム,あべのとれーにんぐるーむ,阿倍野トレーニングルーム（あべのとれーにんぐるーむ）,阿倍野区阿倍野筋3－13－23　阿倍野屋内プール内,阿倍野区,06-6636-7292,06-6636-7291,,,http://www.sports.city.osaka.jp/sports/sa/tb/i/2/0/4/0/0/20710006/d.html,,,,公園・スポーツ,スポーツ施設,公園・スポーツ/スポーツ施設,153,1753
135.5441921,34.65323908,生野スポーツセンター,いくのすぽーつせんたー,生野スポーツセンター（いくのすぽーつせんたー）,生野区巽西1丁目1番3号,生野区,06-6758-4500,,,,http://www.sports.city.osaka.jp/sports/sa/tb/i/2/0/0/67/0/20670001/d.html,http://www.osaka-bfmap.jp/sisetu_data/data/150601.php?bunrui=1&name=15.php,,,公園・スポーツ,スポーツ施設,公園・スポーツ/スポーツ施設,153,4614
135.4993328,34.66153608,浪速屋内プ－ル,なにわおくないぷーる,浪速屋内プ－ル（なにわおくないぷーる）,浪速区難波中3-8-8,浪速区,06-6643-6446,06-6643-6447,,,http://www.sports.city.osaka.jp/sports/sa/tb/i/2/0/0/61/0/20610003/d.html,,,,公園・スポーツ,スポーツ施設,公園・スポーツ/スポーツ施設,153,333
135.4993503,34.66145814,浪速アイススケ－ト場,なにわあいすすけーとじょう,浪速アイススケ－ト場（なにわあいすすけーとじょう）,浪速区難波中3-8-8,浪速区,06-6643-6448,06-6643-6449,,,http://www.sports.city.osaka.jp/sports/sa/tb/i/2/0/0/61/0/20610004/d.html,,,,公園・スポーツ,スポーツ施設,公園・スポーツ/スポーツ施設,153,337
135.4993328,34.66161403,浪速スポ－ツセンタ－,なにわすぽーつせんたー,浪速スポ－ツセンタ－（なにわすぽーつせんたー）,浪速区難波中3-8-8,浪速区,06-6643-6444,06-6643-6445,,,http://www.sports.city.osaka.jp/sports/sa/tb/i/2/0/0/61/0/20610002/d.html,,,,公園・スポーツ,スポーツ施設,公園・スポーツ/スポーツ施設,153,1724
135.4990808,34.66254392,大阪府立体育会館,おおさかふりつたいいくかいかん,大阪府立体育会館（おおさかふりつたいいくかいかん）,浪速区難波中3-4-36,浪速区,06-6631-0121,06-6643-0339,,,http://www.furitutaiikukaikan.gr.jp/,,,,公園・スポーツ,スポーツ施設,公園・スポーツ/スポーツ施設,153,2631
135.5354188,34.6606605,生野屋内プール,いくのおくないぷーる,生野屋内プール（いくのおくないぷーる）,生野区桃谷3-8-18,生野区,06-6731-7381,,,,http://www.spopara.com/database/facility/detail.php?id=16,,,,公園・スポーツ,スポーツ施設,公園・スポーツ/スポーツ施設,153,8446
135.5284813,34.67085589,天王寺スポーツセンター,てんのうじすぽーつせんたー,天王寺スポーツセンター（てんのうじすぽーつせんたー）,天王寺区真田山町5-109,天王寺区,06-6765-0043,,,,http://www.sports.city.osaka.jp/sports/sa/tb/i/2/0/0/59/0/20590001/d.html,http://www.osaka-bfmap.jp/sisetu_data/data/090601.php?bunrui=1&name=9.php,,,公園・スポーツ,スポーツ施設,公園・スポーツ/スポーツ施設,153,4297
135.5284173,34.67075617,真田山プールアイススケート場,さなだやまぷーるあいすすけーとじょう,真田山プールアイススケート場（さなだやまぷーるあいすすけーとじょう）,天王寺区真田山町5-109 真田山公園内　,天王寺区,06-6765-0176,,,,http://www.sports.city.osaka.jp/sports/sa/tb/i/2/0/0/59/0/20590006/d.html,,,,公園・スポーツ,スポーツ施設,公園・スポーツ/スポーツ施設,153,4298
135.5078892,34.67168297,中央スポーツセンター,ちゅうおうすぽーつせんたー,中央スポーツセンター（ちゅうおうすぽーつせんたー）,中央区島之内2-12-31,中央区,06-6211-2010,,,,http://www.sports.city.osaka.jp/sports/sa/tb/i/2/0/0/55/0/20550001/d.html,,,,公園・スポーツ,スポーツ施設,公園・スポーツ/スポーツ施設,153,1646
135.5089672,34.67141111,中央屋内プール,ちゅうおうおくないぷーる,中央屋内プール（ちゅうおうおくないぷーる）,中央区島之内2-7-8,中央区,06-6212-5473,,,,http://www.sports.city.osaka.jp/sports/sa/tb/i/2/0/0/55/0/20550005/d.html,,,,公園・スポーツ,スポーツ施設,公園・スポーツ/スポーツ施設,153,1647
135.5089638,34.67114994,中央トレーニングルーム,ちゅうおうとれーにんぐるーむ,中央トレーニングルーム（ちゅうおうとれーにんぐるーむ）,中央区島之内2-7-8 中央屋内プール内,中央区,06-6212-5475,,,,http://www.sports.city.osaka.jp/sports/sa/tb/i/2/0/0/55/0/20550004/d.html,,,,公園・スポーツ,スポーツ施設,公園・スポーツ/スポーツ施設,153,1648
135.5283829,34.67100292,真田山プール,さなだやまぷーる,真田山プール（さなだやまぷーる）,天王寺区真田山町5-109,天王寺区,06-6765-0176,,,,http://www.sports.city.osaka.jp/sports/sa/tb/i/2/0/0/59/0/20590005/d.html,,,,公園・スポーツ,スポーツ施設,公園・スポーツ/スポーツ施設,153,4296
135.5248997,34.68441406,修道館,しゅうどうかん,修道館（しゅうどうかん）,中央区大阪城2-1 大阪城公園内,中央区,06-6941-1523,,,,http://www.sports.city.osaka.jp/sports/sa/tb/i/2/0/0/55/0/20550002/d.html,,,,公園・スポーツ,スポーツ施設,公園・スポーツ/スポーツ施設,153,1649
135.4955861,34.68631097,靱庭球場,うつぼていきゅうじょう,靱庭球場（うつぼていきゅうじょう）,西区靱本町1-9-3,西区,06-6441-6211,06-6441-6226,,,http://www.sports.city.osaka.jp/sports/sa/tb/i/2/0/0/56/0/20560005/d.html,,,,公園・スポーツ,スポーツ施設,公園・スポーツ/スポーツ施設,153,2192
135.5134779,34.69191692,南天満テニス場,みなみてんまてにすじょう,南天満テニス場（みなみてんまてにすじょう）,北区南天満公園内,北区,06-6312-8121,,,,http://www.sports.city.osaka.jp/sports/sa/tb/i/2/0/0/51/0/20510007/d.html,,,,公園・スポーツ,スポーツ施設,公園・スポーツ/スポーツ施設,153,786
135.5312807,34.68870311,大阪城野球場,おおさかじょうやきゅうじょう,大阪城野球場（おおさかじょうやきゅうじょう）,中央区＜大阪城公園内＞,中央区,06-6941-1144,,,,http://www.sports.city.osaka.jp/sports/sa/tb/i/2/0/0/55/0/20550008/d.html,,,,公園・スポーツ,スポーツ施設,公園・スポーツ/スポーツ施設,153,1644
135.5336037,34.68632761,大阪城弓道場,おおさかじょうきゅうどうじょう,大阪城弓道場（おおさかじょうきゅうどうじょう）,中央区大阪城3-4 大阪城公園内,中央区,06-6941-9921,06-6941-9923,,,http://www.sports.city.osaka.jp/sports/sa/tb/i/2/0/0/55/0/20550007/d.html,http://www.osaka-bfmap.jp/sisetu_data/data/050601.php?bunrui=1&name=5.php,,,公園・スポーツ,スポーツ施設,公園・スポーツ/スポーツ施設,153,1645
135.5364691,34.69158933,城東スポーツセンター,じょうとうすぽーつせんたー,城東スポーツセンター（じょうとうすぽーつせんたー）,城東区鴫野西2-1-21,城東区,06-6965-1391,06-6965-1392,,,http://www.sports.city.osaka.jp/sports/sa/tb/i/2/0/0/69/0/20690001/d.html,,,,公園・スポーツ,スポーツ施設,公園・スポーツ/スポーツ施設,153,5131
135.5480392,34.67899194,東成スポーツセンター,ひがしなりすぽーつせんたー,東成スポーツセンター（ひがしなりすぽーつせんたー）,東成区東中本2丁目11番30号,東成区,06-6973-5166,06-6973-5176,,,http://www.sports.city.osaka.jp/sports/sa/tb/i/2/0/0/66/0/20660001/d.html,http://www.osaka-bfmap.jp/sisetu_data/data/140601.php?bunrui=1&name=14.php,,,公園・スポーツ,スポーツ施設,公園・スポーツ/スポーツ施設,153,3480
135.5480581,34.67878289,東成トレーニングルーム,ひがしなりとれーにんぐるーむ,東成トレーニングルーム（ひがしなりとれーにんぐるーむ）,東成区東中本2丁目11番30号,東成区,06-6973-8256,06-6973-8256,,,http://www.sports.city.osaka.jp/sports/sa/tb/i/2/0/0/66/0/20660002/d.html,,,,公園・スポーツ,スポーツ施設,公園・スポーツ/スポーツ施設,153,3481
135.547961,34.67846708,東成屋内プール,ひがしなりおくないぷーる,東成屋内プール（ひがしなりおくないぷーる）,東成区東中本2丁目12番1号,東成区,06-6972-6123,06-6972-6122,,,http://www.sports.city.osaka.jp/sports/sa/tb/i/2/0/0/66/0/20660004/d.html,,,,公園・スポーツ,スポーツ施設,公園・スポーツ/スポーツ施設,153,3483
135.5494062,34.68503308,東中浜運動場,ひがしなかはまうんどうじょう,東中浜運動場（ひがしなかはまうんどうじょう）,城東区＜東中浜公園内＞,城東区,06-6941-1144,06-6943-6877,,,http://www.sports.city.osaka.jp/sports/sa/tb/i/2/0/0/69/0/20690007/d.html,,,,公園・スポーツ,スポーツ施設,公園・スポーツ/スポーツ施設,153,5062
135.557231,34.68690303,左専道運動場,させんどううんどうじょう,左専道運動場（させんどううんどうじょう）,城東区＜左専道公園内＞,城東区,06-6941-1144,06-6943-6877,,,http://www.sports.city.osaka.jp/sports/sa/tb/i/2/0/0/69/0/20690008/d.html,,,,公園・スポーツ,スポーツ施設,公園・スポーツ/スポーツ施設,153,5061
135.5702031,34.69157197,今津運動場,いまづうんどうじょう,今津運動場（いまづうんどうじょう）,鶴見区今津中2-3（今津公園内）,鶴見区,06-6941-1144,,,,http://www.sports.city.osaka.jp/sports/sa/tb/i/2/0/0/70/0/20700002/d.html,,,,公園・スポーツ,スポーツ施設,公園・スポーツ/スポーツ施設,153,4113
135.4596611,34.70987517,西淀川スポーツセンター,にしよどがわすぽーつせんたー,西淀川スポーツセンター（にしよどがわすぽーつせんたー）,西淀川区野里2丁目10番35号,西淀川区,06-6472-9200,,,,http://www.sports.city.osaka.jp/sports/sa/tb/i/2/0/0/63/0/20630001/d.html,,,,公園・スポーツ,スポーツ施設,公園・スポーツ/スポーツ施設,153,3710
135.4707609,34.70153608,淀川河川公園海老江地区テニスコート,よどがわかせんこうえんえびえちくてにすこーと,淀川河川公園海老江地区テニスコート（よどがわかせんこうえんえびえちくてにすこーと）,福島区海老江地先,福島区,06-6994-0006,,,,http://www.sports.city.osaka.jp/sports/sa/tb/i/2/0/0/53/0/20530006/d.html,,,,公園・スポーツ,スポーツ施設,公園・スポーツ/スポーツ施設,153,3515
135.4695718,34.70112214,淀川河川公園海老江地区陸上競技場,よどがわかせんこうえんえびえちくりくじょうきょうぎじょう,淀川河川公園海老江地区陸上競技場（よどがわかせんこうえんえびえちくりくじょうきょうぎじょう）,福島区海老江地先,福島区,06-6994-0006,,,,http://www.sports.city.osaka.jp/sports/sa/tb/i/2/0/0/53/0/20530008/d.html,,,,公園・スポーツ,スポーツ施設,公園・スポーツ/スポーツ施設,153,3516
135.4729668,34.70322214,淀川河川公園海老江地区野球場,よどがわかせんこうえんえびえちくやきゅうじょう,淀川河川公園海老江地区野球場（よどがわかせんこうえんえびえちくやきゅうじょう）,福島区海老江地先,福島区,06-6994-0006,,,,http://www.sports.city.osaka.jp/sports/sa/tb/i/2/0/0/53/0/20530007/d.html,,,,公園・スポーツ,スポーツ施設,公園・スポーツ/スポーツ施設,153,3517
135.4836563,34.70142789,浦江運動場,うらえうんどうじょう,浦江運動場（うらえうんどうじょう）,北区浦江公園内,北区,06-6312-8121,,,,http://www.sports.city.osaka.jp/sports/sa/tb/i/2/0/0/51/0/20510004/d.html,,,,公園・スポーツ,スポーツ施設,公園・スポーツ/スポーツ施設,153,326
135.4825998,34.70054681,浦江テニス場,うらえてにすじょう,浦江テニス場（うらえてにすじょう）,北区浦江公園内,北区,06-6312-8121,,,,http://www.sports.city.osaka.jp/sports/sa/tb/i/2/0/0/51/0/20510003/d.html,,,,公園・スポーツ,スポーツ施設,公園・スポーツ/スポーツ施設,153,787
135.4925327,34.71030606,北スポーツセンター,きたすぽーつせんたー,北スポーツセンター（きたすぽーつせんたー）,北区中津3-4-27,北区,06-6359-0700,,,,,http://www.osaka-bfmap.jp/sisetu_data/data/010601.php?bunrui=1&name=1.php,,,公園・スポーツ,スポーツ施設,公園・スポーツ/スポーツ施設,153,324
135.476419,34.71707517,十三野球場,じゅうそうやきゅうじょう,十三野球場（じゅうそうやきゅうじょう）,淀川区十三元今里1-1,淀川区,06-6309-0008,,,,http://www.sports.city.osaka.jp/sports/sa/tb/i/2/0/0/64/0/20640002/d.html,,,,公園・スポーツ,スポーツ施設,公園・スポーツ/スポーツ施設,153,2460
135.4868478,34.72130606,淀川屋内プール,よどがわおくないぷーる,淀川屋内プール（よどがわおくないぷーる）,淀川区十三東２－３－１,淀川区,06-6885-1711,,,,http://www.sports.city.osaka.jp/sports/sa/tb/i/2/0/0/64/0/20640004/d.html,,,,公園・スポーツ,スポーツ施設,公園・スポーツ/スポーツ施設,153,37
135.5098558,34.70355817,扇町プール,おうぎまちぷーる,扇町プール（おうぎまちぷーる）,北区 扇町公園内,北区,06-6363-8911,,,,http://www.sports.city.osaka.jp/sports/sa/tb/i/2/0/0/51/0/20510011/d.html,,,,公園・スポーツ,スポーツ施設,公園・スポーツ/スポーツ施設,153,325
135.5141886,34.70075286,与力町運動場,よりきちょううんどうじょう,与力町運動場（よりきちょううんどうじょう）,北区与力町公園内,北区,06-6312-8121,,,,http://www.sports.city.osaka.jp/sports/sa/tb/i/2/0/0/51/0/20510002/d.html,,,,公園・スポーツ,スポーツ施設,公園・スポーツ/スポーツ施設,153,785
135.5222189,34.70122517,桜之宮野球場,さくらのみややきゅうじょう,桜之宮野球場（さくらのみややきゅうじょう）,都島区毛馬桜之宮公園内,都島区,06-6312-8121,,,,http://www.sports.city.osaka.jp/sports/sa/tb/i/2/0/0/52/0/20520002/d.html,,,,公園・スポーツ,スポーツ施設,公園・スポーツ/スポーツ施設,153,3031
135.5324584,34.70740314,都島屋内プール・トレーニングルーム,みやこじまおくないぷーる・とれーにんぐるーむ,都島屋内プール・トレーニングルーム（みやこじまおくないぷーる・とれーにんぐるーむ）,都島区都島本通4-12-7,都島区,06-6922-8005,,,,,,,,公園・スポーツ,スポーツ施設,公園・スポーツ/スポーツ施設,153,1719
135.5446112,34.70417814,蒲生野球場,がもうやきゅうじょう,蒲生野球場（がもうやきゅうじょう）,城東区＜蒲生公園内＞,城東区,06-6941-1144,06-6943-6877,,,http://www.sports.city.osaka.jp/sports/sa/tb/i/2/0/0/69/0/20690005/d.html,,,,公園・スポーツ,スポーツ施設,公園・スポーツ/スポーツ施設,153,722
135.5221893,34.70791711,都島スポーツセンター,みやこじますぽーつせんたー,都島スポーツセンター（みやこじますぽーつせんたー）,都島区中野町5-15-21,都島区,06-6927-9124,,,,http://www.sports.city.osaka.jp/sports/sa/tb/i/2/0/0/52/0/20520001/d.html,,,,公園・スポーツ,スポーツ施設,公園・スポーツ/スポーツ施設,153,2988
135.5008332,34.72261697,淀川河川公園西中島地区野球場,よどがわかせんこうえんにしなかじまちくやきゅうじょう,淀川河川公園西中島地区野球場（よどがわかせんこうえんにしなかじまちくやきゅうじょう）,淀川区淀川河川公園西中島地区,淀川区,06-6993-0684,,,,http://www2.kasen.or.jp/map/nisinaka.html,,,,公園・スポーツ,スポーツ施設,公園・スポーツ/スポーツ施設,153,2569
135.506122,34.72656111,くにじまテニスコート,くにじまてにすこーと,くにじまテニスコート（くにじまてにすこーと）,東淀川区柴島1-3-21,東淀川区,06-6325-2231,,,,http://www.kunijima-tennis-sports.com/tennis/index.html,,,,公園・スポーツ,スポーツ施設,公園・スポーツ/スポーツ施設,153,1556
135.5397172,34.71771903,旭庭球場,あさひていきゅうじょう,旭庭球場（あさひていきゅうじょう）,旭区高殿5－8（旭公園内）,旭区,,,,,,,,,公園・スポーツ,スポーツ施設,公園・スポーツ/スポーツ施設,153,2846
135.5407278,34.71689683,旭スポーツセンター,あさひすぽーつせんたー,旭スポーツセンター（あさひすぽーつせんたー）,旭区高殿5-3-25,旭区,06-6951-6575,06-6951-6580,,,http://www.sports.city.osaka.jp/sports/sa/tb/i/2/0/0/68/0/20680001/d.html,http://www.osaka-bfmap.jp/sisetu_data/data/160601.php?bunrui=1&name=16.php,,,公園・スポーツ,スポーツ施設,公園・スポーツ/スポーツ施設,153,1880
135.5461608,34.71765592,旭屋内プール,あさひおくないぷーる,旭屋内プール（あさひおくないぷーる）,旭区高殿6-14-6,旭区,06-6955-6491,06-6955-6492,,,http://www.sports.city.osaka.jp/sports/sa/tb/i/2/0/0/68/0/20680007/d.html,,,,公園・スポーツ,スポーツ施設,公園・スポーツ/スポーツ施設,153,1886
135.5407972,34.71817794,旭運動場,あさひうんどうじょう,旭運動場（あさひうんどうじょう）,旭区高殿5－7（旭公園内）,旭区,,,,,,,,,公園・スポーツ,スポーツ施設,公園・スポーツ/スポーツ施設,153,2845
135.5516551,34.70393814,鯰江運動場,なまずえうんどうじょう,鯰江運動場（なまずえうんどうじょう）,城東区＜鯰江公園内＞,城東区,06-6941-1144,06-6943-6877,,,http://www.sports.city.osaka.jp/sports/sa/tb/i/2/0/0/69/0/20690006/d.html,,,,公園・スポーツ,スポーツ施設,公園・スポーツ/スポーツ施設,153,5063
135.5531731,34.70654761,城東トレーニングルーム,じょうとうとれーにんぐるーむ,城東トレーニングルーム（じょうとうとれーにんぐるーむ）,城東区関目2-17-45,城東区,06-4255-0233,,,,http://www.sports.city.osaka.jp/sports/sa/tb/i/2/0/0/69/0/20690003/d.html,,,,公園・スポーツ,スポーツ施設,公園・スポーツ/スポーツ施設,153,5077
135.5531528,34.70668275,城東屋内プール,じょうとうおくないぷーる,城東屋内プール（じょうとうおくないぷーる）,城東区関目2-17-45,城東区,06-4255-0230,06-4255-0231,,,http://www.sports.city.osaka.jp/sports/sa/tb/i/2/0/0/69/0/20690004/d.html,,,,公園・スポーツ,スポーツ施設,公園・スポーツ/スポーツ施設,153,5078
135.5669968,34.71216914,鶴見緑地第２運動場,つるみりょくちだい２うんどうじょう,鶴見緑地第２運動場（つるみりょくちだい２うんどうじょう）,鶴見区緑3-16,鶴見区,06-6915-4712,,,,http://www.sports.city.osaka.jp/sports/sa/tb/i/2/0/0/70/0/20700011/d.html,,,,公園・スポーツ,スポーツ施設,公園・スポーツ/スポーツ施設,153,4171
135.5797277,34.70692792,鶴見緑地テニス場,つるみりょくちてにすじょう,鶴見緑地テニス場（つるみりょくちてにすじょう）,鶴見区浜 1-2-6,鶴見区,06-6915-2550,,,,http://www.sports.city.osaka.jp/sports/sa/tb/i/2/0/0/70/0/20700003/d.html,,,,公園・スポーツ,スポーツ施設,公園・スポーツ/スポーツ施設,153,4112
135.5811001,34.70768303,鶴見緑地運動場,つるみりょくちうんどうじょう,鶴見緑地運動場（つるみりょくちうんどうじょう）,鶴見区浜 1-1-37,鶴見区,06-6915-4712,,,,http://www.sports.city.osaka.jp/sports/sa/tb/i/2/0/0/70/0/20700004/d.html,,,,公園・スポーツ,スポーツ施設,公園・スポーツ/スポーツ施設,153,4115
135.5813083,34.70615583,鶴見緑地球技場,つるみりょくちきゅうぎじょう,鶴見緑地球技場（つるみりょくちきゅうぎじょう）,鶴見区浜 1-1-37,鶴見区,06-6915-4712,,,,http://www.sports.city.osaka.jp/sports/sa/tb/i/2/0/0/70/0/20700005/d.html,http://www.osaka-bfmap.jp/sisetu_data/data/180602.php?bunrui=1&name=18.php,,,公園・スポーツ,スポーツ施設,公園・スポーツ/スポーツ施設,153,4116
135.5771938,34.71065792,鶴見スポーツセンター,つるみすぽーつせんたー,鶴見スポーツセンター（つるみすぽーつせんたー）,鶴見区（花博記念公園鶴見緑地内）,鶴見区,06-6915-2567,,,,http://www.sports.city.osaka.jp/sports/sa/tb/i/2/0/0/70/0/20700001/d.html,http://www.osaka-bfmap.jp/sisetu_data/data/180601.php?bunrui=1&name=18.php,,,公園・スポーツ,スポーツ施設,公園・スポーツ/スポーツ施設,153,4111
135.575083,34.70795811,シティゴルフつるみ,してぃごるふつるみ,シティゴルフつるみ（してぃごるふつるみ）,鶴見区諸口6-16-20,鶴見区,06-6912-4010,,,,http://www.sports.city.osaka.jp/sports/sa/tb/i/2/0/0/70/0/20700009/d.html,,,,公園・スポーツ,スポーツ施設,公園・スポーツ/スポーツ施設,153,4117
135.5810173,34.70928883,鶴見緑地プール,つるみりょくちぷーる,鶴見緑地プール（つるみりょくちぷーる）,鶴見区緑地公園1-37,鶴見区,06-6915-4721,,,,http://www.sports.city.osaka.jp/sports/sa/tb/i/2/0/0/70/0/20700006/d.html,,,,公園・スポーツ,スポーツ施設,公園・スポーツ/スポーツ施設,153,4114
135.5743277,34.71641394,鶴見緑地パークゴルフ場,つるみりょくちぱーくごるふじょう,鶴見緑地パークゴルフ場（つるみりょくちぱーくごるふじょう）,鶴見区（花博記念公園鶴見緑地内）,大阪市以外,06-6912-5865,,,,http://www.sports.city.osaka.jp/sports/sa/tb/i/2/0/0/70/0/20700008/d.html,,,,公園・スポーツ,スポーツ施設,公園・スポーツ/スポーツ施設,153,29
135.5054328,34.73248914,東淀川体育館,ひがしよどがわたいいくかん,東淀川体育館（ひがしよどがわたいいくかん）,東淀川区東中島4-4-4,東淀川区,06-6321-0003,06-6321-0044,,,http://www.sports.city.osaka.jp/sports/sa/tb/i/2/0/0/65/0/20650001/d.html,,,,公園・スポーツ,スポーツ施設,公園・スポーツ/スポーツ施設,153,1345
135.4940372,34.73453444,淀川スポーツセンター,よどがわすぽーつせんたー,淀川スポーツセンター（よどがわすぽーつせんたー）,淀川区西宮原2-1-3,淀川区,06-6350-4555,,,,http://www.fitness21.or.jp/shitei_yodogawasc.html,,,,公園・スポーツ,スポーツ施設,公園・スポーツ/スポーツ施設,153,2502
135.5151251,34.73261094,くにじまスポーツ　　　,くにじますぽーつ,くにじまスポーツ　　　（くにじますぽーつ）,東淀川区柴島3-11-139,東淀川区,06-6323-9719,,,,http://www.kunijima-tennis-sports.com/,,,,公園・スポーツ,スポーツ施設,公園・スポーツ/スポーツ施設,153,1553
135.5194781,34.73450786,東淀川スポーツセンター,ひがしよどがわすぽーつせんたー,東淀川スポーツセンター（ひがしよどがわすぽーつせんたー）,東淀川区東淡路1-4-21,東淀川区,06-6321-7182,,,,http://www.sports.city.osaka.jp/sports/sa/tb/i/2/0/0/65/0/20650002/d.html,,,,公園・スポーツ,スポーツ施設,公園・スポーツ/スポーツ施設,153,1557
135.5197557,34.73408303,東淀川屋内プール,ひがしよどがわおくないぷーる,東淀川屋内プール（ひがしよどがわおくないぷーる）,東淀川区東淡路1-4-53,東淀川区,06-6325-5077,,,,http://www.sports.city.osaka.jp/sports/sa/tb/i/2/0/0/65/0/20650004/d.html,,,,公園・スポーツ,スポーツ施設,公園・スポーツ/スポーツ施設,153,1554
135.5197443,34.73397192,東淀川トレーニングルーム,ひがしよどがわとれーにんぐるーむ,東淀川トレーニングルーム（ひがしよどがわとれーにんぐるーむ）,東淀川区東淡路1-4-53,東淀川区,06-6325-5073,,,,http://www.sports.city.osaka.jp/sports/sa/tb/i/2/0/0/65/0/20650003/d.html,,,,公園・スポーツ,スポーツ施設,公園・スポーツ/スポーツ施設,153,1555
135.5446887,34.75807492,北江口中央庭球場,きたえぐちちゅうおうていきゅうじょう,北江口中央庭球場（きたえぐちちゅうおうていきゅうじょう）,東淀川区北江口2-1,東淀川区,06-6309-0008,,,,http://www.sports.city.osaka.jp/sports/sa/tb/i/2/0/0/65/0/20650005/d.html,,,,公園・スポーツ,スポーツ施設,公園・スポーツ/スポーツ施設,153,174
135.4521941,34.640331,(仮設)鶴浜コミュニティ広場,,(仮設)鶴浜コミュニティ広場（）,大正区鶴町3-25,大正区,06-6553-5511,,,,,,,,公園・スポーツ,スポーツ施設,公園・スポーツ/スポーツ施設,153,3923
135.4722688,34.64856094,千島公園内運動場,,千島公園内運動場（）,大正区千島2-7,大正区,06-6553-5511,,,,,,,,公園・スポーツ,スポーツ施設,公園・スポーツ/スポーツ施設,153,3978
135.4762283,34.64644183,千島下水処理場テニスコート,,千島下水処理場テニスコート（）,大正区小林東2-5,大正区,06-6554-7206,,,,,,,,公園・スポーツ,スポーツ施設,公園・スポーツ/スポーツ施設,153,3835
135.4740609,34.64976403,千島公園コミュニティ広場,,千島公園コミュニティ広場（）,大正区千島2-7,大正区,06-6553-5511,,,,,,,,公園・スポーツ,スポーツ施設,公園・スポーツ/スポーツ施設,153,3856
135.4792109,34.65938294,三軒家公園内運動場,,三軒家公園内運動場（）,大正区三軒家東2-12,大正区,06-6553-5511,,,,,,,,公園・スポーツ,スポーツ施設,公園・スポーツ/スポーツ施設,153,3811
135.4785723,34.66016914,三軒家テニスコート(ソフトテニス専用),,三軒家テニスコート(ソフトテニス専用)（）,大正区三軒家東2-12(三軒家公園内),大正区,06-4394-9743,,,,,,,,公園・スポーツ,スポーツ施設,公園・スポーツ/スポーツ施設,153,3814
135.5272079,34.669297,真田山公園事務所,さなだやまこうえんじむしょ,真田山公園事務所（さなだやまこうえんじむしょ）,天王寺区真田山町5-70,天王寺区,06-6761-1770,06-6761-1645,公園や街路樹の維持管理,,http://www.city.osaka.lg.jp/kensetsu/page/0000082275.html,,,,公園・スポーツ,公園,公園・スポーツ/公園,143,4300
135.4551471,34.63587203,鶴町南公園,つるまちみなみこうえん,鶴町南公園（つるまちみなみこうえん）,大正区鶴町1-19,大正区,,,近隣公園,,,,,,公園・スポーツ,公園,公園・スポーツ/公園,154,3908
135.507919,34.695905,西天満どんぐり公園,にしてんまどんぐりこうえん,西天満どんぐり公園（にしてんまどんぐりこうえん）,北区西天満3-7,北区,,,街区公園,,,,,,公園・スポーツ,公園,公園・スポーツ/公園,154,95210
135.519952,34.718718,蕪村公園,ぶそんこうえん,蕪村公園（ぶそんこうえん）,都島区毛馬町1-12,都島区,,,近隣公園,,,,,,公園・スポーツ,公園,公園・スポーツ/公園,154,95211
135.463051,34.690132,高見新家公園,たかみしんけこうえん,高見新家公園（たかみしんけこうえん）,福島区大開4-5,福島区,,,地区公園,,,,,,公園・スポーツ,公園,公園・スポーツ/公園,154,95212
135.436229,34.66856,島屋西公園,しまやにしこうえん,島屋西公園（しまやにしこうえん）,此花区島屋5-1,此花区,,,街区公園,,,,,,公園・スポーツ,公園,公園・スポーツ/公園,154,95213
135.44213,34.67188878,安治川口北公園,あじがわぐちきたこうえん,安治川口北公園（あじがわぐちきたこうえん）,此花区島屋6-1,此花区,,,街区公園,,,,,,公園・スポーツ,公園,公園・スポーツ/公園,154,95214
135.430771,34.672919,北港運河公園,ほくこううんがこうえん,北港運河公園（ほくこううんがこうえん）,此花区北港1-1,此花区,,,近隣公園,,,,,,公園・スポーツ,公園,公園・スポーツ/公園,154,95215
135.497735,34.687443,京町堀公園,きょうまちぼりこうえん,京町堀公園（きょうまちぼりこうえん）,西区京町堀1-2,西区,,,街区公園,,,,,,公園・スポーツ,公園,公園・スポーツ/公園,154,95216
135.50745,34.661567,日本橋公園,にほんばしこうえん,日本橋公園（にほんばしこうえん）,浪速区日本橋3-2,浪速区,,,街区公園,,,,,,公園・スポーツ,公園,公園・スポーツ/公園,154,95217
135.485815,34.655378,浪速西公園,なにわにしこうえん,浪速西公園（なにわにしこうえん）,浪速区浪速西3-10,浪速区,,,街区公園,,,,,,公園・スポーツ,公園,公園・スポーツ/公園,154,95218
135.4835916,34.66153578,芦原公園,あしはらこうえん,芦原公園（あしはらこうえん）,浪速区久保吉2-1,浪速区,,,近隣公園,,,,,,公園・スポーツ,公園,公園・スポーツ/公園,154,95219
135.502775,34.657995,関谷町公園,せきやちょうこうえん,関谷町公園（せきやちょうこうえん）,浪速区日本橋西1-9,浪速区,,,街区公園,,,,,,公園・スポーツ,公園,公園・スポーツ/公園,154,95220
135.494677,34.655343,大国町北公園,だいこくちょうきたこうえん,大国町北公園（だいこくちょうきたこうえん）,浪速区大国2-3,浪速区,,,街区公園,,,,,,公園・スポーツ,公園,公園・スポーツ/公園,154,95221
135.492926,34.66192,浪速公園,なにわこうえん,浪速公園（なにわこうえん）,浪速区塩草1-1,浪速区,,,近隣公園,,,,,,公園・スポーツ,公園,公園・スポーツ/公園,154,95222
135.495106,34.659093,?町公園,かもめちょうこうえん,?町公園（かもめちょうこうえん）,浪速区敷津西1-7,浪速区,,,街区公園,,,,,,公園・スポーツ,公園,公園・スポーツ/公園,154,95223
135.489329,34.657077,浪速中公園,なにわなかこうえん,浪速中公園（なにわなかこうえん）,浪速区浪速東2-8,浪速区,,,街区公園,,,,,,公園・スポーツ,公園,公園・スポーツ/公園,154,95224
135.486086,34.657604,浪速北公園,なにわきたこうえん,浪速北公園（なにわきたこうえん）,浪速区浪速西1-10,浪速区,,,街区公園,,,,,,公園・スポーツ,公園,公園・スポーツ/公園,154,95225
135.495254,34.652931,大国町南公園,だいこくちょうみなみこうえん,大国町南公園（だいこくちょうみなみこうえん）,浪速区大国2-14,浪速区,,,街区公園,,,,,,公園・スポーツ,公園,公園・スポーツ/公園,154,95226
135.50749,34.65809,日東公園,にっとうこうえん,日東公園（にっとうこうえん）,浪速区日本橋東3-2,浪速区,,,街区公園,,,,,,公園・スポーツ,公園,公園・スポーツ/公園,154,95227
135.509295,34.656594,愛染公園,あいぜんこうえん,愛染公園（あいぜんこうえん）,浪速区下寺3-5,浪速区,,,街区公園,,,,,,公園・スポーツ,公園,公園・スポーツ/公園,154,95228
135.483613,34.665617,桜川公園,さくらがわこうえん,桜川公園（さくらがわこうえん）,浪速区桜川4-13,浪速区,,,街区公園,,,,,,公園・スポーツ,公園,公園・スポーツ/公園,154,95229
135.496147,34.664867,元町中公園,もとまちなかこうえん,元町中公園（もとまちなかこうえん）,浪速区元町1-6,浪速区,,,街区公園,,,,,,公園・スポーツ,公園,公園・スポーツ/公園,154,95230
135.485069,34.664009,立葉町公園,たてばちょうこうえん,立葉町公園（たてばちょうこうえん）,浪速区立葉2-4,浪速区,,,街区公園,,,,,,公園・スポーツ,公園,公園・スポーツ/公園,154,95231
135.499462,34.660631,難波中公園,なんばなかこうえん,難波中公園（なんばなかこうえん）,浪速区難波中3-11,浪速区,,,街区公園,,,,,,公園・スポーツ,公園,公園・スポーツ/公園,154,95232
135.499859,34.655736,高岸公園,たかぎしこうえん,高岸公園（たかぎしこうえん）,浪速区敷津東3-9,浪速区,,,街区公園,,,,,,公園・スポーツ,公園,公園・スポーツ/公園,154,95233
135.489632,34.654524,浪速南公園,なにわみなみこうえん,浪速南公園（なにわみなみこうえん）,浪速区浪速東3-8,浪速区,,,街区公園,,,,,,公園・スポーツ,公園,公園・スポーツ/公園,154,95234
135.489686,34.667183,稲荷町公園,いなりちょうこうえん,稲荷町公園（いなりちょうこうえん）,浪速区桜川2-5,浪速区,,,街区公園,,,,,,公園・スポーツ,公園,公園・スポーツ/公園,154,95235
135.487996,34.659559,浪速第１公園,なにわだい１こうえん,浪速第１公園（なにわだい１こうえん）,浪速区浪速西1-2,浪速区,,,街区公園,,,,,,公園・スポーツ,公園,公園・スポーツ/公園,154,95236
135.483358,34.657626,木津川公園,きづがわこうえん,木津川公園（きづがわこうえん）,浪速区木津川2-3,浪速区,,,街区公園,,,,,,公園・スポーツ,公園,公園・スポーツ/公園,154,95237
135.501766,34.653275,恵美公園,えみこうえん,恵美公園（えみこうえん）,浪速区恵美須西2-13,浪速区,,,街区公園,,,,,,公園・スポーツ,公園,公園・スポーツ/公園,154,95238
135.4921961,34.65935603,塩草公園,しおくさこうえん,塩草公園（しおくさこうえん）,浪速区塩草2-8,浪速区,,,街区公園,,,,,,公園・スポーツ,公園,公園・スポーツ/公園,154,95239
135.484501,34.660336,久保吉公園,くぼよしこうえん,久保吉公園（くぼよしこうえん）,浪速区久保吉2-2,浪速区,,,街区公園,,,,,,公園・スポーツ,公園,公園・スポーツ/公園,154,95240
135.4914987,34.65485075,浪速東３公園,なにわひがし３こうえん,浪速東３公園（なにわひがし３こうえん）,浪速区浪速東3-3,浪速区,,,街区公園,,,,,,公園・スポーツ,公園,公園・スポーツ/公園,154,95241
135.4888,34.655771,浪速玉姫公園,なにわたまひめこうえん,浪速玉姫公園（なにわたまひめこうえん）,浪速区浪速東3-13,浪速区,,,街区公園,,,,,,公園・スポーツ,公園,公園・スポーツ/公園,154,95242
135.500232,34.65208,戎南公園,えびすみなみこうえん,戎南公園（えびすみなみこうえん）,浪速区戎本町2-5,浪速区,,,街区公園,,,,,,公園・スポーツ,公園,公園・スポーツ/公園,154,95243
135.486185,34.652856,新浪速公園,しんなにわこうえん,新浪速公園（しんなにわこうえん）,浪速区浪速西4-2,浪速区,,,街区公園,,,,,,公園・スポーツ,公園,公園・スポーツ/公園,154,95244
135.490933,34.656594,浪速東公園,なにわひがしこうえん,浪速東公園（なにわひがしこうえん）,浪速区浪速東2-2,浪速区,,,街区公園,,,,,,公園・スポーツ,公園,公園・スポーツ/公園,154,95245
135.4872474,34.65486842,西栄緑道,にしさかえりょくどう,西栄緑道（にしさかえりょくどう）,浪速区浪速西3-8,浪速区,,,緑道,,,,,,公園・スポーツ,公園,公園・スポーツ/公園,154,95246
135.494039,34.661836,難波塩草敷津公園,なにわしおくさしきつこうえん,難波塩草敷津公園（なにわしおくさしきつこうえん）,浪速区元町2-14,浪速区,,,都市緑地,,,,,,公園・スポーツ,公園,公園・スポーツ/公園,154,95247
135.48213,34.6686,幸町西公園,さいわいちょうにしこうえん,幸町西公園（さいわいちょうにしこうえん）,浪速区幸町3-8,浪速区,,,街区公園,,,,,,公園・スポーツ,公園,公園・スポーツ/公園,154,95248
135.446746,34.709478,大和田中一公園,おおわだなかいちこうえん,大和田中一公園（おおわだなかいちこうえん）,西淀川区大和田3-10,西淀川区,,,街区公園,,,,,,公園・スポーツ,公園,公園・スポーツ/公園,154,95249
135.419135,34.695535,中島西公園,なかじまにしこうえん,中島西公園（なかじまにしこうえん）,西淀川区中島2-6,西淀川区,,,街区公園,,,,,,公園・スポーツ,公園,公園・スポーツ/公園,154,95250
135.45384,34.720345,御幣六公園,みてろくこうえん,御幣六公園（みてろくこうえん）,西淀川区御幣島6-6,西淀川区,,,街区公園,,,,,,公園・スポーツ,公園,公園・スポーツ/公園,154,95251
135.418398,34.687415,矢倉緑地,やぐらりょくち,矢倉緑地（やぐらりょくち）,西淀川区西島2-1,西淀川区,,,風致公園,,,,,,公園・スポーツ,公園,公園・スポーツ/公園,154,95252
135.44765,34.699696,姫松公園,ひめまつこうえん,姫松公園（ひめまつこうえん）,西淀川区姫島3-14,西淀川区,,,街区公園,,,,,,公園・スポーツ,公園,公園・スポーツ/公園,154,95253
135.427354,34.703489,中島中公園,なかじまなかこうえん,中島中公園（なかじまなかこうえん）,西淀川区中島1-24,西淀川区,,,街区公園,,,,,,公園・スポーツ,公園,公園・スポーツ/公園,154,95254
135.424462,34.703818,川北中央公園,かわきたちゅうおうこうえん,川北中央公園（かわきたちゅうおうこうえん）,西淀川区中島1-42,西淀川区,,,街区公園,,,,,,公園・スポーツ,公園,公園・スポーツ/公園,154,95255
135.468255,34.713744,塚本駅前公園,つかもとえきまえこうえん,塚本駅前公園（つかもとえきまえこうえん）,淀川区塚本2-29,淀川区,,,街区公園,,,,,,公園・スポーツ,公園,公園・スポーツ/公園,154,95256
135.48213,34.737021,新高東公園,にいたかひがしこうえん,新高東公園（にいたかひがしこうえん）,淀川区新高3-8,淀川区,,,街区公園,,,,,,公園・スポーツ,公園,公園・スポーツ/公園,154,95257
135.483224,34.739162,三国駅前公園,みくにえきまえこうえん,三国駅前公園（みくにえきまえこうえん）,淀川区西三国4-10,淀川区,,,街区公園,,,,,,公園・スポーツ,公園,公園・スポーツ/公園,154,95258
135.45313,34.729776,加島駅前公園,かしまえきまえこうえん,加島駅前公園（かしまえきまえこうえん）,淀川区加島3-中4,淀川区,,,街区公園,,,,,,公園・スポーツ,公園,公園・スポーツ/公園,154,95259
135.482438,34.729498,野中北１公園,のなかきた１こうえん,野中北１公園（のなかきた１こうえん）,淀川区野中北1-6,淀川区,,,街区公園,,,,,,公園・スポーツ,公園,公園・スポーツ/公園,154,95260
135.51975,34.742873,下新庄南公園,しもしんじょうみなみこうえん,下新庄南公園（しもしんじょうみなみこうえん）,東淀川区下新庄2-6,東淀川区,,,街区公園,,,,,,公園・スポーツ,公園,公園・スポーツ/公園,154,95261
135.546371,34.66218,新今里公園,しんいまざとこうえん,新今里公園（しんいまざとこうえん）,生野区新今里2-12,生野区,,,街区公園,,,,,,公園・スポーツ,公園,公園・スポーツ/公園,154,95262
135.542702,34.648351,田島公園,たじまこうえん,田島公園（たじまこうえん）,生野区田島3-5,生野区,,,街区公園,,,,,,公園・スポーツ,公園,公園・スポーツ/公園,154,95263
135.537863,34.648026,舎利寺公園,しゃりじこうえん,舎利寺公園（しゃりじこうえん）,生野区舎利寺3-9,生野区,,,街区公園,,,,,,公園・スポーツ,公園,公園・スポーツ/公園,154,95264
135.550969,34.659274,東中川公園,ひがしなかがわこうえん,東中川公園（ひがしなかがわこうえん）,生野区新今里7-14,生野区,,,街区公園,,,,,,公園・スポーツ,公園,公園・スポーツ/公園,154,95265
135.5355191,34.65445361,御勝山公園,おかちやまこうえん,御勝山公園（おかちやまこうえん）,生野区勝山北3-16,生野区,,,街区公園,,,,,,公園・スポーツ,公園,公園・スポーツ/公園,154,95266
135.530206,34.660044,桃谷公園,ももだにこうえん,桃谷公園（ももだにこうえん）,生野区桃谷1-2,生野区,,,近隣公園,,,,,,公園・スポーツ,公園,公園・スポーツ/公園,154,95267
135.534921,34.650906,生野東公園,いくのひがしこうえん,生野東公園（いくのひがしこうえん）,生野区生野東3-9,生野区,,,近隣公園,,,,,,公園・スポーツ,公園,公園・スポーツ/公園,154,95268
135.543652,34.6445,田島南公園,たじまみなみこうえん,田島南公園（たじまみなみこうえん）,生野区田島5-21,生野区,,,街区公園,,,,,,公園・スポーツ,公園,公園・スポーツ/公園,154,95269
135.547289,34.651232,巽公園,たつみこうえん,巽公園（たつみこうえん）,生野区巽西1-6,生野区,,,地区公園,,,,,,公園・スポーツ,公園,公園・スポーツ/公園,154,95270
135.543276,34.661452,中川公園,なかがわこうえん,中川公園（なかがわこうえん）,生野区中川2-4,生野区,,,街区公園,,,,,,公園・スポーツ,公園,公園・スポーツ/公園,154,95271
135.543394,34.66297,西の川公園,にしのかわこうえん,西の川公園（にしのかわこうえん）,生野区新今里1-14,生野区,,,街区公園,,,,,,公園・スポーツ,公園,公園・スポーツ/公園,154,95272
135.541299,34.661723,中川西公園,なかがわにしこうえん,中川西公園（なかがわにしこうえん）,生野区中川西2-5,生野区,,,街区公園,,,,,,公園・スポーツ,公園,公園・スポーツ/公園,154,95273
135.545752,34.64138,巽南公園,たつみみなみこうえん,巽南公園（たつみみなみこうえん）,生野区巽南1-4,生野区,,,街区公園,,,,,,公園・スポーツ,公園,公園・スポーツ/公園,154,95274
135.559348,34.647945,巽東公園,たつみひがしこうえん,巽東公園（たつみひがしこうえん）,生野区巽東4-3,生野区,,,街区公園,,,,,,公園・スポーツ,公園,公園・スポーツ/公園,154,95275
135.556344,34.654564,巽北公園,たつみきたこうえん,巽北公園（たつみきたこうえん）,生野区巽北4-2,生野区,,,街区公園,,,,,,公園・スポーツ,公園,公園・スポーツ/公園,154,95276
135.557443,34.661039,小路公園,しょうじこうえん,小路公園（しょうじこうえん）,生野区小路東2-14,生野区,,,街区公園,,,,,,公園・スポーツ,公園,公園・スポーツ/公園,154,95277
135.53579,34.653628,御勝山南公園,おかちやまみなみこうえん,御勝山南公園（おかちやまみなみこうえん）,生野区勝山南3-3,生野区,,,街区公園,,,,,,公園・スポーツ,公園,公園・スポーツ/公園,154,95278
135.5393279,34.65890597,御幸森公園,みゆきもりこうえん,御幸森公園（みゆきもりこうえん）,生野区桃谷5-8,生野区,,,街区公園,,,,,,公園・スポーツ,公園,公園・スポーツ/公園,154,95279
135.554946,34.64995,巽矢柄公園,たつみやがらこうえん,巽矢柄公園（たつみやがらこうえん）,生野区巽東1-10,生野区,,,街区公園,,,,,,公園・スポーツ,公園,公園・スポーツ/公園,154,95280
135.529747,34.654908,勝山北公園,かつやまきたこうえん,勝山北公園（かつやまきたこうえん）,生野区勝山北1-11,生野区,,,街区公園,,,,,,公園・スポーツ,公園,公園・スポーツ/公園,154,95281
135.545551,34.656836,中川南公園,なかがわみなみこうえん,中川南公園（なかがわみなみこうえん）,生野区中川5-13,生野区,,,街区公園,,,,,,公園・スポーツ,公園,公園・スポーツ/公園,154,95282
135.535299,34.642741,生野南公園,いくのみなみこうえん,生野南公園（いくのみなみこうえん）,生野区林寺4-6,生野区,,,街区公園,,,,,,公園・スポーツ,公園,公園・スポーツ/公園,154,95283
135.553316,34.661333,小路西公園,しょうじにしこうえん,小路西公園（しょうじにしこうえん）,生野区小路2-2,生野区,,,街区公園,,,,,,公園・スポーツ,公園,公園・スポーツ/公園,154,95284
135.528578,34.653311,勝山西公園,かつやまにしこうえん,勝山西公園（かつやまにしこうえん）,生野区勝山南1-13,生野区,,,街区公園,,,,,,公園・スポーツ,公園,公園・スポーツ/公園,154,95285
135.553302,34.648604,伊賀ヶ西公園,いががにしこうえん,伊賀ヶ西公園（いががにしこうえん）,生野区巽中2-22,生野区,,,街区公園,,,,,,公園・スポーツ,公園,公園・スポーツ/公園,154,95286
135.535755,34.662493,北鶴橋公園,きたつるはしこうえん,北鶴橋公園（きたつるはしこうえん）,生野区鶴橋3-5,生野区,,,街区公園,,,,,,公園・スポーツ,公園,公園・スポーツ/公園,154,95287
135.547203,34.64401,巽西公園,たつみにしこうえん,巽西公園（たつみにしこうえん）,生野区巽西4-6,生野区,,,街区公園,,,,,,公園・スポーツ,公園,公園・スポーツ/公園,154,95288
135.550955,34.647733,巽大地公園,たつみだいちこうえん,巽大地公園（たつみだいちこうえん）,生野区巽中3-9,生野区,,,街区公園,,,,,,公園・スポーツ,公園,公園・スポーツ/公園,154,95289
135.555268,34.656322,小路南公園,しょうじみなみこうえん,小路南公園（しょうじみなみこうえん）,生野区小路3-19,生野区,,,街区公園,,,,,,公園・スポーツ,公園,公園・スポーツ/公園,154,95290
135.555826,34.652792,巽東第一公園,たつみひがしだいいちこうえん,巽東第一公園（たつみひがしだいいちこうえん）,生野区巽東1-1,生野区,,,街区公園,,,,,,公園・スポーツ,公園,公園・スポーツ/公園,154,95291
135.557704,34.658959,小路東公園,しょうじひがしこうえん,小路東公園（しょうじひがしこうえん）,生野区小路東2-23,生野区,,,街区公園,,,,,,公園・スポーツ,公園,公園・スポーツ/公園,154,95292
135.549649,34.650003,巽大地北公園,たつみだいちきたこうえん,巽大地北公園（たつみだいちきたこうえん）,生野区巽中2-7,生野区,,,街区公園,,,,,,公園・スポーツ,公園,公園・スポーツ/公園,154,95293
135.534621,34.660896,みゆき公園,みゆきこうえん,みゆき公園（みゆきこうえん）,生野区桃谷3-7,生野区,,,街区公園,,,,,,公園・スポーツ,公園,公園・スポーツ/公園,154,95294
135.549467,34.651749,巽中東公園,たつみなかひがしこうえん,巽中東公園（たつみなかひがしこうえん）,生野区巽中1-5,生野区,,,街区公園,,,,,,公園・スポーツ,公園,公園・スポーツ/公園,154,95295
135.535809,34.659007,桃谷南公園,ももだにみなみこうえん,桃谷南公園（ももだにみなみこうえん）,生野区桃谷3-14,生野区,,,街区公園,,,,,,公園・スポーツ,公園,公園・スポーツ/公園,154,95296
135.5508801,34.65784694,中川東２公園,なかがわひがし２こうえん,中川東２公園（なかがわひがし２こうえん）,生野区中川東2-4,生野区,,,街区公園,,,,,,公園・スポーツ,公園,公園・スポーツ/公園,154,95297
135.559836,34.652329,巽東３公園,たつみひがし３こうえん,巽東３公園（たつみひがし３こうえん）,生野区巽東3-11,生野区,,,街区公園,,,,,,公園・スポーツ,公園,公園・スポーツ/公園,154,95298
135.552535,34.65155,巽西足代公園,たつみにしあじろこうえん,巽西足代公園（たつみにしあじろこうえん）,生野区巽中1-20,生野区,,,街区公園,,,,,,公園・スポーツ,公園,公園・スポーツ/公園,154,95299
135.555882,34.648984,巽伊賀ヶ公園,たつみいががこうえん,巽伊賀ヶ公園（たつみいががこうえん）,生野区巽東1-16,生野区,,,街区公園,,,,,,公園・スポーツ,公園,公園・スポーツ/公園,154,95300
135.529066,34.647647,生野西４公園,いくのにし４こうえん,生野西４公園（いくのにし４こうえん）,生野区生野西4-7,生野区,,,街区公園,,,,,,公園・スポーツ,公園,公園・スポーツ/公園,154,95301
135.551768,34.641144,南巽公園,みなみたつみこうえん,南巽公園（みなみたつみこうえん）,生野区巽南3-10,生野区,,,街区公園,,,,,,公園・スポーツ,公園,公園・スポーツ/公園,154,95302
135.538335,34.660953,御幸森第２公園,みゆきもりだい２こうえん,御幸森第２公園（みゆきもりだい２こうえん）,生野区桃谷5-4,生野区,,,街区公園,,,,,,公園・スポーツ,公園,公園・スポーツ/公園,154,95303
135.544797,34.651656,巽西１公園,たつみにし１こうえん,巽西１公園（たつみにし１こうえん）,生野区巽西1-3,生野区,,,街区公園,,,,,,公園・スポーツ,公園,公園・スポーツ/公園,154,95304
135.534717,34.646835,生野東４公園,いくのひがし４こうえん,生野東４公園（いくのひがし４こうえん）,生野区生野東4-5,生野区,,,街区公園,,,,,,公園・スポーツ,公園,公園・スポーツ/公園,154,95305
135.545478,34.654134,巽北西公園,たつみきたにしこうえん,巽北西公園（たつみきたにしこうえん）,生野区巽北1-21,生野区,,,街区公園,,,,,,公園・スポーツ,公園,公園・スポーツ/公園,154,95306
135.531356,34.64473,林寺西公園,はやしじにしこうえん,林寺西公園（はやしじにしこうえん）,生野区林寺2-16,生野区,,,街区公園,,,,,,公園・スポーツ,公園,公園・スポーツ/公園,154,95307
135.536927,34.665194,北鶴橋第２公園,きたつるはしだい２こうえん,北鶴橋第２公園（きたつるはしだい２こうえん）,生野区鶴橋4-1,生野区,,,街区公園,,,,,,公園・スポーツ,公園,公園・スポーツ/公園,154,95308
135.547632,34.64645292,巽西みのり公園,たつみにしみのりこうえん,巽西みのり公園（たつみにしみのりこうえん）,生野区巽西3-15,生野区,,,街区公園,,,,,,公園・スポーツ,公園,公園・スポーツ/公園,154,95309
135.542412,34.65452,中川６公園,なかがわ６こうえん,中川６公園（なかがわ６こうえん）,生野区中川6-12,生野区,,,街区公園,,,,,,公園・スポーツ,公園,公園・スポーツ/公園,154,95310
135.539226,34.652986,舎利寺中央公園,しゃりじちゅうおうこうえん,舎利寺中央公園（しゃりじちゅうおうこうえん）,生野区勝山南4-7,生野区,,,街区公園,,,,,,公園・スポーツ,公園,公園・スポーツ/公園,154,95311
135.5594659,34.64466114,巽東緑地,たつみひがしりょくち,巽東緑地（たつみひがしりょくち）,生野区巽東4-11,生野区,,,街区公園,,,,,,公園・スポーツ,公園,公園・スポーツ/公園,154,95312
135.524965,34.648752,猫間川公園,ねこまがわこうえん,猫間川公園（ねこまがわこうえん）,生野区生野西1-18,生野区,,,街区公園,,,,,,公園・スポーツ,公園,公園・スポーツ/公園,154,95313
135.52986,34.663349,北鶴ふれあい公園,きたつるふれあいこうえん,北鶴ふれあい公園（きたつるふれあいこうえん）,生野区鶴橋1-6,生野区,,,街区公園,,,,,,公園・スポーツ,公園,公園・スポーツ/公園,154,95314
135.541613,34.643108,新田島公園,しんたじまこうえん,新田島公園（しんたじまこうえん）,生野区田島5-7,生野区,,,街区公園,,,,,,公園・スポーツ,公園,公園・スポーツ/公園,154,95315
135.533845,34.658312,つるのはし跡公園,つるのはしあとこうえん,つるのはし跡公園（つるのはしあとこうえん）,生野区桃谷3-17,生野区,,,街区公園,,,,,,公園・スポーツ,公園,公園・スポーツ/公園,154,95316
135.549121,34.654498,巽北さくら公園,たつみきたさくらこうえん,巽北さくら公園（たつみきたさくらこうえん）,生野区巽北2-7,生野区,,,街区公園,,,,,,公園・スポーツ,公園,公園・スポーツ/公園,154,95317
135.551607,34.639934,楠正長史跡公園,くすのきまさながしせきこうえん,楠正長史跡公園（くすのきまさながしせきこうえん）,生野区巽南4-2,生野区,,,街区公園,,,,,,公園・スポーツ,公園,公園・スポーツ/公園,154,95318
135.550086,34.644895,巽中４公園,たつみなか４こうえん,巽中４公園（たつみなか４こうえん）,生野区巽中4-6,生野区,,,街区公園,,,,,,公園・スポーツ,公園,公園・スポーツ/公園,154,95319
135.552052,34.633665,巽南ふれあい公園,たつみみなみふれあいこうえん,巽南ふれあい公園（たつみみなみふれあいこうえん）,生野区巽南5-18,生野区,,,街区公園,,,,,,公園・スポーツ,公園,公園・スポーツ/公園,154,95320
135.548801,34.692183,鴫野東２公園,しぎのひがし２こうえん,鴫野東２公園（しぎのひがし２こうえん）,城東区鴫野東2-27,城東区,,,街区公園,,,,,,公園・スポーツ,公園,公園・スポーツ/公園,154,95321
135.553399,34.696166,今福南古堤公園,いまふくみなみふるつつみこうえん,今福南古堤公園（いまふくみなみふるつつみこうえん）,城東区今福南2-4,城東区,,,街区公園,,,,,,公園・スポーツ,公園,公園・スポーツ/公園,154,95322
135.540841,34.699178,蒲生二ふれあい公園,がもうにふれあいこうえん,蒲生二ふれあい公園（がもうにふれあいこうえん）,城東区蒲生2-6,城東区,,,緑道,,,,,,公園・スポーツ,公園,公園・スポーツ/公園,154,95323
135.576643,34.711367,鶴見緑地,つるみりょくち,鶴見緑地（つるみりょくち）,鶴見区緑地公園,鶴見区,,,広域公園,,,,,,公園・スポーツ,公園,公園・スポーツ/公園,154,95324
135.562835,34.687291,放出駅南公園,はなてんえきみなみこうえん,放出駅南公園（はなてんえきみなみこうえん）,鶴見区放出東3-35,鶴見区,,,街区公園,,,,,,公園・スポーツ,公園,公園・スポーツ/公園,154,95325
135.5648383,34.68777419,放出駅南第２公園,はなてんえきみなみだい２こうえん,放出駅南第２公園（はなてんえきみなみだい２こうえん）,鶴見区放出東3-34,鶴見区,,,街区公園,,,,,,公園・スポーツ,公園,公園・スポーツ/公園,154,95326
135.510977,34.643192,金塚ふれあい東公園,かなづかふれあいひがしこうえん,金塚ふれあい東公園（かなづかふれあいひがしこうえん）,阿倍野区阿倍野筋3-11,阿倍野区,,,街区公園,,,,,,公園・スポーツ,公園,公園・スポーツ/公園,154,95327
135.5102339,34.64396383,金塚ふれあい中央公園,かなづかふれあいちゅうおうこうえん,金塚ふれあい中央公園（かなづかふれあいちゅうおうこうえん）,阿倍野区阿倍野筋1-6,阿倍野区,,,街区公園,,,,,,公園・スポーツ,公園,公園・スポーツ/公園,154,95328
135.48173,34.619299,中加賀屋公園,なかかがやこうえん,中加賀屋公園（なかかがやこうえん）,住之江区中加賀屋1-5,住之江区,,,近隣公園,,,,,,公園・スポーツ,公園,公園・スポーツ/公園,154,95329
135.483989,34.610738,浜口西公園,はまぐちにしこうえん,浜口西公園（はまぐちにしこうえん）,住之江区浜口西2-6,住之江区,,,街区公園,,,,,,公園・スポーツ,公園,公園・スポーツ/公園,154,95330
135.486271,34.606932,浜口東公園,はまぐちひがしこうえん,浜口東公園（はまぐちひがしこうえん）,住之江区西住之江1-3,住之江区,,,街区公園,,,,,,公園・スポーツ,公園,公園・スポーツ/公園,154,95331
135.475304,34.622587,北加賀屋公園,きたかがやこうえん,北加賀屋公園（きたかがやこうえん）,住之江区北加賀屋5-3,住之江区,,,近隣公園,,,,,,公園・スポーツ,公園,公園・スポーツ/公園,154,95332
135.478444,34.615943,加賀屋公園,かがやこうえん,加賀屋公園（かがやこうえん）,住之江区中加賀屋3-17,住之江区,,,街区公園,,,,,,公園・スポーツ,公園,公園・スポーツ/公園,154,95333
135.485002,34.597854,安住公園,あずみこうえん,安住公園（あずみこうえん）,住之江区住之江3-16,住之江区,,,街区公園,,,,,,公園・スポーツ,公園,公園・スポーツ/公園,154,95334
135.481462,34.624057,加賀屋北公園,かがやきたこうえん,加賀屋北公園（かがやきたこうえん）,住之江区北加賀屋1-2,住之江区,,,街区公園,,,,,,公園・スポーツ,公園,公園・スポーツ/公園,154,95335
135.476545,34.616343,西加賀屋公園,にしかがやこうえん,西加賀屋公園（にしかがやこうえん）,住之江区西加賀屋3-8,住之江区,,,街区公園,,,,,,公園・スポーツ,公園,公園・スポーツ/公園,154,95336
135.471001,34.603744,新北島南公園,しんきたじまみなみこうえん,新北島南公園（しんきたじまみなみこうえん）,住之江区新北島2-3,住之江区,,,街区公園,,,,,,公園・スポーツ,公園,公園・スポーツ/公園,154,95337
135.488315,34.618908,粉浜公園,こはまこうえん,粉浜公園（こはまこうえん）,住之江区粉浜西2-6,住之江区,,,街区公園,,,,,,公園・スポーツ,公園,公園・スポーツ/公園,154,95338
135.469687,34.607038,新北島東公園,しんきたじまひがしこうえん,新北島東公園（しんきたじまひがしこうえん）,住之江区新北島3-5,住之江区,,,街区公園,,,,,,公園・スポーツ,公園,公園・スポーツ/公園,154,95339
135.472967,34.615564,緑木公園,みどりぎこうえん,緑木公園（みどりぎこうえん）,住之江区緑木2-1,住之江区,,,街区公園,,,,,,公園・スポーツ,公園,公園・スポーツ/公園,154,95340
135.475354,34.60642,南加賀屋公園,みなみかがやこうえん,南加賀屋公園（みなみかがやこうえん）,住之江区南加賀屋3-1,住之江区,,,街区公園,,,,,,公園・スポーツ,公園,公園・スポーツ/公園,154,95341
135.460388,34.609343,新北島西公園,しんきたじまにしこうえん,新北島西公園（しんきたじまにしこうえん）,住之江区新北島7-3,住之江区,,,近隣公園,,,,,,公園・スポーツ,公園,公園・スポーツ/公園,154,95342
135.460085,34.620928,平林北公園,ひらばやしきたこうえん,平林北公園（ひらばやしきたこうえん）,住之江区平林北1-2,住之江区,,,街区公園,,,,,,公園・スポーツ,公園,公園・スポーツ/公園,154,95343
135.488959,34.622508,粉浜北公園,こはまきたこうえん,粉浜北公園（こはまきたこうえん）,住之江区粉浜西1-4,住之江区,,,街区公園,,,,,,公園・スポーツ,公園,公園・スポーツ/公園,154,95344
135.483822,34.608277,浜口公園,はまぐちこうえん,浜口公園（はまぐちこうえん）,住之江区浜口西3-4,住之江区,,,街区公園,,,,,,公園・スポーツ,公園,公園・スポーツ/公園,154,95345
135.456308,34.609294,平林南公園,ひらばやしみなみこうえん,平林南公園（ひらばやしみなみこうえん）,住之江区平林南2-6,住之江区,,,街区公園,,,,,,公園・スポーツ,公園,公園・スポーツ/公園,154,95346
135.480848,34.605444,御崎南公園,みさきみなみこうえん,御崎南公園（みさきみなみこうえん）,住之江区御崎7-3,住之江区,,,近隣公園,,,,,,公園・スポーツ,公園,公園・スポーツ/公園,154,95347
135.466141,34.617248,柴谷公園,しばたにこうえん,柴谷公園（しばたにこうえん）,住之江区柴谷2-7,住之江区,,,近隣公園,,,,,,公園・スポーツ,公園,公園・スポーツ/公園,154,95348
135.478962,34.600373,北島公園,きたじまこうえん,北島公園（きたじまこうえん）,住之江区北島3-17,住之江区,,,街区公園,,,,,,公園・スポーツ,公園,公園・スポーツ/公園,154,95349
135.490144,34.606822,安立北公園,あんりゅうきたこうえん,安立北公園（あんりゅうきたこうえん）,住之江区安立1-10,住之江区,,,街区公園,,,,,,公園・スポーツ,公園,公園・スポーツ/公園,154,95350
135.488666,34.604312,霰松原公園,あられまつばらこうえん,霰松原公園（あられまつばらこうえん）,住之江区安立2-11,住之江区,,,街区公園,,,,,,公園・スポーツ,公園,公園・スポーツ/公園,154,95351
135.481035,34.610438,御崎東公園,みさきひがしこうえん,御崎東公園（みさきひがしこうえん）,住之江区御崎3-3,住之江区,,,街区公園,,,,,,公園・スポーツ,公園,公園・スポーツ/公園,154,95352
135.483036,34.60874,御崎中公園,みさきなかこうえん,御崎中公園（みさきなかこうえん）,住之江区御崎5-1,住之江区,,,街区公園,,,,,,公園・スポーツ,公園,公園・スポーツ/公園,154,95353
135.479547,34.603168,敷津浦東公園,しきつうらひがしこうえん,敷津浦東公園（しきつうらひがしこうえん）,住之江区御崎7-15,住之江区,,,街区公園,,,,,,公園・スポーツ,公園,公園・スポーツ/公園,154,95354
135.4733,34.603093,南加賀屋西公園,みなみかがやにしこうえん,南加賀屋西公園（みなみかがやにしこうえん）,住之江区南加賀屋4-6,住之江区,,,街区公園,,,,,,公園・スポーツ,公園,公園・スポーツ/公園,154,95355
135.490533,34.622069,粉浜東公園,こはまひがしこうえん,粉浜東公園（こはまひがしこうえん）,住之江区粉浜1-5,住之江区,,,街区公園,,,,,,公園・スポーツ,公園,公園・スポーツ/公園,154,95356
135.482918,34.600035,西住之江南公園,にしすみのえみなみこうえん,西住之江南公園（にしすみのえみなみこうえん）,住之江区西住之江3-13,住之江区,,,街区公園,,,,,,公園・スポーツ,公園,公園・スポーツ/公園,154,95357
135.49089,34.618751,粉浜中公園,こはまなかこうえん,粉浜中公園（こはまなかこうえん）,住之江区粉浜1-27,住之江区,,,街区公園,,,,,,公園・スポーツ,公園,公園・スポーツ/公園,154,95358
135.424773,34.633908,南港太陽のまち公園,なんこうたいようのまちこうえん,南港太陽のまち公園（なんこうたいようのまちこうえん）,住之江区南港中4-5,住之江区,,,近隣公園,,,,,,公園・スポーツ,公園,公園・スポーツ/公園,154,95359
135.428204,34.628734,南港緑公園,なんこうみどりこうえん,南港緑公園（なんこうみどりこうえん）,住之江区南港中2-6,住之江区,,,近隣公園,,,,,,公園・スポーツ,公園,公園・スポーツ/公園,154,95360
135.425262,34.627849,南港海のまち公園,なんこううみのまちこうえん,南港海のまち公園（なんこううみのまちこうえん）,住之江区南港中3-6,住之江区,,,近隣公園,,,,,,公園・スポーツ,公園,公園・スポーツ/公園,154,95361
135.420704,34.633751,南港花のまち公園,なんこうはなのまちこうえん,南港花のまち公園（なんこうはなのまちこうえん）,住之江区南港中5-4,住之江区,,,近隣公園,,,,,,公園・スポーツ,公園,公園・スポーツ/公園,154,95362
135.425361,34.630268,南港公園,なんこうこうえん,南港公園（なんこうこうえん）,住之江区南港中3-1,住之江区,,,地区公園,,,,,,公園・スポーツ,公園,公園・スポーツ/公園,154,95363
135.432426,34.632021,南港中央公園,なんこうちゅうおうこうえん,南港中央公園（なんこうちゅうおうこうえん）,住之江区南港東8-5,住之江区,,,総合公園,,,,,,公園・スポーツ,公園,公園・スポーツ/公園,154,95364
135.482127,34.617539,東加賀屋公園,ひがしかがやこうえん,東加賀屋公園（ひがしかがやこうえん）,住之江区東加賀屋2-14,住之江区,,,街区公園,,,,,,公園・スポーツ,公園,公園・スポーツ/公園,154,95365
135.447253,34.613155,平林西公園,ひらばやしにしこうえん,平林西公園（ひらばやしにしこうえん）,住之江区平林南2-12,住之江区,,,街区公園,,,,,,公園・スポーツ,公園,公園・スポーツ/公園,154,95366
135.487612,34.601568,安立南公園,あんりゅうみなみこうえん,安立南公園（あんりゅうみなみこうえん）,住之江区安立3-8,住之江区,,,街区公園,,,,,,公園・スポーツ,公園,公園・スポーツ/公園,154,95367
135.466342,34.60731,新北島中公園,しんきたじまなかこうえん,新北島中公園（しんきたじまなかこうえん）,住之江区新北島3-7,住之江区,,,街区公園,,,,,,公園・スポーツ,公園,公園・スポーツ/公園,154,95368
135.480359,34.621967,北加賀屋東公園,きたかがやひがしこうえん,北加賀屋東公園（きたかがやひがしこうえん）,住之江区北加賀屋1-5,住之江区,,,街区公園,,,,,,公園・スポーツ,公園,公園・スポーツ/公園,154,95369
135.489318,34.616109,粉浜南公園,こはまみなみこうえん,粉浜南公園（こはまみなみこうえん）,住之江区粉浜3-2,住之江区,,,街区公園,,,,,,公園・スポーツ,公園,公園・スポーツ/公園,154,95370
135.462863,34.607436,新北島会館南公園,しんきたじまかいかんみなみこうえん,新北島会館南公園（しんきたじまかいかんみなみこうえん）,住之江区新北島5-3,住之江区,,,街区公園,,,,,,公園・スポーツ,公園,公園・スポーツ/公園,154,95371
135.482175,34.611407,御崎北公園,みさききたこうえん,御崎北公園（みさききたこうえん）,住之江区御崎1-8,住之江区,,,街区公園,,,,,,公園・スポーツ,公園,公園・スポーツ/公園,154,95372
135.485442,34.602009,西住之江中公園,にしすみのえなかこうえん,西住之江中公園（にしすみのえなかこうえん）,住之江区西住之江2-15,住之江区,,,街区公園,,,,,,公園・スポーツ,公園,公園・スポーツ/公園,154,95373
135.460868,34.607029,大和川北公園,やまとがわきたこうえん,大和川北公園（やまとがわきたこうえん）,住之江区新北島8-1,住之江区,,,街区公園,,,,,,公園・スポーツ,公園,公園・スポーツ/公園,154,95374
135.485013,34.618643,東加賀屋１公園,ひがしかがや１こうえん,東加賀屋１公園（ひがしかがや１こうえん）,住之江区東加賀屋1-3,住之江区,,,街区公園,,,,,,公園・スポーツ,公園,公園・スポーツ/公園,154,95375
135.475084,34.602371,加賀屋緑地,かがやりょくち,加賀屋緑地（かがやりょくち）,住之江区南加賀屋4-8,住之江区,,,都市緑地,,,,,,公園・スポーツ,公園,公園・スポーツ/公園,154,95376
135.462279,34.613213,平林泉公園,ひらばやしいずみこうえん,平林泉公園（ひらばやしいずみこうえん）,住之江区泉2-1,住之江区,,,街区公園,,,,,,公園・スポーツ,公園,公園・スポーツ/公園,154,95377
135.5344596,34.63592681,今川緑道,いまがわりょくどう,今川緑道（いまがわりょくどう）,東住吉区今川4-23,東住吉区,,,緑道,,,,,,公園・スポーツ,公園,公園・スポーツ/公園,154,95378
135.527998,34.596262,大和川南公園,やまとがわみなみこうえん,大和川南公園（やまとがわみなみこうえん）,東住吉区矢田7-1,東住吉区,,,地区公園,,,,,,公園・スポーツ,公園,公園・スポーツ/公園,154,95379
135.537539,34.61772,針中野東公園,はりなかのひがしこうえん,針中野東公園（はりなかのひがしこうえん）,東住吉区針中野4-12,東住吉区,,,街区公園,,,,,,公園・スポーツ,公園,公園・スポーツ/公園,154,95380
135.567035,34.597185,川辺大和川公園,かわなべやまとがわこうえん,川辺大和川公園（かわなべやまとがわこうえん）,平野区長吉長原西4-5,平野区,,,近隣公園,,,,,,公園・スポーツ,公園,公園・スポーツ/公園,154,95381
135.558323,34.615407,喜連北公園,きれきたこうえん,喜連北公園（きれきたこうえん）,平野区喜連5-9,平野区,,,街区公園,,,,,,公園・スポーツ,公園,公園・スポーツ/公園,154,95382
135.580325,34.61008,六反さくら公園,ろくたんさくらこうえん,六反さくら公園（ろくたんさくらこうえん）,平野区長吉六反1-5,平野区,,,近隣公園,,,,,,公園・スポーツ,公園,公園・スポーツ/公園,154,95383
135.574819,34.610548,出戸やすらぎ公園,でとやすらぎこうえん,出戸やすらぎ公園（でとやすらぎこうえん）,平野区長吉出戸7-6,平野区,,,街区公園,,,,,,公園・スポーツ,公園,公園・スポーツ/公園,154,95384
135.496109,34.649288,長橋１公園,ながはし１こうえん,長橋１公園（ながはし１こうえん）,西成区長橋1-4,西成区,,,街区公園,,,,,,公園・スポーツ,公園,公園・スポーツ/公園,154,95385
135.480754,34.636324,西成開発３号公園,にしなりかいはつ３ごうこうえん,西成開発３号公園（にしなりかいはつ３ごうこうえん）,西成区津守3-8,西成区,,,街区公園,,,,,,公園・スポーツ,公園,公園・スポーツ/公園,154,95386
135.480765,34.638447,西成開発４号公園,にしなりかいはつ４ごうこうえん,西成開発４号公園（にしなりかいはつ４ごうこうえん）,西成区津守3-8,西成区,,,街区公園,,,,,,公園・スポーツ,公園,公園・スポーツ/公園,154,95387
135.5055937,34.64718992,山王みどり公園,さんのうみどりこうえん,山王みどり公園（さんのうみどりこうえん）,西成区山王1-11,西成区,,,緑道,,,,,,公園・スポーツ,公園,公園・スポーツ/公園,154,95388
135.445858,34.673881,恩貴島公園,おきじまこうえん,恩貴島公園（おきじまこうえん）,此花区春日出南3-3,此花区,,,街区公園,,,,,,公園・スポーツ,公園,公園・スポーツ/公園,154,95389
135.480689,34.685152,野田南緑道,のだみなみりょくどう,野田南緑道（のだみなみりょくどう）,福島区野田1-1,福島区,,,緑道,,,,,,公園・スポーツ,公園,公園・スポーツ/公園,154,95390
135.464188,34.688451,新家西公園,しんけにしこうえん,新家西公園（しんけにしこうえん）,福島区大開4-3,福島区,,,街区公園,,,,,,公園・スポーツ,公園,公園・スポーツ/公園,154,95391
135.431358,34.661628,桜島北公園,さくらじまきたこうえん,桜島北公園（さくらじまきたこうえん）,此花区桜島2-1,此花区,,,近隣公園,,,,,,公園・スポーツ,公園,公園・スポーツ/公園,154,95392
135.518994,34.69091478,天満橋緑道,てんまばしりょくどう,天満橋緑道（てんまばしりょくどう）,中央区天満橋京町1,中央区,,,緑道,,,,,,公園・スポーツ,公園,公園・スポーツ/公園,154,95393
135.53045,34.690961,城見緑道,しろみりょくどう,城見緑道（しろみりょくどう）,中央区城見1-1,中央区,,,緑道,,,,,,公園・スポーツ,公園,公園・スポーツ/公園,154,95394
135.4994112,34.69268569,大川町公園,おおかわちょうこうえん,大川町公園（おおかわちょうこうえん）,中央区北浜4-1,西区,,,街区公園,,,,,,公園・スポーツ,公園,公園・スポーツ/公園,154,95395
135.529393,34.664024,東上町公園,とうじょうちょうこうえん,東上町公園（とうじょうちょうこうえん）,天王寺区東上町2,天王寺区,,,街区公園,,,,,,公園・スポーツ,公園,公園・スポーツ/公園,154,95396
135.499545,34.652887,戎公園,えびすこうえん,戎公園（えびすこうえん）,浪速区戎本町1-3,浪速区,,,街区公園,,,,,,公園・スポーツ,公園,公園・スポーツ/公園,154,95397
135.494143,34.652172,今宮駅前第１公園,いまみやえきまえだい１こうえん,今宮駅前第１公園（いまみやえきまえだい１こうえん）,浪速区大国3-13,西成区,,,街区公園,,,,,,公園・スポーツ,公園,公園・スポーツ/公園,154,95398
135.493634,34.653218,今宮駅前第２公園,いまみやえきまえだい２こうえん,今宮駅前第２公園（いまみやえきまえだい２こうえん）,浪速区大国3-13,浪速区,,,街区公園,,,,,,公園・スポーツ,公園,公園・スポーツ/公園,154,95399
135.4530144,34.73242108,加島浜公園,かしまはまこうえん,加島浜公園（かしまはまこうえん）,淀川区加島4-10,淀川区,,,街区公園,,,,,,公園・スポーツ,公園,公園・スポーツ/公園,154,95400
135.490125,34.73213,宮原公園,みやはらこうえん,宮原公園（みやはらこうえん）,淀川区西宮原1-6,淀川区,,,街区公園,,,,,,公園・スポーツ,公園,公園・スポーツ/公園,154,95401
135.505731,34.735384,日之出小公園,ひのでしょうこうえん,日之出小公園（ひのでしょうこうえん）,東淀川区西淡路2-3,東淀川区,,,街区公園,,,,,,公園・スポーツ,公園,公園・スポーツ/公園,154,95402
135.527947,34.650398,生野西公園,いくのにしこうえん,生野西公園（いくのにしこうえん）,生野区生野西3-6,生野区,,,街区公園,,,,,,公園・スポーツ,公園,公園・スポーツ/公園,154,95403
135.44118,34.670942,島屋南公園,しまやみなみこうえん,島屋南公園（しまやみなみこうえん）,此花区島屋６－２,此花区,,,街区公園,,,,,,公園・スポーツ,公園,公園・スポーツ/公園,154,95404
135.4460567,34.67556372,恩貴島緑地,おきじまりょくち,恩貴島緑地（おきじまりょくち）,此花区春日出南３－２,此花区,,,街区公園,,,,,,公園・スポーツ,公園,公園・スポーツ/公園,154,95405
135.510022,34.664221,高津花壇公園,こうづかだんこうえん,高津花壇公園（こうづかだんこうえん）,中央区高津３－２,中央区,,,街区公園,,,,,,公園・スポーツ,公園,公園・スポーツ/公園,154,95406
135.497681,34.679777,西横堀公園,にしよこぼりこうえん,西横堀公園（にしよこぼりこうえん）,西区北堀江1-1,西区,,,街区公園,,,,,,公園・スポーツ,公園,公園・スポーツ/公園,154,95407
135.456721,34.726954,加島小公園,かしましょうこうえん,加島小公園（かしましょうこうえん）,淀川区加島1-37,淀川区,,,街区公園,,,,,,公園・スポーツ,公園,公園・スポーツ/公園,154,95408
135.48556,34.605334,西住之江公園,にしすみのえこうえん,西住之江公園（にしすみのえこうえん）,住之江区西住之江１－３,住之江区,,,街区公園,,,,,,公園・スポーツ,公園,公園・スポーツ/公園,154,95409
135.534014,34.618828,針中野わくわく公園,はりなかのわくわくこうえん,針中野わくわく公園（はりなかのわくわくこうえん）,東住吉区針中野１－１６,東住吉区,,,街区公園,,,,,,公園・スポーツ,公園,公園・スポーツ/公園,154,95410
135.4599374,34.70903517,野里西公園,のざとにしこうえん,野里西公園（のざとにしこうえん）,西淀川区野里2丁目10番,西淀川区,,,街区公園,,,,,,公園・スポーツ,公園,公園・スポーツ/公園,154,19338
135.4860501,34.62425008,南津守公園,みなみつもりこうえん,南津守公園（みなみつもりこうえん）,西成区南津守7丁目3番,西成区,,,街区公園,,,,,,公園・スポーツ,公園,公園・スポーツ/公園,154,4997
135.476803,34.62733589,南津守西公園,みなみつもりにしこうえん,南津守西公園（みなみつもりにしこうえん）,西成区南津守5丁目5番,西成区,,,街区公園,,,,,,公園・スポーツ,公園,公園・スポーツ/公園,154,4994
135.4823283,34.62655789,南津守中央公園,みなみつもりちゅうおうこうえん,南津守中央公園（みなみつもりちゅうおうこうえん）,西成区南津守6丁目6番・7丁目10番,西成区,,,近隣公園,,,,,,公園・スポーツ,公園,公園・スポーツ/公園,154,4996
135.485189,34.62870006,南津守中公園,みなみつもりなかこうえん,南津守中公園（みなみつもりなかこうえん）,西成区南津守6丁目1番,西成区,,,街区公園,,,,,,公園・スポーツ,公園,公園・スポーツ/公園,154,4993
135.4850388,34.62711894,南津守東公園,みなみつもりひがしこうえん,南津守東公園（みなみつもりひがしこうえん）,西成区南津守6丁目3番,西成区,,,街区公園,,,,,,公園・スポーツ,公園,公園・スポーツ/公園,154,4995
135.4655941,34.63636389,南恩加島西公園,みなみおかじまにしこうえん,南恩加島西公園（みなみおかじまにしこうえん）,大正区南恩加島6-14,大正区,,,街区公園,,,,,,公園・スポーツ,公園,公園・スポーツ/公園,154,3934
135.472006,34.63455011,南恩加島公園,みなみおかじまこうえん,南恩加島公園（みなみおかじまこうえん）,大正区南恩加島1-13,大正区,,,街区公園,,,,,,公園・スポーツ,公園,公園・スポーツ/公園,154,3927
135.4844641,34.63052508,南津守北公園,みなみつもりきたこうえん,南津守北公園（みなみつもりきたこうえん）,西成区南津守4丁目1番,西成区,,,街区公園,,,,,,公園・スポーツ,公園,公園・スポーツ/公園,154,4992
135.4877472,34.63065592,千本南公園,せんぼんみなみこうえん,千本南公園（せんぼんみなみこうえん）,西成区千本南2丁目12番,西成区,,,街区公園,,,,,,公園・スポーツ,公園,公園・スポーツ/公園,154,5024
135.4839561,34.63721389,南津守さくら公園,みなみつもりさくらこうえん,南津守さくら公園（みなみつもりさくらこうえん）,西成区南津守1丁目2番,西成区,,,地区公園,,,,,,公園・スポーツ,公園,公園・スポーツ/公園,154,4991
135.4861922,34.63697514,橘千本北公園,たちばなせんぼんきたこうえん,橘千本北公園（たちばなせんぼんきたこうえん）,西成区千本北2丁目10番,西成区,,,街区公園,,,,,,公園・スポーツ,公園,公園・スポーツ/公園,154,5020
135.4865809,34.634906,千本西公園,せんぼんにしこうえん,千本西公園（せんぼんにしこうえん）,西成区千本北2丁目21番,西成区,,,街区公園,,,,,,公園・スポーツ,公園,公園・スポーツ/公園,154,5022
135.510122,34.58953089,大和川西公園,やまとがわにしこうえん,大和川西公園（やまとがわにしこうえん）,住吉区浅香1丁目2、2丁目2,住吉区,,,街区公園,,,,,,公園・スポーツ,公園,公園・スポーツ/公園,154,93
135.5148139,34.59262208,苅田10公園,かりた１０公園,苅田10公園（かりた１０公園）,住吉区苅田10丁目10番,住吉区,,,街区公園,,,,,,公園・スポーツ,公園,公園・スポーツ/公園,154,1538
135.4901969,34.59755292,清水丘ふれあい公園,しみずがおかふれあいこうえん,清水丘ふれあい公園（しみずがおかふれあいこうえん）,住吉区清水丘3丁目8番,住吉区,,,街区公園,,,,,,公園・スポーツ,公園,公園・スポーツ/公園,154,396
135.493383,34.59918083,遠里小野公園,おりおのこうえん,遠里小野公園（おりおのこうえん）,住吉区遠里小野5丁目19番,住吉区,,,街区公園,,,,,,公園・スポーツ,公園,公園・スポーツ/公園,154,1520
135.4921063,34.597039,おりおの南公園,おりおのみなみこうえん,おりおの南公園（おりおのみなみこうえん）,住吉区遠里小野7丁目5番,住吉区,,,街区公園,,,,,,公園・スポーツ,公園,公園・スポーツ/公園,154,1521
135.5074142,34.59969992,我孫子公園,あびここうえん,我孫子公園（あびここうえん）,住吉区我孫子5丁目2番,住吉区,,,街区公園,,,,,,公園・スポーツ,公園,公園・スポーツ/公園,154,1527
135.5111999,34.59889206,我孫子東公園,あびこひがしこうえん,我孫子東公園（あびこひがしこうえん）,住吉区我孫子東2丁目9番,住吉区,,,街区公園,,,,,,公園・スポーツ,公園,公園・スポーツ/公園,154,1533
135.516125,34.59722794,苅田南公園,かりたみなみこうえん,苅田南公園（かりたみなみこうえん）,住吉区苅田9丁目5番,住吉区,,,街区公園,,,,,,公園・スポーツ,公園,公園・スポーツ/公園,154,1593
135.4940358,34.60288314,遠沢公園,おざわこうえん,遠沢公園（おざわこうえん）,住吉区清水丘2丁目2番,住吉区,,,街区公園,,,,,,公園・スポーツ,公園,公園・スポーツ/公園,154,391
135.5014058,34.60415306,沢之町公園,さわのちょうこうえん,沢之町公園（さわのちょうこうえん）,住吉区南住吉3丁目15番,住吉区,,,近隣公園,,,,,,公園・スポーツ,公園,公園・スポーツ/公園,154,1523
135.515272,34.604,苅田北公園,かりたきたこうえん,苅田北公園（かりたきたこうえん）,住吉区苅田2丁目11番,住吉区,,,街区公園,,,,,,公園・スポーツ,公園,公園・スポーツ/公園,154,1576
135.5285999,34.59543103,枯木南公園,かれきみなみこうえん,枯木南公園（かれきみなみこうえん）,東住吉区矢田7-6,東住吉区,,,街区公園,,,,,,公園・スポーツ,公園,公園・スポーツ/公園,154,3252
135.5176469,34.59924997,苅田中公園,かりたなかこうえん,苅田中公園（かりたなかこうえん）,住吉区苅田6丁目16番,住吉区,,,街区公園,,,,,,公園・スポーツ,公園,公園・スポーツ/公園,154,1588
135.5277173,34.60025006,矢田教育の森公園,やたきょういくのもりこうえん,矢田教育の森公園（やたきょういくのもりこうえん）,東住吉区矢田5-2,東住吉区,,,近隣公園,,,,,,公園・スポーツ,公園,公園・スポーツ/公園,154,3249
135.5289327,34.59811083,大和川東公園,やまとがわひがしこうえん,大和川東公園（やまとがわひがしこうえん）,東住吉区矢田5-5、6-13,東住吉区,,,近隣公園,,,,,,公園・スポーツ,公園,公園・スポーツ/公園,154,3250
135.5255357,34.60031919,矢田西公園,やたにしこうえん,矢田西公園（やたにしこうえん）,東住吉区公園南矢田3-17,東住吉区,,,街区公園,,,,,,公園・スポーツ,公園,公園・スポーツ/公園,154,3254
135.5249637,34.59772189,枯木町公園,かれきちょうこうえん,枯木町公園（かれきちょうこうえん）,東住吉区公園南矢田4-22,東住吉区,,,街区公園,,,,,,公園・スポーツ,公園,公園・スポーツ/公園,154,3255
135.5223887,34.60726697,長居東公園,ながいひがしこうえん,長居東公園（ながいひがしこうえん）,住吉区長居東1丁目14番,住吉区,,,街区公園,,,,,,公園・スポーツ,公園,公園・スポーツ/公園,154,94
135.5229748,34.60478303,公園南小公園,こうえんみなみしょうこうえん,公園南小公園（こうえんみなみしょうこうえん）,東住吉区公園南矢田2-2,東住吉区,,,街区公園,,,,,,公園・スポーツ,公園,公園・スポーツ/公園,154,3253
135.5283331,34.60437783,矢田中公園,やたなかこうえん,矢田中公園（やたなかこうえん）,東住吉区矢田3-5,東住吉区,,,街区公園,,,,,,公園・スポーツ,公園,公園・スポーツ/公園,154,3247
135.534142,34.60372494,矢田住道公園,やたすんじこうえん,矢田住道公園（やたすんじこうえん）,東住吉区照ヶ丘矢田3-11,東住吉区,,,街区公園,,,,,,公園・スポーツ,公園,公園・スポーツ/公園,154,3241
135.5328808,34.60139394,矢田公園,やたこうえん,矢田公園（やたこうえん）,東住吉区住道矢田1-7,東住吉区,,,街区公園,,,,,,公園・スポーツ,公園,公園・スポーツ/公園,154,3242
135.5314033,34.60313083,矢田中中央公園,やたなかちゅうおうこうえん,矢田中中央公園（やたなかちゅうおうこうえん）,東住吉区矢田4-10,東住吉区,,,街区公園,,,,,,公園・スポーツ,公園,公園・スポーツ/公園,154,3248
135.5314168,34.60144719,矢田6公園,やた６こうえん,矢田6公園（やた６こうえん）,東住吉区矢田6-9,東住吉区,,,街区公園,,,,,,公園・スポーツ,公園,公園・スポーツ/公園,154,3251
135.5402919,34.60181689,住道南公園,すんじみなみこうえん,住道南公園（すんじみなみこうえん）,東住吉区住道矢田9-1,東住吉区,,,街区公園,,,,,,公園・スポーツ,公園,公園・スポーツ/公園,154,475
135.539003,34.60323583,矢田東公園,やたひがしこうえん,矢田東公園（やたひがしこうえん）,東住吉区住道矢田2-11,東住吉区,,,街区公園,,,,,,公園・スポーツ,公園,公園・スポーツ/公園,154,3243
135.5298496,34.60678897,矢田部公園,やたべこうえん,矢田部公園（やたべこうえん）,東住吉区矢田1-22,東住吉区,,,街区公園,,,,,,公園・スポーツ,公園,公園・スポーツ/公園,154,3246
135.5416582,34.60680597,矢田河原田公園,やたかわはらだこうえん,矢田河原田公園（やたかわはらだこうえん）,東住吉区住道矢田6-8,東住吉区,,,街区公園,,,,,,公園・スポーツ,公園,公園・スポーツ/公園,154,3245
135.5530168,34.59562217,瓜破南公園,うりわりみなみこうえん,瓜破南公園（うりわりみなみこうえん）,平野区瓜破南2-2,平野区,,,街区公園,,,,,,公園・スポーツ,公園,公園・スポーツ/公園,154,2372
135.5493887,34.599633,瓜破駒ヶ池公園,うりわりこまがいけこうえん,瓜破駒ヶ池公園（うりわりこまがいけこうえん）,平野区瓜破6-3,平野区,,,街区公園,,,,,,公園・スポーツ,公園,公園・スポーツ/公園,154,2361
135.5495362,34.59759692,瓜破南大和川公園,うりわりみなみやまとがわこうえん,瓜破南大和川公園（うりわりみなみやまとがわこうえん）,平野区瓜破南1-4,平野区,,,地区公園,,,,,,公園・スポーツ,公園,公園・スポーツ/公園,154,2371
135.5685167,34.59376089,川辺南公園,かわなべみなみこうえん,川辺南公園（かわなべみなみこうえん）,平野区長吉川辺4-1,平野区,,,街区公園,,,,,,公園・スポーツ,公園,公園・スポーツ/公園,154,2403
135.5572,34.59982486,瓜破下池公園,うりわりしもいけこうえん,瓜破下池公園（うりわりしもいけこうえん）,平野区瓜破東6-1,平野区,,,街区公園,,,,,,公園・スポーツ,公園,公園・スポーツ/公園,154,2367
135.5621809,34.59917194,瓜破新池緑地公園,うりわりしんいけりょくちこうえん,瓜破新池緑地公園（うりわりしんいけりょくちこうえん）,平野区瓜破東8-2,平野区,,,緑道,,,,,,公園・スポーツ,公園,公園・スポーツ/公園,154,2368
135.5627469,34.59864397,瓜破新池緑地南公園,うりわりしんいけりょくちみなみこうえん,瓜破新池緑地南公園（うりわりしんいけりょくちみなみこうえん）,平野区瓜破東8-12,平野区,,,街区公園,,,,,,公園・スポーツ,公園,公園・スポーツ/公園,154,2369
135.5621863,34.59981894,瓜破新池緑地北公園,うりわりしんいけりょくちきたこうえん,瓜破新池緑地北公園（うりわりしんいけりょくちきたこうえん）,平野区瓜破東8-6,平野区,,,街区公園,,,,,,公園・スポーツ,公園,公園・スポーツ/公園,154,2370
135.5448888,34.60269717,瓜破西ヶ池公園,うりわりにしがいけこうえん,瓜破西ヶ池公園（うりわりにしがいけこうえん）,平野区瓜破西2-9,平野区,,,街区公園,,,,,,公園・スポーツ,公園,公園・スポーツ/公園,154,2363
135.5528079,34.60308314,瓜破北西公園,うりわりきたにしこうえん,瓜破北西公園（うりわりきたにしこうえん）,平野区瓜破5-1,平野区,,,街区公園,,,,,,公園・スポーツ,公園,公園・スポーツ/公園,154,2360
135.5671942,34.60071406,長吉西中学前公園,ながよしにしちゅうがくまえこうえん,長吉西中学前公園（ながよしにしちゅうがくまえこうえん）,平野区長吉長原西3-9,平野区,,,街区公園,,,,,,公園・スポーツ,公園,公園・スポーツ/公園,154,2408
135.5603221,34.60675017,瓜破東中公園,うりわりひがしなかこうえん,瓜破東中公園（うりわりひがしなかこうえん）,平野区瓜破東2-2,平野区,,,街区公園,,,,,,公園・スポーツ,公園,公園・スポーツ/公園,154,2364
135.5615469,34.60778897,瓜破東北公園,うりわりひがしきたこうえん,瓜破東北公園（うりわりひがしきたこうえん）,平野区瓜破東2-5,平野区,,,街区公園,,,,,,公園・スポーツ,公園,公園・スポーツ/公園,154,2365
135.5568247,34.605508,瓜破第一公園,うりわりだいいちこうえん,瓜破第一公園（うりわりだいいちこうえん）,平野区瓜破東3-1,平野区,,,街区公園,,,,,,公園・スポーツ,公園,公園・スポーツ/公園,154,2366
135.5694748,34.60665294,長吉瓜破3号公園,ながよしうりわり３ごうこうえん,長吉瓜破3号公園（ながよしうりわり３ごうこうえん）,平野区長吉長原1-3,平野区,,,街区公園,,,,,,公園・スポーツ,公園,公園・スポーツ/公園,154,2404
135.5661108,34.60524181,長原西公園,ながはらにしこうえん,長原西公園（ながはらにしこうえん）,平野区長吉長原西2-4,平野区,,,街区公園,,,,,,公園・スポーツ,公園,公園・スポーツ/公園,154,2407
135.5780562,34.59621414,長吉東部南公園,ながよしとうぶみなみこうえん,長吉東部南公園（ながよしとうぶみなみこうえん）,平野区長吉川辺3-11,平野区,,,街区公園,,,,,,公園・スポーツ,公園,公園・スポーツ/公園,154,2401
135.572611,34.59750006,川辺中公園,かわなべなかこうえん,川辺中公園（かわなべなかこうえん）,平野区長吉川辺2-1,平野区,,,街区公園,,,,,,公園・スポーツ,公園,公園・スポーツ/公園,154,2399
135.5703668,34.59874419,川辺北公園,かわなべきたこうえん,川辺北公園（かわなべきたこうえん）,平野区長吉川辺2-北1,平野区,,,街区公園,,,,,,公園・スポーツ,公園,公園・スポーツ/公園,154,2400
135.5762189,34.59894383,川辺東公園,かわなべひがしこうえん,川辺東公園（かわなべひがしこうえん）,平野区長吉川辺3-2,平野区,,,街区公園,,,,,,公園・スポーツ,公園,公園・スポーツ/公園,154,2402
135.5718753,34.60401406,なみはや公園,なみはやこうえん,なみはや公園（なみはやこうえん）,平野区長吉長原2-14,平野区,,,街区公園,,,,,,公園・スポーツ,公園,公園・スポーツ/公園,154,2405
135.571081,34.60108597,長原公園,ながはらこうえん,長原公園（ながはらこうえん）,平野区長吉長原4-9,平野区,,,街区公園,,,,,,公園・スポーツ,公園,公園・スポーツ/公園,154,2406
135.5776829,34.602875,長吉東部中央公園,ながよしとうぶちゅうおうこうえん,長吉東部中央公園（ながよしとうぶちゅうおうこうえん）,平野区長吉長原東2-6,平野区,,,近隣公園,,,,,,公園・スポーツ,公園,公園・スポーツ/公園,154,2409
135.5766642,34.60747806,出戸南公園,でとみなみこうえん,出戸南公園（でとみなみこうえん）,平野区長吉出戸8-14,平野区,,,街区公園,,,,,,公園・スポーツ,公園,公園・スポーツ/公園,154,2398
135.5813581,34.60537786,六反南公園,ろくたんみなみこうえん,六反南公園（ろくたんみなみこうえん）,平野区長吉六反3-17,平野区,,,街区公園,,,,,,公園・スポーツ,公園,公園・スポーツ/公園,154,51
135.5790971,34.60482517,六反西公園,ろくたんにしこうえん,六反西公園（ろくたんにしこうえん）,平野区長吉六反3-4,平野区,,,街区公園,,,,,,公園・スポーツ,公園,公園・スポーツ/公園,154,2411
135.5850138,34.60690803,六反東公園,ろくたんひがしこうえん,六反東公園（ろくたんひがしこうえん）,平野区長吉六反4-7,平野区,,,街区公園,,,,,,公園・スポーツ,公園,公園・スポーツ/公園,154,2412
135.5162469,34.610417,長居公園,ながいこうえん,長居公園（ながいこうえん）,東住吉区長居公園1,東住吉区,,,運動公園,,,,,,公園・スポーツ,公園,公園・スポーツ/公園,154,3270
135.5083918,34.61780308,播磨大領公園,はりまだいりょうこうえん,播磨大領公園（はりまだいりょうこうえん）,阿倍野区播磨町3丁目4,阿倍野区,,,街区公園,,,,,,公園・スポーツ,公園,公園・スポーツ/公園,154,1602
135.530706,34.61121403,鷹合公園,たかあいこうえん,鷹合公園（たかあいこうえん）,東住吉区鷹合4-5,東住吉区,,,街区公園,,,,,,公園・スポーツ,公園,公園・スポーツ/公園,154,3239
135.5361942,34.61009983,湯里の森公園,ゆさとのもりこうえん,湯里の森公園（ゆさとのもりこうえん）,東住吉区湯里5-7,東住吉区,,,街区公園,,,,,,公園・スポーツ,公園,公園・スポーツ/公園,154,3237
135.53465,34.60826403,照ヶ丘矢田公園,てるがおかやたこうえん,照ヶ丘矢田公園（てるがおかやたこうえん）,東住吉区照ヶ丘矢田1-16,東住吉区,,,街区公園,,,,,,公園・スポーツ,公園,公園・スポーツ/公園,154,3240
135.5313723,34.61491097,酒君塚公園,さかきみづかこうえん,酒君塚公園（さかきみづかこうえん）,東住吉区鷹合2-5,東住吉区,,,街区公園,,,,,,公園・スポーツ,公園,公園・スポーツ/公園,154,3238
135.5413638,34.61333589,喜連西中央公園,きれにしちゅうおうこうえん,喜連西中央公園（きれにしちゅうおうこうえん）,平野区喜連西2-1,平野区,,,近隣公園,,,,,,公園・スポーツ,公園,公園・スポーツ/公園,154,2388
135.5287191,34.61854717,東田辺中央公園,ひがしたなべちゅうおうこうえん,東田辺中央公園（ひがしたなべちゅうおうこうえん）,東住吉区東田辺3-4,東住吉区,,,街区公園,,,,,,公園・スポーツ,公園,公園・スポーツ/公園,154,3259
135.5287831,34.62233917,東田辺さくら公園,ひがしたなべさくらこうえん,東田辺さくら公園（ひがしたなべさくらこうえん）,東住吉区東田辺1-11,東住吉区,,,街区公園,,,,,,公園・スポーツ,公園,公園・スポーツ/公園,154,3257
135.5271891,34.62169381,東田辺公園,ひがしたなべこうえん,東田辺公園（ひがしたなべこうえん）,東住吉区東田辺1-16,東住吉区,,,街区公園,,,,,,公園・スポーツ,公園,公園・スポーツ/公園,154,3258
135.5374218,34.61863589,南百済公園,みなみくだらこうえん,南百済公園（みなみくだらこうえん）,東住吉区中野3-10,東住吉区,,,街区公園,,,,,,公園・スポーツ,公園,公園・スポーツ/公園,154,3236
135.5356943,34.62253914,中野町公園,なかのちょうこうえん,中野町公園（なかのちょうこうえん）,東住吉区中野1-8、今川7-15,東住吉区,,,街区公園,,,,,,公園・スポーツ,公園,公園・スポーツ/公園,154,3235
135.4917579,34.62381097,玉出南公園,たまでみなみこうえん,玉出南公園（たまでみなみこうえん）,西成区玉出中2丁目13番,西成区,,,街区公園,,,,,,公園・スポーツ,公園,公園・スポーツ/公園,154,3606
135.4924532,34.62763306,玉出公園,たまでこうえん,玉出公園（たまでこうえん）,西成区玉出中1丁目10番,西成区,,,街区公園,,,,,,公園・スポーツ,公園,公園・スポーツ/公園,154,3605
135.4903222,34.62925003,田端公園,たばたこうえん,田端公園（たばたこうえん）,西成区千本南1丁目21番,西成区,,,街区公園,,,,,,公園・スポーツ,公園,公園・スポーツ/公園,154,5025
135.4893311,34.62693303,玉出西公園,たまでにしこうえん,玉出西公園（たまでにしこうえん）,西成区玉出西1丁目9番,西成区,,,街区公園,,,,,,公園・スポーツ,公園,公園・スポーツ/公園,154,5026
135.5000968,34.62963292,晴明丘西公園,せいめいがおかにしこうえん,晴明丘西公園（せいめいがおかにしこうえん）,阿倍野区北畠3丁目3,阿倍野区,,,街区公園,,,,,,公園・スポーツ,公園,公園・スポーツ/公園,154,1630
135.5053061,34.62625297,晴明丘中央公園,せいめいがおかちゅうおうこうえん,晴明丘中央公園（せいめいがおかちゅうおうこうえん）,阿倍野区北畠1丁目18,阿倍野区,,,近隣公園,,,,,,公園・スポーツ,公園,公園・スポーツ/公園,154,1625
135.5116918,34.62598611,阪南公園,はんなんこうえん,阪南公園（はんなんこうえん）,阿倍野区王子町4丁目1,阿倍野区,,,街区公園,,,,,,公園・スポーツ,公園,公園・スポーツ/公園,154,1725
135.5076669,34.62976411,晴明丘公園,せいめいがおかこうえん,晴明丘公園（せいめいがおかこうえん）,阿倍野区阿倍野元町15,阿倍野区,,,街区公園,,,,,,公園・スポーツ,公園,公園・スポーツ/公園,154,1704
135.5096638,34.62854411,北畠公園,きたばたけこうえん,北畠公園（きたばたけこうえん）,阿倍野区王子町3丁目8,阿倍野区,,,街区公園,,,,,,公園・スポーツ,公園,公園・スポーツ/公園,154,1723
135.514892,34.62766706,新阪南公園,しんはんなんこうえん,新阪南公園（しんはんなんこうえん）,阿倍野区阪南町3丁目34,阿倍野区,,,街区公園,,,,,,公園・スポーツ,公園,公園・スポーツ/公園,154,4939
135.4946078,34.63126683,岸里公園,きしのさとこうえん,岸里公園（きしのさとこうえん）,西成区岸里2丁目12番,西成区,,,街区公園,,,,,,公園・スポーツ,公園,公園・スポーツ/公園,154,3603
135.4936329,34.63059197,南海公園,なんかいこうえん,南海公園（なんかいこうえん）,西成区岸里3丁目6番,西成区,,,街区公園,,,,,,公園・スポーツ,公園,公園・スポーツ/公園,154,3604
135.4974692,34.63259989,天下茶屋公園,てんがちゃやこうえん,天下茶屋公園（てんがちゃやこうえん）,西成区岸里東1丁目16番,西成区,,,街区公園,,,,,,公園・スポーツ,公園,公園・スポーツ/公園,154,3601
135.4995807,34.63179383,天神ノ森公園,てんじんのもりこうえん,天神ノ森公園（てんじんのもりこうえん）,西成区天神ノ森1丁目16番,西成区,,,街区公園,,,,,,公園・スポーツ,公園,公園・スポーツ/公園,154,3602
135.4934248,34.63645592,西皿池公園,にしさらいけこうえん,西皿池公園（にしさらいけこうえん）,西成区潮路1丁目4番,西成区,,,街区公園,,,,,,公園・スポーツ,公園,公園・スポーツ/公園,154,5021
135.4905688,34.63610003,千本北公園,せんぼんきたこうえん,千本北公園（せんぼんきたこうえん）,西成区千本北1丁目7番,西成区,,,街区公園,,,,,,公園・スポーツ,公園,公園・スポーツ/公園,154,5023
135.5034143,34.63043306,晴明丘相生公園,せいめいがおかあいおいこうえん,晴明丘相生公園（せいめいがおかあいおいこうえん）,阿倍野区相生通2丁目7,阿倍野区,,,街区公園,,,,,,公園・スポーツ,公園,公園・スポーツ/公園,154,1239
135.5147,34.63361917,阪南中公園,はんなんなかこうえん,阪南中公園（はんなんなかこうえん）,阿倍野区阪南町1丁目49,阿倍野区,,,街区公園,,,,,,公園・スポーツ,公園,公園・スポーツ/公園,154,356
135.5035032,34.63593594,聖天山公園,しょうてんやまこうえん,聖天山公園（しょうてんやまこうえん）,阿倍野区松虫通3丁目2,阿倍野区,,,近隣公園,,,,,,公園・スポーツ,公園,公園・スポーツ/公園,154,1566
135.512858,34.63721389,阪南西公園,はんなんにしこうえん,阪南西公園（はんなんにしこうえん）,阿倍野区阪南町1丁目19,阿倍野区,,,街区公園,,,,,,公園・スポーツ,公園,公園・スポーツ/公園,154,355
135.5150611,34.63675786,阪南北公園,はんなんきたこうえん,阪南北公園（はんなんきたこうえん）,阿倍野区阪南町1丁目23,阿倍野区,,,街区公園,,,,,,公園・スポーツ,公園,公園・スポーツ/公園,154,357
135.5196641,34.623767,長池公園,ながいけこうえん,長池公園（ながいけこうえん）,阿倍野区長池町14、西田辺町1丁目10,阿倍野区,,,地区公園,,,,,,公園・スポーツ,公園,公園・スポーツ/公園,154,1240
135.5213033,34.62312497,山坂公園,やまさかこうえん,山坂公園（やまさかこうえん）,東住吉区山坂2-19,東住吉区,,,街区公園,,,,,,公園・スポーツ,公園,公園・スポーツ/公園,154,3260
135.5285392,34.62562503,田辺中公園,たなべなかこうえん,田辺中公園（たなべなかこうえん）,東住吉区田辺6-9,東住吉区,,,街区公園,,,,,,公園・スポーツ,公園,公園・スポーツ/公園,154,3256
135.5307221,34.62576694,田辺公園,たなべこうえん,田辺公園（たなべこうえん）,東住吉区駒川3-10,東住吉区,,,街区公園,,,,,,公園・スポーツ,公園,公園・スポーツ/公園,154,3266
135.5306689,34.62937789,駒川公園,こまがわこうえん,駒川公園（こまがわこうえん）,東住吉区駒川2-3,東住吉区,,,街区公園,,,,,,公園・スポーツ,公園,公園・スポーツ/公園,154,3265
135.5338281,34.62956417,つくし公園,つくしこうえん,つくし公園（つくしこうえん）,東住吉区今川4-1,東住吉区,,,街区公園,,,,,,公園・スポーツ,公園,公園・スポーツ/公園,154,3231
135.5345833,34.62676708,今川公園,いまがわこうえん,今川公園（いまがわこうえん）,東住吉区今川4-23、7-1,東住吉区,,,街区公園,,,,,,公園・スポーツ,公園,公園・スポーツ/公園,154,3233
135.5369778,34.62885308,わかば公園,わかばこうえん,わかば公園（わかばこうえん）,東住吉区今川4-12,東住吉区,,,街区公園,,,,,,公園・スポーツ,公園,公園・スポーツ/公園,154,3232
135.5426439,34.62745011,平野白鷺公園,ひらのしらさぎこうえん,平野白鷺公園（ひらのしらさぎこうえん）,東住吉区今川6-7,東住吉区,,,地区公園,,,,,,公園・スポーツ,公園,公園・スポーツ/公園,154,3234
135.5213808,34.63072797,桃ヶ池公園,ももがいけこうえん,桃ヶ池公園（ももがいけこうえん）,阿倍野区桃ヶ池町1丁目3,阿倍野区,,,地区公園,,,,,,公園・スポーツ,公園,公園・スポーツ/公園,154,1601
135.5216078,34.63650619,文の里公園,ふみのさとこうえん,文の里公園（ふみのさとこうえん）,阿倍野区文の里3丁目6,阿倍野区,,,街区公園,,,,,,公園・スポーツ,公園,公園・スポーツ/公園,154,1621
135.5239363,34.63666694,北田辺公園,きたたなべこうえん,北田辺公園（きたたなべこうえん）,東住吉区北田辺1-8,東住吉区,,,街区公園,,,,,,公園・スポーツ,公園,公園・スポーツ/公園,154,3267
135.5252251,34.63400611,北田辺中公園,きたたなべなかこうえん,北田辺中公園（きたたなべなかこうえん）,東住吉区北田辺3-6,東住吉区,,,街区公園,,,,,,公園・スポーツ,公園,公園・スポーツ/公園,154,3268
135.526264,34.63463289,北田辺4公園,きたたなべ４こうえん,北田辺4公園（きたたなべ４こうえん）,東住吉区北田辺4-2,東住吉区,,,街区公園,,,,,,公園・スポーツ,公園,公園・スポーツ/公園,154,3269
135.5346083,34.631017,うるし堤公園,うるしつつみこうえん,うるし堤公園（うるしつつみこうえん）,東住吉区今川1-1,東住吉区,,,街区公園,,,,,,公園・スポーツ,公園,公園・スポーツ/公園,154,3230
135.5416717,34.63360808,育和公園,いくわこうえん,育和公園（いくわこうえん）,東住吉区杭全8-5,東住吉区,,,街区公園,,,,,,公園・スポーツ,公園,公園・スポーツ/公園,154,3229
135.531028,34.63422192,駒川北公園,こまがわきたこうえん,駒川北公園（こまがわきたこうえん）,東住吉区駒川1-20,東住吉区,,,街区公園,,,,,,公園・スポーツ,公園,公園・スポーツ/公園,154,3264
135.5351782,34.63443111,杭全西公園,くまたにしこうえん,杭全西公園（くまたにしこうえん）,東住吉区杭全4-3,東住吉区,,,街区公園,,,,,,公園・スポーツ,公園,公園・スポーツ/公園,154,3228
135.5328889,34.63740308,桑津東公園,くわづひがしこうえん,桑津東公園（くわづひがしこうえん）,東住吉区桑津4-10,東住吉区,,,街区公園,,,,,,公園・スポーツ,公園,公園・スポーツ/公園,154,3263
135.5477441,34.60836383,瓜破西北公園,うりわりにしきたこうえん,瓜破西北公園（うりわりにしきたこうえん）,平野区瓜破西1-8,平野区,,,街区公園,,,,,,公園・スポーツ,公園,公園・スポーツ/公園,154,2362
135.545733,34.61249714,喜連西公園,きれにしこうえん,喜連西公園（きれにしこうえん）,平野区喜連西3-17,平野区,,,街区公園,,,,,,公園・スポーツ,公園,公園・スポーツ/公園,154,2389
135.5518391,34.61363606,喜連北第一公園,きれきただいいちこうえん,喜連北第一公園（きれきただいいちこうえん）,平野区喜連1-8,平野区,,,街区公園,,,,,,公園・スポーツ,公園,公園・スポーツ/公園,154,2386
135.5602082,34.61051683,喜連東公園,きれひがしこうえん,喜連東公園（きれひがしこうえん）,平野区喜連東3-6,平野区,,,街区公園,,,,,,公園・スポーツ,公園,公園・スポーツ/公園,154,2392
135.5581001,34.61330594,喜連中公園,きれなかこうえん,喜連中公園（きれなかこうえん）,平野区喜連6-7,平野区,,,街区公園,,,,,,公園・スポーツ,公園,公園・スポーツ/公園,154,2387
135.5592966,34.61332183,喜連八坂公園,きれやさかこうえん,喜連八坂公園（きれやさかこうえん）,平野区喜連東2-1,平野区,,,街区公園,,,,,,公園・スポーツ,公園,公園・スポーツ/公園,154,2391
135.5653192,34.61395283,長吉出戸公園,ながよしでとこうえん,長吉出戸公園（ながよしでとこうえん）,平野区長吉出戸1-11,平野区,,,近隣公園,,,,,,公園・スポーツ,公園,公園・スポーツ/公園,154,2395
135.5472812,34.61542517,喜連北第二公園,きれきただいにこうえん,喜連北第二公園（きれきただいにこうえん）,平野区喜連西5-1,平野区,,,街区公園,,,,,,公園・スポーツ,公園,公園・スポーツ/公園,154,2390
135.5462417,34.61927497,平野西公園,ひらのにしこうえん,平野西公園（ひらのにしこうえん）,平野区平野西3-5,平野区,,,街区公園,,,,,,公園・スポーツ,公園,公園・スポーツ/公園,154,2418
135.5605862,34.61832206,平野南公園,ひらのみなみこうえん,平野南公園（ひらのみなみこうえん）,平野区平野南3-11,平野区,,,街区公園,,,,,,公園・スポーツ,公園,公園・スポーツ/公園,154,2421
135.5589719,34.62251917,平野公園,ひらのこうえん,平野公園（ひらのこうえん）,平野区平野東2-11,平野区,,,近隣公園,,,,,,公園・スポーツ,公園,公園・スポーツ/公園,154,2419
135.5579687,34.62040308,平野野堂公園,ひらののどうこうえん,平野野堂公園（ひらののどうこうえん）,平野区平野南1-2,平野区,,,街区公園,,,,,,公園・スポーツ,公園,公園・スポーツ/公園,154,2420
135.5702779,34.60925808,出戸池公園,でといけこうえん,出戸池公園（でといけこうえん）,平野区長吉出戸5-3,平野区,,,街区公園,,,,,,公園・スポーツ,公園,公園・スポーツ/公園,154,2396
135.570767,34.61010317,長吉公園,ながよしこうえん,長吉公園（ながよしこうえん）,平野区長吉出戸5-4,平野区,,,街区公園,,,,,,公園・スポーツ,公園,公園・スポーツ/公園,154,2397
135.5817583,34.60821411,六反赤坂公園,ろくたんあかさかこうえん,六反赤坂公園（ろくたんあかさかこうえん）,平野区長吉六反1-14,平野区,,,街区公園,,,,,,公園・スポーツ,公園,公園・スポーツ/公園,154,2410
135.547292,34.62277792,背戸口公園,せとぐちこうえん,背戸口公園（せとぐちこうえん）,平野区背戸口5-2,平野区,,,街区公園,,,,,,公園・スポーツ,公園,公園・スポーツ/公園,154,2413
135.5452971,34.62800006,西脇公園,にしわきこうえん,西脇公園（にしわきこうえん）,平野区西脇2-2,平野区,,,街区公園,,,,,,公園・スポーツ,公園,公園・スポーツ/公園,154,2394
135.551703,34.62836892,元六公園,もとろくこうえん,元六公園（もとろくこうえん）,平野区平野宮町1-3,平野区,,,街区公園,,,,,,公園・スポーツ,公園,公園・スポーツ/公園,154,2414
135.5553998,34.62728083,杭全公園,くまたこうえん,杭全公園（くまたこうえん）,"平野区平野宮町1-7,2-1",平野区,,,地区公園,,,,,,公園・スポーツ,公園,公園・スポーツ/公園,154,2415
135.558375,34.62579208,京町公園,きょうまちこうえん,京町公園（きょうまちこうえん）,平野区平野市町3-10,平野区,,,街区公園,,,,,,公園・スポーツ,公園,公園・スポーツ/公園,154,2417
135.5639939,34.62514417,加美西公園,かみにしこうえん,加美西公園（かみにしこうえん）,平野区加美西2-5,平野区,,,街区公園,,,,,,公園・スポーツ,公園,公園・スポーツ/公園,154,2376
135.5624497,34.629797,正覚寺中公園,しょうかくじなかこうえん,正覚寺中公園（しょうかくじなかこうえん）,平野区加美正覚寺4-4,平野区,,,街区公園,,,,,,公園・スポーツ,公園,公園・スポーツ/公園,154,2374
135.5605923,34.62701103,たちばな公園,たちばなこうえん,たちばな公園（たちばなこうえん）,平野区加美西1-4,平野区,,,街区公園,,,,,,公園・スポーツ,公園,公園・スポーツ/公園,154,2375
135.5574028,34.62812497,坂上公園,さかのうえこうえん,坂上公園（さかのうえこうえん）,平野区平野市町1-8,平野区,,,街区公園,,,,,,公園・スポーツ,公園,公園・スポーツ/公園,154,2416
135.5514254,34.63347503,平野北公園,ひらのきたこうえん,平野北公園（ひらのきたこうえん）,平野区平野北1-1,平野区,,,街区公園,,,,,,公園・スポーツ,公園,公園・スポーツ/公園,154,2422
135.5452391,34.63727189,今林公園,いまばやしこうえん,今林公園（いまばやしこうえん）,東住吉区今林4-4,東住吉区,,,街区公園,,,,,,公園・スポーツ,公園,公園・スポーツ/公園,154,3227
135.5565498,34.63463289,加美柿花公園,かみかきばなこうえん,加美柿花公園（かみかきばなこうえん）,平野区加美北6-13,平野区,,,街区公園,,,,,,公園・スポーツ,公園,公園・スポーツ/公園,154,2383
135.5617861,34.63329692,加美正覚寺公園,かみしょうかくじこうえん,加美正覚寺公園（かみしょうかくじこうえん）,平野区加美正覚寺3-1,平野区,,,街区公園,,,,,,公園・スポーツ,公園,公園・スポーツ/公園,154,2373
135.5569359,34.63369197,加美正北ふれあい公園,かみしょうきたふれあいこうえん,加美正北ふれあい公園（かみしょうきたふれあいこうえん）,平野区加美北6-14,平野区,,,街区公園,,,,,,公園・スポーツ,公園,公園・スポーツ/公園,154,2384
135.5664221,34.63203111,加美神明公園,かみしんめいこうえん,加美神明公園（かみしんめいこうえん）,平野区加美東1-6,平野区,,,街区公園,,,,,,公園・スポーツ,公園,公園・スポーツ/公園,154,2377
135.5692673,34.63097783,加美東北公園,かみひがしきたこうえん,加美東北公園（かみひがしきたこうえん）,平野区加美東2-9,平野区,,,街区公園,,,,,,公園・スポーツ,公園,公園・スポーツ/公園,154,2378
135.5652862,34.63652208,加美長沢公園,かみながさわこうえん,加美長沢公園（かみながさわこうえん）,平野区加美北8-3,平野区,,,街区公園,,,,,,公園・スポーツ,公園,公園・スポーツ/公園,154,2385
135.5709388,34.62331717,鞍作公園,くらつくりこうえん,鞍作公園（くらつくりこうえん）,平野区加美南1-11,平野区,,,近隣公園,,,,,,公園・スポーツ,公園,公園・スポーツ/公園,154,2380
135.571653,34.62820814,加美東公園,かみひがしこうえん,加美東公園（かみひがしこうえん）,平野区加美東5-7,平野区,,,街区公園,,,,,,公園・スポーツ,公園,公園・スポーツ/公園,154,2379
135.4321889,34.65723603,天保山公園,てんぽうざんこうえん,天保山公園（てんぽうざんこうえん）,港区築港3-2,港区,,,近隣公園,,,,,,公園・スポーツ,公園,公園・スポーツ/公園,154,1121
135.4283,34.66170789,桜島公園,さくらじまこうえん,桜島公園（さくらじまこうえん）,此花区桜島3-5,此花区,,,街区公園,,,,,,公園・スポーツ,公園,公園・スポーツ/公園,154,1440
135.4556921,34.63879408,鶴町中央公園,つるまちちゅうおうこうえん,鶴町中央公園（つるまちちゅうおうこうえん）,大正区鶴町2-7,大正区,,,街区公園,,,,,,公園・スポーツ,公園,公園・スポーツ/公園,154,3918
135.454633,34.64420808,鶴町北公園,つるまちきたこうえん,鶴町北公園（つるまちきたこうえん）,大正区鶴町4-4,大正区,,,街区公園,,,,,,公園・スポーツ,公園,公園・スポーツ/公園,154,3924
135.4474941,34.65223111,八幡屋南公園,やはたやみなみこうえん,八幡屋南公園（やはたやみなみこうえん）,港区八幡屋4-3,港区,,,街区公園,,,,,,公園・スポーツ,公園,公園・スポーツ/公園,154,1116
135.4736641,34.64073897,平尾公園,ひらおこうえん,平尾公園（ひらおこうえん）,大正区平尾2-22,大正区,,,近隣公園,,,,,,公園・スポーツ,公園,公園・スポーツ/公園,154,3943
135.467814,34.64283606,小林南公園,こばやしみなみこうえん,小林南公園（こばやしみなみこうえん）,大正区小林西2-16,大正区,,,街区公園,,,,,,公園・スポーツ,公園,公園・スポーツ/公園,154,3828
135.4749388,34.64344689,小林公園,こばやしこうえん,小林公園（こばやしこうえん）,大正区小林東2-6,大正区,,,地区公園,,,,,,公園・スポーツ,公園,公園・スポーツ/公園,154,3831
135.4759581,34.63760006,平尾亥開公園,ひらおいびらきこうえん,平尾亥開公園（ひらおいびらきこうえん）,大正区平尾1-11､南恩加島1-10,大正区,,,街区公園,,,,,,公園・スポーツ,公園,公園・スポーツ/公園,154,3939
135.482042,34.63900803,津守南公園,つもりみなみこうえん,津守南公園（つもりみなみこうえん）,西成区津守3丁目5番,西成区,,,街区公園,,,,,,公園・スポーツ,公園,公園・スポーツ/公園,154,4990
135.4854423,34.64479417,中津守公園,なかつもりこうえん,中津守公園（なかつもりこうえん）,西成区津守1丁目6番,西成区,,,街区公園,,,,,,公園・スポーツ,公園,公園・スポーツ/公園,154,4988
135.4828808,34.64159186,津守公園,つもりこうえん,津守公園（つもりこうえん）,西成区津守2丁目7番,西成区,,,街区公園,,,,,,公園・スポーツ,公園,公園・スポーツ/公園,154,4989
135.4869562,34.64389992,旭西公園,あさひにしこうえん,旭西公園（あさひにしこうえん）,西成区旭3丁目9番,西成区,,,街区公園,,,,,,公園・スポーツ,公園,公園・スポーツ/公園,154,5013
135.4667718,34.65123906,北村公園,きたむらこうえん,北村公園（きたむらこうえん）,大正区北村2-16,大正区,,,街区公園,,,,,,公園・スポーツ,公園,公園・スポーツ/公園,154,3956
135.4674691,34.64887797,北村南公園,きたむらみなみこうえん,北村南公園（きたむらみなみこうえん）,大正区北村3-2,大正区,,,街区公園,,,,,,公園・スポーツ,公園,公園・スポーツ/公園,154,3961
135.474011,34.64890311,千島公園,ちしまこうえん,千島公園（ちしまこうえん）,大正区千島2-7,大正区,,,総合公園,,,,,,公園・スポーツ,公園,公園・スポーツ/公園,154,3857
135.4701782,34.65170314,千林橋公園,せんりんばしこうえん,千林橋公園（せんりんばしこうえん）,大正区千島3-7,大正区,,,街区公園,,,,,,公園・スポーツ,公園,公園・スポーツ/公園,154,3866
135.4809721,34.64849997,わかくさ公園,わかくさこうえん,わかくさ公園（わかくさこうえん）,西成区北津守4丁目12番,西成区,,,街区公園,,,,,,公園・スポーツ,公園,公園・スポーツ/公園,154,4984
135.48255,34.64586686,西成公園,にしなりこうえん,西成公園（にしなりこうえん）,西成区津守1丁目13番,西成区,,,地区公園,,,,,,公園・スポーツ,公園,公園・スポーツ/公園,154,4987
135.4857327,34.64718083,津守北公園,つもりきたこうえん,津守北公園（つもりきたこうえん）,西成区津守1丁目1番,西成区,,,街区公園,,,,,,公園・スポーツ,公園,公園・スポーツ/公園,154,4986
135.4870142,34.64681097,松之宮公園,まつのみやこうえん,松之宮公園（まつのみやこうえん）,西成区鶴見橋3丁目8番,西成区,,,街区公園,,,,,,公園・スポーツ,公園,公園・スポーツ/公園,154,5007
135.4811169,34.65023292,北津守公園,きたつもりこうえん,北津守公園（きたつもりこうえん）,西成区北津守3丁目10番,西成区,,,街区公園,,,,,,公園・スポーツ,公園,公園・スポーツ/公園,154,4982
135.4825028,34.64883586,北津守４公園,きたつもり４こうえん,北津守４公園（きたつもり４こうえん）,西成区北津守4丁目5番,西成区,,,街区公園,,,,,,公園・スポーツ,公園,公園・スポーツ/公園,154,4985
135.4825998,34.65025583,北津守中央公園,きたつもりちゅうおうこうえん,北津守中央公園（きたつもりちゅうおうこうえん）,西成区北津守3丁目5番,西成区,,,街区公園,,,,,,公園・スポーツ,公園,公園・スポーツ/公園,154,4983
135.4892968,34.65196917,開公園,ひらきこうえん,開公園（ひらきこうえん）,西成区中開3丁目1番,西成区,,,街区公園,,,,,,公園・スポーツ,公園,公園・スポーツ/公園,154,5000
135.4862468,34.649767,出城西公園,でしろにしこうえん,出城西公園（でしろにしこうえん）,西成区出城3丁目6番,西成区,,,街区公園,,,,,,公園・スポーツ,公園,公園・スポーツ/公園,154,5003
135.4873813,34.64906383,長橋３公園,ながはし３こうえん,長橋３公園（ながはし３こうえん）,西成区長橋3丁目7番,西成区,,,街区公園,,,,,,公園・スポーツ,公園,公園・スポーツ/公園,154,5004
135.4412392,34.65548586,港晴南公園,こうせいみなみこうえん,港晴南公園（こうせいみなみこうえん）,港区港晴2-8,港区,,,街区公園,,,,,,公園・スポーツ,公園,公園・スポーツ/公園,154,1117
135.4374029,34.65333589,築港南公園,ちっこうみなみこうえん,築港南公園（ちっこうみなみこうえん）,港区築港1-2,港区,,,街区公園,,,,,,公園・スポーツ,公園,公園・スポーツ/公園,154,1120
135.446561,34.65425589,入舟南公園,いりふねみなみこうえん,入舟南公園（いりふねみなみこうえん）,港区八幡屋3-4,港区,,,街区公園,,,,,,公園・スポーツ,公園,公園・スポーツ/公園,154,1115
135.441828,34.65918603,港晴東公園,こうせいひがしこうえん,港晴東公園（こうせいひがしこうえん）,港区港晴3-11,港区,,,街区公園,,,,,,公園・スポーツ,公園,公園・スポーツ/公園,154,1118
135.4399887,34.65726411,港晴北公園,こうせいきたこうえん,港晴北公園（こうせいきたこうえん）,港区港晴4-17,港区,,,街区公園,,,,,,公園・スポーツ,公園,公園・スポーツ/公園,154,1119
135.4475777,34.65707197,入舟公園,いりふねこうえん,入舟公園（いりふねこうえん）,港区八幡屋1-4,港区,,,街区公園,,,,,,公園・スポーツ,公園,公園・スポーツ/公園,154,1114
135.4521058,34.65693306,池島公園,いけじまこうえん,池島公園（いけじまこうえん）,港区池島2-4,港区,,,近隣公園,,,,,,公園・スポーツ,公園,公園・スポーツ/公園,154,1113
135.446247,34.66054708,八幡屋公園,やはたやこうえん,八幡屋公園（やはたやこうえん）,港区田中3-1,港区,,,総合公園,,,,,,公園・スポーツ,公園,公園・スポーツ/公園,154,1091
135.4518283,34.66282211,夕凪公園,ゆうなぎこうえん,夕凪公園（ゆうなぎこうえん）,港区夕凪2-6,港区,,,街区公園,,,,,,公園・スポーツ,公園,公園・スポーツ/公園,154,1110
135.4525222,34.65970806,三先公園,みさきこうえん,三先公園（みさきこうえん）,港区三先2-3,港区,,,街区公園,,,,,,公園・スポーツ,公園,公園・スポーツ/公園,154,1112
135.4615442,34.65978603,市岡公園,いちおかこうえん,市岡公園（いちおかこうえん）,港区市岡4-6,港区,,,街区公園,,,,,,公園・スポーツ,公園,公園・スポーツ/公園,154,1107
135.4565363,34.66102811,港南公園,こうなんこうえん,港南公園（こうなんこうえん）,港区三先1-5,港区,,,街区公園,,,,,,公園・スポーツ,公園,公園・スポーツ/公園,154,1111
135.4514921,34.66526886,東田中公園,ひがしたなかこうえん,東田中公園（ひがしたなかこうえん）,港区田中1-1,港区,,,街区公園,,,,,,公園・スポーツ,公園,公園・スポーツ/公園,154,1108
135.4494668,34.66620794,石田公園,いしだこうえん,石田公園（いしだこうえん）,港区田中1-7,港区,,,街区公園,,,,,,公園・スポーツ,公園,公園・スポーツ/公園,154,1109
135.4584808,34.665608,磯路中央公園,いそじちゅうおうこうえん,磯路中央公園（いそじちゅうおうこうえん）,港区磯路2-17,港区,,,近隣公園,,,,,,公園・スポーツ,公園,公園・スポーツ/公園,154,1101
135.460603,34.66363117,市岡西公園,いちおかにしこうえん,市岡西公園（いちおかにしこうえん）,港区市岡1-15,港区,,,街区公園,,,,,,公園・スポーツ,公園,公園・スポーツ/公園,154,1105
135.465522,34.65485,泉尾浜公園,いずおはまこうえん,泉尾浜公園（いずおはまこうえん）,大正区泉尾7-17,大正区,,,街区公園,,,,,,公園・スポーツ,公園,公園・スポーツ/公園,154,3905
135.475306,34.65440589,南泉尾公園,みなみいずおこうえん,南泉尾公園（みなみいずおこうえん）,大正区千島1-16,大正区,,,街区公園,,,,,,公園・スポーツ,公園,公園・スポーツ/公園,154,3846
135.4689473,34.65846114,泉尾中公園,いずおなかこうえん,泉尾中公園（いずおなかこうえん）,大正区泉尾3-21,大正区,,,街区公園,,,,,,公園・スポーツ,公園,公園・スポーツ/公園,154,3884
135.4691063,34.65654403,泉尾公園,いずおこうえん,泉尾公園（いずおこうえん）,大正区泉尾4-21,大正区,,,地区公園,,,,,,公園・スポーツ,公園,公園・スポーツ/公園,154,3893
135.4841386,34.65508092,北津守東公園,きたつもりひがしこうえん,北津守東公園（きたつもりひがしこうえん）,西成区北津守1丁目4番,西成区,,,街区公園,,,,,,公園・スポーツ,公園,公園・スポーツ/公園,154,4978
135.4829077,34.65316111,北津守西公園,きたつもりにしこうえん,北津守西公園（きたつもりにしこうえん）,西成区北津守2丁目5番,西成区,,,街区公園,,,,,,公園・スポーツ,公園,公園・スポーツ/公園,154,4979
135.4848218,34.65297194,北津守中公園,きたつもりなかこうえん,北津守中公園（きたつもりなかこうえん）,西成区北津守2丁目1番,西成区,,,街区公園,,,,,,公園・スポーツ,公園,公園・スポーツ/公園,154,4980
135.4884667,34.65368097,北開公園,きたびらきこうえん,北開公園（きたびらきこうえん）,西成区北開2丁目3番,西成区,,,街区公園,,,,,,公園・スポーツ,公園,公園・スポーツ/公園,154,4998
135.4790418,34.65958614,三軒家公園,さんげんやこうえん,三軒家公園（さんげんやこうえん）,大正区三軒家東2-12,大正区,,,近隣公園,,,,,,公園・スポーツ,公園,公園・スポーツ/公園,154,3812
135.4624969,34.66079203,市岡浜公園,いちおかはまこうえん,市岡浜公園（いちおかはまこうえん）,港区市岡4-2,港区,,,街区公園,,,,,,公園・スポーツ,公園,公園・スポーツ/公園,154,1106
135.4743749,34.66048908,泉尾上公園,いずおかみこうえん,泉尾上公園（いずおかみこうえん）,大正区泉尾1-29,大正区,,,街区公園,,,,,,公園・スポーツ,公園,公園・スポーツ/公園,154,3872
135.4695327,34.66045583,泉尾2公園,いずお２こうえん,泉尾2公園（いずお２こうえん）,大正区泉尾2-25,大正区,,,街区公園,,,,,,公園・スポーツ,公園,公園・スポーツ/公園,154,3880
135.4643059,34.66698114,市岡元町公園,いちおかもとまちこうえん,市岡元町公園（いちおかもとまちこうえん）,港区市岡元町3-12,港区,,,街区公園,,,,,,公園・スポーツ,公園,公園・スポーツ/公園,154,1096
135.4681751,34.66579714,南市岡公園,みなみいちおかこうえん,南市岡公園（みなみいちおかこうえん）,港区南市岡2-7,港区,,,街区公園,,,,,,公園・スポーツ,公園,公園・スポーツ/公園,154,1102
135.4677749,34.66514694,南市岡西公園,みなみいちおかにしこうえん,南市岡西公園（みなみいちおかにしこうえん）,港区南市岡2-12,港区,,,街区公園,,,,,,公園・スポーツ,公園,公園・スポーツ/公園,154,1103
135.463589,34.66377192,市岡中央公園,いちおかちゅうおうこうえん,市岡中央公園（いちおかちゅうおうこうえん）,港区市岡1-3,港区,,,街区公園,,,,,,公園・スポーツ,公園,公園・スポーツ/公園,154,1104
135.4766918,34.66639708,岩崎橋公園,いわさきばしこうえん,岩崎橋公園（いわさきばしこうえん）,大正区三軒家西1-7,大正区,,,街区公園,,,,,,公園・スポーツ,公園,公園・スポーツ/公園,154,3805
135.4798672,34.66693608,大正橋公園,たいしょうばしこうえん,大正橋公園（たいしょうばしこうえん）,大正区三軒家東1-1,大正区,,,街区公園,,,,,,公園・スポーツ,公園,公園・スポーツ/公園,154,3809
135.4352362,34.68330603,酉島公園,とりしまこうえん,酉島公園（とりしまこうえん）,此花区酉島6-1,此花区,,,街区公園,,,,,,公園・スポーツ,公園,公園・スポーツ/公園,154,1439
135.4534216,34.66768894,弁天公園,べんてんこうえん,弁天公園（べんてんこうえん）,港区弁天3-5,港区,,,街区公園,,,,,,公園・スポーツ,公園,公園・スポーツ/公園,154,1098
135.4568833,34.66829406,弁天西公園,べんてんにしこうえん,弁天西公園（べんてんにしこうえん）,港区弁天2-4,港区,,,街区公園,,,,,,公園・スポーツ,公園,公園・スポーツ/公園,154,1097
135.4533691,34.67259392,弁天埠頭公園,べんてんふとうこうえん,弁天埠頭公園（べんてんふとうこうえん）,港区弁天6-7,港区,,,街区公園,,,,,,公園・スポーツ,公園,公園・スポーツ/公園,154,1100
135.4610807,34.67445786,波除公園,なみよけこうえん,波除公園（なみよけこうえん）,港区波除5-5,港区,,,近隣公園,,,,,,公園・スポーツ,公園,公園・スポーツ/公園,154,1094
135.4566327,34.67298917,弁天東公園,べんてんひがしこうえん,弁天東公園（べんてんひがしこうえん）,港区弁天5-12,港区,,,街区公園,,,,,,公園・スポーツ,公園,公園・スポーツ/公園,154,1099
135.4434672,34.67656703,島屋公園,しまやこうえん,島屋公園（しまやこうえん）,此花区島屋3-3,此花区,,,街区公園,,,,,,公園・スポーツ,公園,公園・スポーツ/公園,154,1446
135.4519192,34.68155308,春日出中公園,かすがでなかこうえん,春日出中公園（かすがでなかこうえん）,此花区春日出中1-26,此花区,,,街区公園,,,,,,公園・スポーツ,公園,公園・スポーツ/公園,154,1438
135.4535578,34.67835811,春日出南公園,かすがでみなみこうえん,春日出南公園（かすがでみなみこうえん）,此花区春日出南2-10,此花区,,,街区公園,,,,,,公園・スポーツ,公園,公園・スポーツ/公園,154,1448
135.4556888,34.68149694,梅香公園,ばいかこうえん,梅香公園（ばいかこうえん）,此花区梅香3-3,此花区,,,街区公園,,,,,,公園・スポーツ,公園,公園・スポーツ/公園,154,1433
135.4572188,34.67929186,春日出公園,かすがでこうえん,春日出公園（かすがでこうえん）,此花区春日出南1-2,此花区,,,近隣公園,,,,,,公園・スポーツ,公園,公園・スポーツ/公園,154,1434
135.462061,34.68137803,朝日橋公園,あさひばしこうえん,朝日橋公園（あさひばしこうえん）,此花区西九条6-1,此花区,,,近隣公園,,,,,,公園・スポーツ,公園,公園・スポーツ/公園,154,1457
135.4668169,34.66872514,市岡小公園,いちおかしょうこうえん,市岡小公園（いちおかしょうこうえん）,港区市岡元町2-9,港区,,,街区公園,,,,,,公園・スポーツ,公園,公園・スポーツ/公園,154,1095
135.4757607,34.67059214,大阪ドーム北公園,おおさかどーむきたこうえん,大阪ドーム北公園（おおさかどーむきたこうえん）,西区九条南1－8,西区,,,街区公園,,,,,,公園・スポーツ,公園,公園・スポーツ/公園,154,318
135.4650423,34.67191717,抱月公園,ほうげつこうえん,抱月公園（ほうげつこうえん）,港区波除2-2,港区,,,街区公園,,,,,,公園・スポーツ,公園,公園・スポーツ/公園,154,1092
135.4632441,34.67425617,抱月小公園,ほうげつしょうこうえん,抱月小公園（ほうげつしょうこうえん）,港区波除4-6,港区,,,街区公園,,,,,,公園・スポーツ,公園,公園・スポーツ/公園,154,1093
135.4725093,34.67222564,九条南公園,くじょうみなみこうえん,九条南公園（くじょうみなみこうえん）,西区九条南2－19,西区,,,街区公園,,,,,,公園・スポーツ,公園,公園・スポーツ/公園,154,2146
135.4779369,34.66772589,大阪ドーム南公園,おおさかどーむみなみこうえん,大阪ドーム南公園（おおさかどーむみなみこうえん）,西区千代崎3－南2,西区,,,街区公園,,,,,,公園・スポーツ,公園,公園・スポーツ/公園,154,173
135.4771446,34.67198958,九条公園,くじょうこうえん,九条公園（くじょうこうえん）,西区九条南1－1,西区,,,街区公園,,,,,,公園・スポーツ,公園,公園・スポーツ/公園,154,2145
135.4851964,34.67413908,土佐公園,とさこうえん,土佐公園（とさこうえん）,西区北堀江4－9,西区,,,街区公園,,,,,,公園・スポーツ,公園,公園・スポーツ/公園,154,2214
135.4851755,34.67109083,日吉公園,ひよしこうえん,日吉公園（ひよしこうえん）,西区南堀江4－9,西区,,,街区公園,,,,,,公園・スポーツ,公園,公園・スポーツ/公園,154,2218
135.4674246,34.67592283,九条北公園,くじょうきたこうえん,九条北公園（くじょうきたこうえん）,西区九条南4－19,西区,,,街区公園,,,,,,公園・スポーツ,公園,公園・スポーツ/公園,154,2147
135.4717473,34.67557489,九条東公園,くじょうひがしこうえん,九条東公園（くじょうひがしこうえん）,西区九条2－19,西区,,,街区公園,,,,,,公園・スポーツ,公園,公園・スポーツ/公園,154,2144
135.4742111,34.67815608,本田公園,ほんでんこうえん,本田公園（ほんでんこうえん）,西区本田3－8,西区,,,街区公園,,,,,,公園・スポーツ,公園,公園・スポーツ/公園,154,2220
135.4675223,34.68171117,西九条上公園,にしくじょうかみこうえん,西九条上公園（にしくじょうかみこうえん）,此花区西九条1-30,此花区,,,街区公園,,,,,,公園・スポーツ,公園,公園・スポーツ/公園,154,1429
135.4656918,34.67973289,西九条南公園,にしくじょうみなみこうえん,西九条南公園（にしくじょうみなみこうえん）,此花区西九条2-1,此花区,,,街区公園,,,,,,公園・スポーツ,公園,公園・スポーツ/公園,154,1430
135.4640081,34.68162511,西九条西公園,にしくじょうにしこうえん,西九条西公園（にしくじょうにしこうえん）,此花区西九条4-4,此花区,,,街区公園,,,,,,公園・スポーツ,公園,公園・スポーツ/公園,154,1431
135.4810576,34.67649572,松島公園,まつしまこうえん,松島公園（まつしまこうえん）,西区千代崎1－3,西区,,,地区公園,,,,,,公園・スポーツ,公園,公園・スポーツ/公園,154,2219
135.4864253,34.67647208,新町西公園,しんまちにしこうえん,新町西公園（しんまちにしこうえん）,西区新町4－5,西区,,,街区公園,,,,,,公園・スポーツ,公園,公園・スポーツ/公園,154,2211
135.4864853,34.67547403,西長堀公園,にしながほりこうえん,西長堀公園（にしながほりこうえん）,西区北堀江4－1,西区,,,街区公園,,,,,,公園・スポーツ,公園,公園・スポーツ/公園,154,2213
135.4882309,34.68063597,薩摩堀公園,さつまぼりこうえん,薩摩堀公園（さつまぼりこうえん）,西区立売堀4－2,西区,,,街区公園,,,,,,公園・スポーツ,公園,公園・スポーツ/公園,154,2206
135.4854612,34.67947508,島津公園,しまづこうえん,島津公園（しまづこうえん）,西区立売堀5－4,西区,,,街区公園,,,,,,公園・スポーツ,公園,公園・スポーツ/公園,154,2207
135.439189,34.68268589,酉島南公園,とりしまみなみこうえん,酉島南公園（とりしまみなみこうえん）,此花区酉島3-19,此花区,,,街区公園,,,,,,公園・スポーツ,公園,公園・スポーツ/公園,154,1451
135.4417499,34.68232208,酉島中公園,とりしまなかこうえん,酉島中公園（とりしまなかこうえん）,此花区酉島3-13,此花区,,,街区公園,,,,,,公園・スポーツ,公園,公園・スポーツ/公園,154,1453
135.4474503,34.68235792,春日出北公園,かすができたこうえん,春日出北公園（かすができたこうえん）,此花区春日出北2-16,此花区,,,街区公園,,,,,,公園・スポーツ,公園,公園・スポーツ/公園,154,1450
135.4436329,34.68480003,酉島東公園,とりしまひがしこうえん,酉島東公園（とりしまひがしこうえん）,此花区酉島1-13,此花区,,,街区公園,,,,,,公園・スポーツ,公園,公園・スポーツ/公園,154,88
135.446908,34.68705,伝法西公園,でんぽうにしこうえん,伝法西公園（でんぽうにしこうえん）,此花区伝法5-3,此花区,,,街区公園,,,,,,公園・スポーツ,公園,公園・スポーツ/公園,154,1454
135.4526219,34.68490786,四貫島西公園,しかんじまにしこうえん,四貫島西公園（しかんじまにしこうえん）,此花区四貫島2-25(高架下),此花区,,,街区公園,,,,,,公園・スポーツ,公園,公園・スポーツ/公園,154,1436
135.4505502,34.68251711,此花公園,このはなこうえん,此花公園（このはなこうえん）,此花区春日出北1-5,此花区,,,街区公園,,,,,,公園・スポーツ,公園,公園・スポーツ/公園,154,1437
135.4597171,34.68229403,梅香東公園,ばいかひがしこうえん,梅香東公園（ばいかひがしこうえん）,此花区梅香1-3,此花区,,,街区公園,,,,,,公園・スポーツ,公園,公園・スポーツ/公園,154,1432
135.4548918,34.68786106,伝法東公園,でんぽうひがしこうえん,伝法東公園（でんぽうひがしこうえん）,此花区伝法2-11,此花区,,,街区公園,,,,,,公園・スポーツ,公園,公園・スポーツ/公園,154,1442
135.4518559,34.68669214,伝法南公園,でんぽうみなみこうえん,伝法南公園（でんぽうみなみこうえん）,此花区伝法4-7(高架下),此花区,,,街区公園,,,,,,公園・スポーツ,公園,公園・スポーツ/公園,154,1443
135.4504249,34.68873083,伝法中公園,でんぽうなかこうえん,伝法中公園（でんぽうなかこうえん）,此花区伝法3-14(高架下),此花区,,,街区公園,,,,,,公園・スポーツ,公園,公園・スポーツ/公園,154,1444
135.4510312,34.68892508,伝法公園,でんぽうこうえん,伝法公園（でんぽうこうえん）,此花区伝法3-14,此花区,,,近隣公園,,,,,,公園・スポーツ,公園,公園・スポーツ/公園,154,1455
135.457361,34.68561883,千鳥橋公園,ちどりばしこうえん,千鳥橋公園（ちどりばしこうえん）,此花区四貫島1-1,此花区,,,街区公園,,,,,,公園・スポーツ,公園,公園・スポーツ/公園,154,1435
135.4602998,34.688736,千鳥橋みどり公園,ちどりばしみどりこうえん,千鳥橋みどり公園（ちどりばしみどりこうえん）,此花区伝法1-2,此花区,,,街区公園,,,,,,公園・スポーツ,公園,公園・スポーツ/公園,154,1449
135.4394713,34.69661806,百島公園,ひゃくしまこうえん,百島公園（ひゃくしまこうえん）,西淀川区百島1丁目3番,西淀川区,,,街区公園,,,,,,公園・スポーツ,公園,公園・スポーツ/公園,154,19372
135.4377654,34.69462131,新淀川公園,しんよどがわこうえん,新淀川公園（しんよどがわこうえん）,西淀川区百島1丁目3番,西淀川区,,,近隣公園,,,,,,公園・スポーツ,公園,公園・スポーツ/公園,154,19373
135.443703,34.69619228,福町西公園,ふくまちにしこうえん,福町西公園（ふくまちにしこうえん）,西淀川区福町2丁目9番,西淀川区,,,近隣公園,,,,,,公園・スポーツ,公園,公園・スポーツ/公園,154,19370
135.4525283,34.69080011,伝法北公園,でんぽうきたこうえん,伝法北公園（でんぽうきたこうえん）,此花区伝法3-7,此花区,,,街区公園,,,,,,公園・スポーツ,公園,公園・スポーツ/公園,154,1452
135.4554388,34.69212483,高見西公園,たかみにしこうえん,高見西公園（たかみにしこうえん）,此花区高見3-14,此花区,,,街区公園,,,,,,公園・スポーツ,公園,公園・スポーツ/公園,154,1458
135.4587327,34.69151917,高見公園,たかみこうえん,高見公園（たかみこうえん）,此花区高見1-5,此花区,,,街区公園,,,,,,公園・スポーツ,公園,公園・スポーツ/公園,154,1441
135.4598437,34.69283317,高見北公園,たかみきたこうえん,高見北公園（たかみきたこうえん）,此花区高見1-7,此花区,,,街区公園,,,,,,公園・スポーツ,公園,公園・スポーツ/公園,154,1456
135.464956,34.68396717,西九条公園,にしくじょうこうえん,西九条公園（にしくじょうこうえん）,此花区西九条5-4,此花区,,,街区公園,,,,,,公園・スポーツ,公園,公園・スポーツ/公園,154,1428
135.4661108,34.68425783,西九条小公園,にしくじょうしょうこうえん,西九条小公園（にしくじょうしょうこうえん）,此花区西九条3-8,此花区,,,街区公園,,,,,,公園・スポーツ,公園,公園・スポーツ/公園,154,1447
135.4741391,34.685453,大野町公園,おおのちょうこうえん,大野町公園（おおのちょうこうえん）,福島区野田5-9,福島区,,,街区公園,,,,,,公園・スポーツ,公園,公園・スポーツ/公園,154,2223
135.4727417,34.68421092,野田緑道,のだりょくどう,野田緑道（のだりょくどう）,福島区野田4-6・5-5・6-1,福島区,,,街区公園,,,,,,公園・スポーツ,公園,公園・スポーツ/公園,154,2224
135.4626862,34.68600814,嬉ヶ崎公園,きがさきこうえん,嬉ヶ崎公園（きがさきこうえん）,此花区朝日2-1(高架下),此花区,,,街区公園,,,,,,公園・スポーツ,公園,公園・スポーツ/公園,154,1445
135.4687,34.68765608,新家公園,しんけこうえん,新家公園（しんけこうえん）,福島区吉野5-9,福島区,,,街区公園,,,,,,公園・スポーツ,公園,公園・スポーツ/公園,154,2228
135.4844391,34.68371711,江之子島公園,えのこじまこうえん,江之子島公園（えのこじまこうえん）,西区江之子島1－8,西区,,,街区公園,,,,,,公園・スポーツ,公園,公園・スポーツ/公園,154,329
135.4864671,34.68428294,江戸堀公園,えどぼりこうえん,江戸堀公園（えどぼりこうえん）,西区京町堀3-7,西区,,,街区公園,,,,,,公園・スポーツ,公園,公園・スポーツ/公園,154,2200
135.4778439,34.68599706,大野東公園,おおのひがしこうえん,大野東公園（おおのひがしこうえん）,福島区野田2-8,福島区,,,街区公園,,,,,,公園・スポーツ,公園,公園・スポーツ/公園,154,2222
135.4835107,34.68684983,中之島西公園,なかのしまにしこうえん,中之島西公園（なかのしまにしこうえん）,北区中之島6-3,北区,,,街区公園,,,,,,公園・スポーツ,公園,公園・スポーツ/公園,154,822
135.464411,34.68940594,大開西公園,おおびらきにしこうえん,大開西公園（おおびらきにしこうえん）,福島区大開4－4,福島区,,,街区公園,,,,,,公園・スポーツ,公園,公園・スポーツ/公園,154,2230
135.4734168,34.69145786,江成公園,えなりこうえん,江成公園（えなりこうえん）,福島区吉野3-17,福島区,,,街区公園,,,,,,公園・スポーツ,公園,公園・スポーツ/公園,154,2226
135.4709361,34.68937492,吉野町公園,よしのちょうこうえん,吉野町公園（よしのちょうこうえん）,福島区吉野4-12,福島区,,,街区公園,,,,,,公園・スポーツ,公園,公園・スポーツ/公園,154,2227
135.4707064,34.69419219,大開公園,おおびらきこうえん,大開公園（おおびらきこうえん）,福島区大開1-18,福島区,,,街区公園,,,,,,公園・スポーツ,公園,公園・スポーツ/公園,154,2229
135.4701061,34.69548914,海老江公園,えびえこうえん,海老江公園（えびえこうえん）,福島区海老江7-15,福島区,,,街区公園,,,,,,公園・スポーツ,公園,公園・スポーツ/公園,154,3582
135.4793282,34.69006111,玉川南公園,たまがわみなみこうえん,玉川南公園（たまがわみなみこうえん）,福島区玉川2-2,福島区,,,街区公園,,,,,,公園・スポーツ,公園,公園・スポーツ/公園,154,47
135.477536,34.68983103,玉川西公園,たまがわにしこうえん,玉川西公園（たまがわにしこうえん）,福島区玉川4－13,福島区,,,街区公園,,,,,,公園・スポーツ,公園,公園・スポーツ/公園,154,2221
135.4782003,34.69184711,中江町公園,なかえちょうこうえん,中江町公園（なかえちょうこうえん）,福島区吉野1-15,福島区,,,街区公園,,,,,,公園・スポーツ,公園,公園・スポーツ/公園,154,2225
135.4794831,34.69149994,玉川公園,たまがわこうえん,玉川公園（たまがわこうえん）,福島区玉川2-11,福島区,,,街区公園,,,,,,公園・スポーツ,公園,公園・スポーツ/公園,154,3594
135.4831718,34.69059219,下福島公園,しもふくしまこうえん,下福島公園（しもふくしまこうえん）,福島区福島4-1・玉川１-2,福島区,,,地区公園,,,,,,公園・スポーツ,公園,公園・スポーツ/公園,154,3588
135.4833497,34.69485286,福島西公園,ふくしまにしこうえん,福島西公園（ふくしまにしこうえん）,福島区福島4-6,福島区,,,街区公園,,,,,,公園・スポーツ,公園,公園・スポーツ/公園,154,3589
135.4852719,34.69593303,福島公園,ふくしまこうえん,福島公園（ふくしまこうえん）,福島区福島5-16,福島区,,,街区公園,,,,,,公園・スポーツ,公園,公園・スポーツ/公園,154,3590
135.489633,34.64065803,松通公園,まつどおりこうえん,松通公園（まつどおりこうえん）,西成区松3丁目2番,西成区,,,街区公園,,,,,,公園・スポーツ,公園,公園・スポーツ/公園,154,5016
135.4940561,34.64114692,松通東公園,まつどおりひがしこうえん,松通東公園（まつどおりひがしこうえん）,西成区松1丁目5番,西成区,,,街区公園,,,,,,公園・スポーツ,公園,公園・スポーツ/公園,154,5018
135.4894672,34.63881106,橘第3公園,たちばなだい３こうえん,橘第3公園（たちばなだい３こうえん）,西成区橘3丁目3番,西成区,,,街区公園,,,,,,公園・スポーツ,公園,公園・スポーツ/公園,154,5019
135.501519,34.63933286,天下茶屋中公園,てんがちゃやなかこうえん,天下茶屋中公園（てんがちゃやなかこうえん）,西成区天下茶屋東2丁目13番,西成区,,,街区公園,,,,,,公園・スポーツ,公園,公園・スポーツ/公園,154,3599
135.5010003,34.637681,北天下茶屋公園,きたてんがちゃやこうえん,北天下茶屋公園（きたてんがちゃやこうえん）,西成区聖天下1丁目10番,西成区,,,街区公園,,,,,,公園・スポーツ,公園,公園・スポーツ/公園,154,3600
135.4919917,34.64331089,梅南２公園,ばいなん２こうえん,梅南２公園（ばいなん２こうえん）,西成区梅南2丁目1番,西成区,,,街区公園,,,,,,公園・スポーツ,公園,公園・スポーツ/公園,154,5014
135.4954251,34.64220786,弘治南公園,こうじみなみこうえん,弘治南公園（こうじみなみこうえん）,西成区梅南1丁目2番,西成区,,,街区公園,,,,,,公園・スポーツ,公園,公園・スポーツ/公園,154,5015
135.4922363,34.64132503,松通中公園,まつどおりなかこうえん,松通中公園（まつどおりなかこうえん）,西成区松2丁目1番,西成区,,,街区公園,,,,,,公園・スポーツ,公園,公園・スポーツ/公園,154,5017
135.5007328,34.64476719,萩之茶屋南公園,はぎのちゃやみなみこうえん,萩之茶屋南公園（はぎのちゃやみなみこうえん）,西成区萩之茶屋3丁目7番,西成区,,,街区公園,,,,,,公園・スポーツ,公園,公園・スポーツ/公園,154,18
135.5046829,34.64001097,天下茶屋東公園,てんがちゃやひがしこうえん,天下茶屋東公園（てんがちゃやひがしこうえん）,西成区天下茶屋東2丁目1番,西成区,,,街区公園,,,,,,公園・スポーツ,公園,公園・スポーツ/公園,154,3598
135.5081998,34.64363903,金塚ふれあい西公園,かなづかふれあいにしこうえん,金塚ふれあい西公園（かなづかふれあいにしこうえん）,阿倍野区旭町3丁目,阿倍野区,,,近隣公園,,,,,,公園・スポーツ,公園,公園・スポーツ/公園,154,1720
135.513653,34.64152792,松崎公園,まつざきこうえん,松崎公園（まつざきこうえん）,阿倍野区松崎町3丁目7,阿倍野区,,,街区公園,,,,,,公園・スポーツ,公園,公園・スポーツ/公園,154,1226
135.489542,34.64837803,長橋西公園,ながはしにしこうえん,長橋西公園（ながはしにしこうえん）,西成区長橋3丁目1番,西成区,,,街区公園,,,,,,公園・スポーツ,公園,公園・スポーツ/公園,154,5005
135.4925529,34.64834994,長橋公園,ながはしこうえん,長橋公園（ながはしこうえん）,西成区長橋2丁目2番,西成区,,,街区公園,,,,,,公園・スポーツ,公園,公園・スポーツ/公園,154,5006
135.4897172,34.64666389,鶴見橋公園,つるみばしこうえん,鶴見橋公園（つるみばしこうえん）,西成区鶴見橋3丁目1番,西成区,,,街区公園,,,,,,公園・スポーツ,公園,公園・スポーツ/公園,154,5008
135.4922309,34.64649689,鶴見橋中央公園,つるみばしちゅうおうこうえん,鶴見橋中央公園（つるみばしちゅうおうこうえん）,西成区鶴見橋2丁目5番,西成区,,,街区公園,,,,,,公園・スポーツ,公園,公園・スポーツ/公園,154,5009
135.4933419,34.64645808,鶴見橋中公園,つるみばしなかこうえん,鶴見橋中公園（つるみばしなかこうえん）,西成区鶴見橋1丁目17番,西成区,,,街区公園,,,,,,公園・スポーツ,公園,公園・スポーツ/公園,154,5010
135.4954999,34.64573606,鶴見橋東公園,つるみばしひがしこうえん,鶴見橋東公園（つるみばしひがしこうえん）,西成区鶴見橋1丁目5番,西成区,,,街区公園,,,,,,公園・スポーツ,公園,公園・スポーツ/公園,154,5011
135.4904219,34.64550289,旭北公園,あさひきたこうえん,旭北公園（あさひきたこうえん）,西成区鶴見橋2丁目9番,西成区,,,街区公園,,,,,,公園・スポーツ,公園,公園・スポーツ/公園,154,5012
135.4985688,34.647533,花園公園,はなぞのこうえん,花園公園（はなぞのこうえん）,西成区花園北1丁目9番,西成区,,,街区公園,,,,,,公園・スポーツ,公園,公園・スポーツ/公園,154,5027
135.5009807,34.64760614,萩之茶屋北公園,はぎのちゃやきたこうえん,萩之茶屋北公園（はぎのちゃやきたこうえん）,西成区萩之茶屋1丁目13番,西成区,,,街区公園,,,,,,公園・スポーツ,公園,公園・スポーツ/公園,154,5028
135.5006108,34.64601394,萩之茶屋中公園,はぎのちゃやなかこうえん,萩之茶屋中公園（はぎのちゃやなかこうえん）,西成区萩之茶屋2丁目4番,西成区,,,街区公園,,,,,,公園・スポーツ,公園,公園・スポーツ/公園,154,5029
135.4908309,34.65110011,南開公園,みなみひらきこうえん,南開公園（みなみひらきこうえん）,西成区南開1丁目7番,西成区,,,街区公園,,,,,,公園・スポーツ,公園,公園・スポーツ/公園,154,5001
135.4943579,34.65062792,出城公園,でしろこうえん,出城公園（でしろこうえん）,西成区出城1丁目5番,西成区,,,街区公園,,,,,,公園・スポーツ,公園,公園・スポーツ/公園,154,5002
135.5084114,34.64511711,阿倍野旭公園,あべのあさひこうえん,阿倍野旭公園（あべのあさひこうえん）,阿倍野区旭町1丁目6,阿倍野区,,,街区公園,,,,,,公園・スポーツ,公園,公園・スポーツ/公園,154,1713
135.5072141,34.64515,山王第２公園,さんのうだい２こうえん,山王第２公園（さんのうだい２こうえん）,西成区山王2丁目2番,西成区,,,街区公園,,,,,,公園・スポーツ,公園,公園・スポーツ/公園,154,3596
135.5121311,34.64806878,天王寺公園,てんのうじこうえん,天王寺公園（てんのうじこうえん）,天王寺区茶臼山町1,天王寺区,,,動植物公園,,,,,,公園・スポーツ,公園,公園・スポーツ/公園,154,4320
135.5159943,34.65056103,庚申堂公園,こうしんどうこうえん,庚申堂公園（こうしんどうこうえん）,天王寺区堀越町2,天王寺区,,,街区公園,,,,,,公園・スポーツ,公園,公園・スポーツ/公園,154,4344
135.5194532,34.63992486,三明町公園,さんめいちょうこうえん,三明町公園（さんめいちょうこうえん）,阿倍野区三明町2丁目9,阿倍野区,,,街区公園,,,,,,公園・スポーツ,公園,公園・スポーツ/公園,154,1207
135.5259858,34.63990786,高松南公園,たかまつみなみこうえん,高松南公園（たかまつみなみこうえん）,阿倍野区天王寺町南3丁目12,阿倍野区,,,街区公園,,,,,,公園・スポーツ,公園,公園・スポーツ/公園,154,1258
135.5253033,34.63910006,美章園公園,びしょうえんこうえん,美章園公園（びしょうえんこうえん）,阿倍野区美章園2丁目13,阿倍野区,,,街区公園,,,,,,公園・スポーツ,公園,公園・スポーツ/公園,154,1609
135.5214563,34.64229986,三明町北公園,さんめいちょうきたこうえん,三明町北公園（さんめいちょうきたこうえん）,阿倍野区三明町1丁目4,阿倍野区,,,街区公園,,,,,,公園・スポーツ,公園,公園・スポーツ/公園,154,1200
135.517847,34.64182208,常盤公園,ときわこうえん,常盤公園（ときわこうえん）,阿倍野区松崎町3丁目2,阿倍野区,,,街区公園,,,,,,公園・スポーツ,公園,公園・スポーツ/公園,154,1227
135.524519,34.64396383,高松公園,たかまつこうえん,高松公園（たかまつこうえん）,阿倍野区天王寺町北3丁目17,阿倍野区,,,街区公園,,,,,,公園・スポーツ,公園,公園・スポーツ/公園,154,1270
135.5293861,34.64182208,桑津北公園,くわづきたこうえん,桑津北公園（くわづきたこうえん）,東住吉区桑津1-12,東住吉区,,,街区公園,,,,,,公園・スポーツ,公園,公園・スポーツ/公園,154,3261
135.529944,34.63842489,桑津公園,くわづこうえん,桑津公園（くわづこうえん）,東住吉区桑津3-6,東住吉区,,,街区公園,,,,,,公園・スポーツ,公園,公園・スポーツ/公園,154,3262
135.5219999,34.64719414,大道南公園,だいどうみなみこうえん,大道南公園（だいどうみなみこうえん）,天王寺区大道5丁目9,天王寺区,,,街区公園,,,,,,公園・スポーツ,公園,公園・スポーツ/公園,154,4317
135.5178437,34.64687489,南河堀公園,みなみかわほりこうえん,南河堀公園（みなみかわほりこうえん）,天王寺区南河堀町8(高架下),天王寺区,,,街区公園,,,,,,公園・スポーツ,公園,公園・スポーツ/公園,154,4335
135.5192639,34.650111,稲生公園,いなおこうえん,稲生公園（いなおこうえん）,天王寺区大道3丁目7,天王寺区,,,街区公園,,,,,,公園・スポーツ,公園,公園・スポーツ/公園,154,4314
135.521533,34.64893894,大道北公園,だいどうきたこうえん,大道北公園（だいどうきたこうえん）,天王寺区大道4丁目6,天王寺区,,,街区公園,,,,,,公園・スポーツ,公園,公園・スポーツ/公園,154,4316
135.5243311,34.65121097,国分公園,こくぶこうえん,国分公園（こくぶこうえん）,天王寺区国分町14,天王寺区,,,街区公園,,,,,,公園・スポーツ,公園,公園・スポーツ/公園,154,4257
135.4911576,34.65253892,中北公園,なかきたこうえん,中北公園（なかきたこうえん）,西成区中開2丁目5番,西成区,,,街区公園,,,,,,公園・スポーツ,公園,公園・スポーツ/公園,154,4999
135.5115193,34.65406892,逢阪公園,おうさかこうえん,逢阪公園（おうさかこうえん）,天王寺区逢阪1丁目3,天王寺区,,,街区公園,,,,,,公園・スポーツ,公園,公園・スポーツ/公園,154,4242
135.5103969,34.655092,大岸公園,おおぎしこうえん,大岸公園（おおぎしこうえん）,天王寺区下寺町2丁目6,天王寺区,,,街区公園,,,,,,公園・スポーツ,公園,公園・スポーツ/公園,154,4251
135.5074782,34.66410811,黒門公園,くろもんこうえん,黒門公園（くろもんこうえん）,中央区日本橋２丁目12,中央区,,,街区公園,,,,,,公園・スポーツ,公園,公園・スポーツ/公園,154,1664
135.5046748,34.66385283,難波千日前公園,なんばせんにちまえこうえん,難波千日前公園（なんばせんにちまえこうえん）,中央区難波千日前5,中央区,,,街区公園,,,,,,公園・スポーツ,公園,公園・スポーツ/公園,154,1673
135.5137608,34.66448308,生玉公園,いくたまこうえん,生玉公園（いくたまこうえん）,天王寺区生玉町6、下寺町1丁目2,天王寺区,,,地区公園,,,,,,公園・スポーツ,公園,公園・スポーツ/公園,154,4310
135.5209577,34.65268117,寺田町公園,てらだちょうこうえん,寺田町公園（てらだちょうこうえん）,天王寺区寺田町1丁目5,天王寺区,,,近隣公園,,,,,,公園・スポーツ,公園,公園・スポーツ/公園,154,4266
135.5176941,34.65925289,上八公園,うえはちこうえん,上八公園（うえはちこうえん）,天王寺区上本町8丁目8,天王寺区,,,街区公園,,,,,,公園・スポーツ,公園,公園・スポーツ/公園,154,4290
135.5234889,34.65769711,五条公園,ごじょうこうえん,五条公園（ごじょうこうえん）,天王寺区烏ヶ辻2丁目5,天王寺区,,,街区公園,,,,,,公園・スポーツ,公園,公園・スポーツ/公園,154,4247
135.5245689,34.65907186,五条小公園,ごじょうしょうこうえん,五条小公園（ごじょうしょうこうえん）,天王寺区堂ヶ芝2丁目17,天王寺区,,,街区公園,,,,,,公園・スポーツ,公園,公園・スポーツ/公園,154,4334
135.5223503,34.66332492,石ヶ辻公園,いしがつじこうえん,石ヶ辻公園（いしがつじこうえん）,天王寺区石ヶ辻町11,天王寺区,,,街区公園,,,,,,公園・スポーツ,公園,公園・スポーツ/公園,154,33
135.5167138,34.66223286,上汐公園,うえしおこうえん,上汐公園（うえしおこうえん）,天王寺区上汐4丁目2,天王寺区,,,街区公園,,,,,,公園・スポーツ,公園,公園・スポーツ/公園,154,4277
135.5176779,34.66297211,上七公園,うえしちこうえん,上七公園（うえしちこうえん）,天王寺区上本町7丁目2,天王寺区,,,街区公園,,,,,,公園・スポーツ,公園,公園・スポーツ/公園,154,4286
135.5172467,34.66386097,上汐北公園,うえしおきたこうえん,上汐北公園（うえしおきたこうえん）,天王寺区上汐3丁目5,天王寺区,,,街区公園,,,,,,公園・スポーツ,公園,公園・スポーツ/公園,154,4273
135.5260249,34.666461,小橋公園,おばせこうえん,小橋公園（おばせこうえん）,天王寺区小橋町3,天王寺区,,,街区公園,,,,,,公園・スポーツ,公園,公園・スポーツ/公園,154,4270
135.5382208,34.66634056,玉津南公園,たまつみなみこうえん,玉津南公園（たまつみなみこうえん）,東成区玉津3丁目8番,東成区,,,街区公園,,,,,,公園・スポーツ,公園,公園・スポーツ/公園,154,3334
135.5603362,34.64000283,加美北公園,かみきたこうえん,加美北公園（かみきたこうえん）,平野区加美北4-2、5-4,平野区,,,近隣公園,,,,,,公園・スポーツ,公園,公園・スポーツ/公園,154,2381
135.562472,34.63788092,加美長沢西公園,かみながさわにしこうえん,加美長沢西公園（かみながさわにしこうえん）,平野区加美北5-9,平野区,,,街区公園,,,,,,公園・スポーツ,公園,公園・スポーツ/公園,154,2382
135.5451691,34.66538117,今里南公園,いまざとみなみこうえん,今里南公園（いまざとみなみこうえん）,東成区大今里南1丁目26番,東成区,,,街区公園,,,,,,公園・スポーツ,公園,公園・スポーツ/公園,154,3419
135.5525195,34.66561464,大今里南公園,おおいまざとみなみこうえん,大今里南公園（おおいまざとみなみこうえん）,東成区大今里南4丁目15番,東成区,,,街区公園,,,,,,公園・スポーツ,公園,公園・スポーツ/公園,154,3426
135.4907359,34.67046914,南堀江公園,みなみほりえこうえん,南堀江公園（みなみほりえこうえん）,西区南堀江2－8,西区,,,街区公園,,,,,,公園・スポーツ,公園,公園・スポーツ/公園,154,2216
135.489922,34.67381106,阿弥陀池公園,あみだいけこうえん,阿弥陀池公園（あみだいけこうえん）,西区北堀江3－3,西区,,,街区公園,,,,,,公園・スポーツ,公園,公園・スポーツ/公園,154,2212
135.4946638,34.67216097,堀江公園,ほりえこうえん,堀江公園（ほりえこうえん）,西区南堀江1－13,西区,,,街区公園,,,,,,公園・スポーツ,公園,公園・スポーツ/公園,154,2215
135.4897468,34.67236894,高台橋公園,たかきやばしこうえん,高台橋公園（たかきやばしこうえん）,西区南堀江3－1,西区,,,街区公園,,,,,,公園・スポーツ,公園,公園・スポーツ/公園,154,2217
135.4979139,34.67207197,御津公園,みつこうえん,御津公園（みつこうえん）,中央区西心斎橋２丁目11,中央区,,,街区公園,,,,,,公園・スポーツ,公園,公園・スポーツ/公園,154,1670
135.5093667,34.67052194,道仁公園,どうにんこうえん,道仁公園（どうにんこうえん）,中央区島之内２丁目5,中央区,,,街区公園,,,,,,公園・スポーツ,公園,公園・スポーツ/公園,154,1662
135.5128472,34.67006683,瓦屋町公園,かわらやまちこうえん,瓦屋町公園（かわらやまちこうえん）,中央区瓦屋町２丁目9,中央区,,,街区公園,,,,,,公園・スポーツ,公園,公園・スポーツ/公園,154,1671
135.5142668,34.66865311,高津公園,こうづこうえん,高津公園（こうづこうえん）,中央区高津１丁目1・中寺２丁目4,中央区,,,近隣公園,,,,,,公園・スポーツ,公園,公園・スポーツ/公園,154,1672
135.5155718,34.67446894,桃園公園,とうえんこうえん,桃園公園（とうえんこうえん）,中央区谷町６丁目5,中央区,,,街区公園,,,,,,公園・スポーツ,公園,公園・スポーツ/公園,154,1674
135.4948969,34.67808883,新町北公園,しんまちきたこうえん,新町北公園（しんまちきたこうえん）,西区新町1－15,西区,,,街区公園,,,,,,公園・スポーツ,公園,公園・スポーツ/公園,154,2208
135.4928002,34.67636683,新町南公園,しんまちみなみこうえん,新町南公園（しんまちみなみこうえん）,西区新町2－6,西区,,,街区公園,,,,,,公園・スポーツ,公園,公園・スポーツ/公園,154,2209
135.4904469,34.67798617,立売堀公園,いたちぼりこうえん,立売堀公園（いたちぼりこうえん）,西区新町3－1,西区,,,街区公園,,,,,,公園・スポーツ,公園,公園・スポーツ/公園,154,2210
135.4955437,34.68108919,新阿波座公園,しんあわざこうえん,新阿波座公園（しんあわざこうえん）,西区阿波座1－8,西区,,,街区公園,,,,,,公園・スポーツ,公園,公園・スポーツ/公園,154,2204
135.4915942,34.67974397,阿波座南公園,あわざみなみこうえん,阿波座南公園（あわざみなみこうえん）,西区立売堀2－2,西区,,,街区公園,,,,,,公園・スポーツ,公園,公園・スポーツ/公園,154,2205
135.5134193,34.67810583,南大江公園,みなみおおえこうえん,南大江公園（みなみおおえこうえん）,中央区粉川町6・神崎町1,中央区,,,街区公園,,,,,,公園・スポーツ,公園,公園・スポーツ/公園,154,1660
135.5028032,34.68018906,久宝公園,きゅうほうこうえん,久宝公園（きゅうほうこうえん）,中央区北久宝寺町３丁目1,中央区,,,街区公園,,,,,,公園・スポーツ,公園,公園・スポーツ/公園,154,1653
135.5191359,34.66945806,東平北公園,とうへいきたこうえん,東平北公園（とうへいきたこうえん）,中央区上本町西４丁目1,中央区,,,街区公園,,,,,,公園・スポーツ,公園,公園・スポーツ/公園,154,67
135.5191332,34.66876097,東平南公園,とうへいみなみこうえん,東平南公園（とうへいみなみこうえん）,中央区上本町西５丁目1,中央区,,,街区公園,,,,,,公園・スポーツ,公園,公園・スポーツ/公園,154,1663
135.5229748,34.66842481,東高津公園,ひがしこうづこうえん,東高津公園（ひがしこうづこうえん）,天王寺区東高津町2,天王寺区,,,街区公園,,,,,,公園・スポーツ,公園,公園・スポーツ/公園,154,4325
135.527914,34.66961911,真田山公園,さなだやまこうえん,真田山公園（さなだやまこうえん）,天王寺区真田山町5,天王寺区,,,地区公園,,,,,,公園・スポーツ,公園,公園・スポーツ/公園,154,4293
135.5187559,34.67417786,空堀桃谷公園,からほりももだにこうえん,空堀桃谷公園（からほりももだにこうえん）,中央区上本町西２丁目5,中央区,,,街区公園,,,,,,公園・スポーツ,公園,公園・スポーツ/公園,154,1661
135.521403,34.67212811,空清町公園,からきよちょうこうえん,空清町公園（からきよちょうこうえん）,天王寺区上本町3丁目4,天王寺区,,,街区公園,,,,,,公園・スポーツ,公園,公園・スポーツ/公園,154,4285
135.5293558,34.67269403,宰相山公園,さいしょうやまこうえん,宰相山公園（さいしょうやまこうえん）,天王寺区玉造本町14,天王寺区,,,街区公園,,,,,,公園・スポーツ,公園,公園・スポーツ/公園,154,4253
135.5282778,34.673544,宰相山西公園,さいしょうやまにしこうえん,宰相山西公園（さいしょうやまにしこうえん）,天王寺区玉造本町14、空堀町9,天王寺区,,,街区公園,,,,,,公園・スポーツ,公園,公園・スポーツ/公園,154,4254
135.5244247,34.67368289,清水谷公園,しみずだにこうえん,清水谷公園（しみずだにこうえん）,天王寺区清水谷町16,天王寺区,,,街区公園,,,,,,公園・スポーツ,公園,公園・スポーツ/公園,154,4302
135.5326921,34.67007203,東小橋公園,ひがしおばせこうえん,東小橋公園（ひがしおばせこうえん）,東成区東小橋2丁目1番,東成区,,,近隣公園,,,,,,公園・スポーツ,公園,公園・スポーツ/公園,154,3469
135.5402919,34.67015586,平戸公園,ひらどこうえん,平戸公園（ひらどこうえん）,東成区大今里西2丁目6番・9番,東成区,,,街区公園,,,,,,公園・スポーツ,公園,公園・スポーツ/公園,154,3407
135.5335599,34.67340917,東小橋北公園,ひがしおばせきたこうえん,東小橋北公園（ひがしおばせきたこうえん）,東成区東小橋1丁目9番,東成区,,,街区公園,,,,,,公園・スポーツ,公園,公園・スポーツ/公園,154,3465
135.5371671,34.67134203,玉津公園,たまつこうえん,玉津公園（たまつこうえん）,東成区玉津1丁目11番,東成区,,,街区公園,,,,,,公園・スポーツ,公園,公園・スポーツ/公園,154,3330
135.5423663,34.67401903,南中本公園,みなみなかもとこうえん,南中本公園（みなみなかもとこうえん）,東成区大今里西1丁目10番,東成区,,,街区公園,,,,,,公園・スポーツ,公園,公園・スポーツ/公園,154,3402
135.5228307,34.67789714,広小路公園,ひろこうじこうえん,広小路公園（ひろこうじこうえん）,中央区上町１丁目19,中央区,,,街区公園,,,,,,公園・スポーツ,公園,公園・スポーツ/公園,154,1658
135.5185673,34.67809697,銅座公園,どうざこうえん,銅座公園（どうざこうえん）,中央区内久宝寺町２丁目5,中央区,,,街区公園,,,,,,公園・スポーツ,公園,公園・スポーツ/公園,154,1659
135.5288108,34.67685589,玉造公園,たまつくりこうえん,玉造公園（たまつくりこうえん）,中央区玉造２丁目20,中央区,,,街区公園,,,,,,公園・スポーツ,公園,公園・スポーツ/公園,154,1657
135.5262418,34.67733089,寺山公園,てらやまこうえん,寺山公園（てらやまこうえん）,中央区上町１丁目2,中央区,,,街区公園,,,,,,公園・スポーツ,公園,公園・スポーツ/公園,154,1669
135.5163641,34.68004389,谷四錦郷公園,たによんきんごうこうえん,谷四錦郷公園（たによんきんごうこうえん）,中央区農人橋１丁目2・和泉町１丁目1,中央区,,,街区公園,,,,,,公園・スポーツ,公園,公園・スポーツ/公園,154,1654
135.5224392,34.680086,難波宮跡公園,なにわのみやあとこうえん,難波宮跡公園（なにわのみやあとこうえん）,中央区大手前４丁目1,中央区,,,街区公園,,,,,,公園・スポーツ,公園,公園・スポーツ/公園,154,1668
135.5271783,34.67931108,越中公園,えっちゅうこうえん,越中公園（えっちゅうこうえん）,中央区玉造２丁目24,中央区,,,街区公園,,,,,,公園・スポーツ,公園,公園・スポーツ/公園,154,1655
135.5369313,34.67673031,中道中央公園,なかみちちゅうおうこうえん,中道中央公園（なかみちちゅうおうこうえん）,東成区中道4丁目5番,東成区,,,街区公園,,,,,,公園・スポーツ,公園,公園・スポーツ/公園,154,3444
135.5414332,34.67729544,中本くすのき公園,なかもとくすのきこうえん,中本くすのき公園（なかもとくすのきこうえん）,東成区中本5丁目2番,東成区,,,街区公園,,,,,,公園・スポーツ,公園,公園・スポーツ/公園,154,3456
135.5320218,34.67915817,城南公園,じょうなんこうえん,城南公園（じょうなんこうえん）,中央区森ノ宮中央１丁目20,中央区,,,街区公園,,,,,,公園・スポーツ,公園,公園・スポーツ/公園,154,1656
135.532744,34.68046386,森之宮公園,もりのみやこうえん,森之宮公園（もりのみやこうえん）,中央区森ノ之宮中央１丁目13,中央区,,,街区公園,,,,,,公園・スポーツ,公園,公園・スポーツ/公園,154,1667
135.5397138,34.67885972,北中道公園,きたなかみちこうえん,北中道公園（きたなかみちこうえん）,東成区中道2丁目13番,東成区,,,街区公園,,,,,,公園・スポーツ,公園,公園・スポーツ/公園,154,3436
135.5425361,34.68033311,北中本公園,きたなかもとこうえん,北中本公園（きたなかもとこうえん）,東成区中本2丁目11番,東成区,,,街区公園,,,,,,公園・スポーツ,公園,公園・スポーツ/公園,154,3447
135.4895003,34.68553944,花乃井公園,はなのいこうえん,花乃井公園（はなのいこうえん）,西区京町堀2-11,西区,,,街区公園,,,,,,公園・スポーツ,公園,公園・スポーツ/公園,154,2199
135.4942723,34.68778314,西船場公園,にしせんばこうえん,西船場公園（にしせんばこうえん）,西区京町堀1-11,西区,,,街区公園,,,,,,公園・スポーツ,公園,公園・スポーツ/公園,154,2198
135.5137858,34.685128,中大江公園,なかおおえこうえん,中大江公園（なかおおえこうえん）,中央区南新町２丁目1・糸屋町２丁目2,中央区,,,近隣公園,,,,,,公園・スポーツ,公園,公園・スポーツ/公園,154,1652
135.5103362,34.68272208,東横堀公園,ひがしよこぼりこうえん,東横堀公園（ひがしよこぼりこうえん）,中央区本町橋5,中央区,,,街区公園,,,,,,公園・スポーツ,公園,公園・スポーツ/公園,154,1666
135.5094442,34.68869683,東横堀緑道公園,ひがしよこぼりりょくどうこうえん,東横堀緑道公園（ひがしよこぼりりょくどうこうえん）,中央区北浜・今橋・高麗橋・道修町・平野町・淡路町・瓦町・備後町・安土町（各１丁目）外,中央区,,,緑道,,,,,,公園・スポーツ,公園,公園・スポーツ/公園,154,1651
135.5149473,34.68900006,北大江公園,きたおおえこうえん,北大江公園（きたおおえこうえん）,中央区石町１丁目3・島町１丁目5,中央区,,,街区公園,,,,,,公園・スポーツ,公園,公園・スポーツ/公園,154,1650
135.4897502,34.69373092,福島浜緑道,ふくしまはまりょくどう,福島浜緑道（ふくしまはまりょくどう）,福島区福島１-1,福島区,,,緑道,,,,,,公園・スポーツ,公園,公園・スポーツ/公園,154,3587
135.499322,34.69516083,堂島公園,どうじまこうえん,堂島公園（どうじまこうえん）,北区堂島浜1-2,北区,,,街区公園,,,,,,公園・スポーツ,公園,公園・スポーツ/公園,154,812
135.4983889,34.69328886,中之島緑道,なかのしまりょくどう,中之島緑道（なかのしまりょくどう）,北区中之島2-1,北区,,,緑道,,,,,,公園・スポーツ,公園,公園・スポーツ/公園,154,881
135.509331,34.69199706,中之島公園,なかのしまこうえん,中之島公園（なかのしまこうえん）,北区中之島1-1、菅原町1,北区,,,風致公園,,,,,,公園・スポーツ,公園,公園・スポーツ/公園,154,792
135.5126222,34.69211892,南天満公園,みなみてんまこうえん,南天満公園（みなみてんまこうえん）,北区天神橋1-1、天満2-1・3-1・4-1,北区,,,近隣公園,,,,,,公園・スポーツ,公園,公園・スポーツ/公園,154,796
135.5045279,34.69473911,西天満若松浜公園,にしてんまわかまつはまこうえん,西天満若松浜公園（にしてんまわかまつはまこうえん）,北区西天満2-1,北区,,,街区公園,,,,,,公園・スポーツ,公園,公園・スポーツ/公園,154,828
135.5146111,34.69409692,滝川公園,たきがわこうえん,滝川公園（たきがわこうえん）,北区天満4-7,北区,,,街区公園,,,,,,公園・スポーツ,公園,公園・スポーツ/公園,154,811
135.5406079,34.68513872,白山公園,はくさんこうえん,白山公園（はくさんこうえん）,城東区中浜3-1,城東区,,,街区公園,,,,,,公園・スポーツ,公園,公園・スポーツ/公園,154,735
135.5426237,34.68417142,中浜中央公園,なかはまちゅうおうこうえん,中浜中央公園（なかはまちゅうおうこうえん）,城東区中浜2-9,城東区,,,街区公園,,,,,,公園・スポーツ,公園,公園・スポーツ/公園,154,737
135.5403465,34.68330308,千間川公園,せんげんがわこうえん,千間川公園（せんげんがわこうえん）,東成区中本1丁目1番・2番,東成区,,,街区公園,,,,,,公園・スポーツ,公園,公園・スポーツ/公園,154,3446
135.5419729,34.68706219,中浜公園,なかはまこうえん,中浜公園（なかはまこうえん）,城東区中浜1-6,城東区,,,街区公園,,,,,,公園・スポーツ,公園,公園・スポーツ/公園,154,736
135.5221778,34.69622808,桜之宮公園,さくらのみやこうえん,桜之宮公園（さくらのみやこうえん）,北区天満1-1、天満橋1-8・2-1,北区,,,総合公園,,,,,,公園・スポーツ,公園,公園・スポーツ/公園,154,794
135.528069,34.69545592,東野田公園,ひがしのだこうえん,東野田公園（ひがしのだこうえん）,都島区東野田町1-4,都島区,,,街区公園,,,,,,公園・スポーツ,公園,公園・スポーツ/公園,154,2940
135.5413921,34.68976714,鴫野西公園,しぎのにしこうえん,鴫野西公園（しぎのにしこうえん）,城東区鴫野西4-18,城東区,,,街区公園,,,,,,公園・スポーツ,公園,公園・スポーツ/公園,154,4422
135.5412473,34.69195014,鴫野公園,しぎのこうえん,鴫野公園（しぎのこうえん）,城東区鴫野西4-11,城東区,,,近隣公園,,,,,,公園・スポーツ,公園,公園・スポーツ/公園,154,4423
135.5367918,34.69123589,鴫野の森公園,しぎののもりこうえん,鴫野の森公園（しぎののもりこうえん）,城東区鴫野西2-1,城東区,,,街区公園,,,,,,公園・スポーツ,公園,公園・スポーツ/公園,154,4424
135.5445142,34.66959992,今里西之口公園,いまざとにしのぐちこうえん,今里西之口公園（いまざとにしのぐちこうえん）,東成区大今里3丁目17番,東成区,,,街区公園,,,,,,公園・スポーツ,公園,公園・スポーツ/公園,154,3391
135.5487237,34.66880347,大今里公園,おおいまざとこうえん,大今里公園（おおいまざとこうえん）,東成区大今里4丁目16番,東成区,,,街区公園,,,,,,公園・スポーツ,公園,公園・スポーツ/公園,154,3396
135.5558923,34.67125892,西深江公園,にしふかえこうえん,西深江公園（にしふかえこうえん）,東成区深江南1丁目7番,東成区,,,街区公園,,,,,,公園・スポーツ,公園,公園・スポーツ/公園,154,3339
135.5503878,34.67125594,大今里ふれあい公園,おおいまざとふれあいこうえん,大今里ふれあい公園（おおいまざとふれあいこうえん）,東成区大今里2丁目35番,東成区,,,街区公園,,,,,,公園・スポーツ,公園,公園・スポーツ/公園,154,3387
135.5583784,34.67072217,南深江公園,みなみふかえこうえん,南深江公園（みなみふかえこうえん）,東成区深江南2丁目9番,東成区,,,街区公園,,,,,,公園・スポーツ,公園,公園・スポーツ/公園,154,3343
135.5591801,34.673906,深江公園,ふかえこうえん,深江公園（ふかえこうえん）,東成区深江北2丁目16番,東成区,,,街区公園,,,,,,公園・スポーツ,公園,公園・スポーツ/公園,154,3357
135.5484643,34.67813611,神路公園,かみじこうえん,神路公園（かみじこうえん）,東成区東中本2丁目12番,東成区,,,近隣公園,,,,,,公園・スポーツ,公園,公園・スポーツ/公園,154,3482
135.5453146,34.67597936,東中本公園,ひがしなかもとこうえん,東中本公園（ひがしなかもとこうえん）,東成区東中本3丁目15番,東成区,,,街区公園,,,,,,公園・スポーツ,公園,公園・スポーツ/公園,154,3491
135.5563032,34.67590583,阪陽公園,はんようこうえん,阪陽公園（はんようこうえん）,東成区深江北1丁目10番,東成区,,,街区公園,,,,,,公園・スポーツ,公園,公園・スポーツ/公園,154,3353
135.5504498,34.68123397,千間川みどり公園,せんげんがわみどりこうえん,千間川みどり公園（せんげんがわみどりこうえん）,城東区東中浜6-12・9-5,城東区,,,街区公園,,,,,,公園・スポーツ,公園,公園・スポーツ/公園,154,749
135.5501857,34.68120922,千間川みどり公園,せんげんがわみどりこうえん,千間川みどり公園（せんげんがわみどりこうえん）,東成区東今里1丁目1番,城東区,,,街区公園,,,,,,公園・スポーツ,公園,公園・スポーツ/公園,154,3458
135.5622618,34.67542639,東深江公園,ひがしふかえこうえん,東深江公園（ひがしふかえこうえん）,東成区深江北3丁目16番,東成区,,,街区公園,,,,,,公園・スポーツ,公園,公園・スポーツ/公園,154,3360
135.5572074,34.681412,永田公園,ながたこうえん,永田公園（ながたこうえん）,城東区永田4-14,城東区,,,街区公園,,,,,,公園・スポーツ,公園,公園・スポーツ/公園,154,744
135.5488888,34.68498875,東中浜公園,ひがしなかはまこうえん,東中浜公園（ひがしなかはまこうえん）,城東区東中浜5-3,城東区,,,街区公園,,,,,,公園・スポーツ,公園,公園・スポーツ/公園,154,748
135.5480574,34.68902628,鴫野東公園,しぎのひがしこうえん,鴫野東公園（しぎのひがしこうえん）,城東区鴫野東3-23,城東区,,,街区公園,,,,,,公園・スポーツ,公園,公園・スポーツ/公園,154,752
135.5565916,34.68868944,専永公園,せんえいこうえん,専永公園（せんえいこうえん）,城東区永田1-4,城東区,,,街区公園,,,,,,公園・スポーツ,公園,公園・スポーツ/公園,154,745
135.5517164,34.68773586,天王田公園,てんのうでんこうえん,天王田公園（てんのうでんこうえん）,城東区東中浜7-1,城東区,,,街区公園,,,,,,公園・スポーツ,公園,公園・スポーツ/公園,154,751
135.5572829,34.68662786,左専道公園,させんどうこうえん,左専道公園（させんどうこうえん）,城東区永田2-12,城東区,,,街区公園,,,,,,公園・スポーツ,公園,公園・スポーツ/公園,154,743
135.5530848,34.68997025,天王田楠根公園,てんのうでんくすねこうえん,天王田楠根公園（てんのうでんくすねこうえん）,城東区天王田4,城東区,,,街区公園,,,,,,公園・スポーツ,公園,公園・スポーツ/公園,154,753
135.5510845,34.69262819,新喜多東公園,しぎたひがしこうえん,新喜多東公園（しぎたひがしこうえん）,城東区新喜多東2-6,城東区,,,街区公園,,,,,,公園・スポーツ,公園,公園・スポーツ/公園,154,762
135.5487513,34.69405886,布屋公園,ぬのやこうえん,布屋公園（ぬのやこうえん）,城東区新喜多東1-14,城東区,,,街区公園,,,,,,公園・スポーツ,公園,公園・スポーツ/公園,154,750
135.5447972,34.69559403,鴫野北公園,しぎのきたこうえん,鴫野北公園（しぎのきたこうえん）,城東区鴫野東1-5,城東区,,,街区公園,,,,,,公園・スポーツ,公園,公園・スポーツ/公園,154,754
135.5489359,34.69517339,新喜多東中央公園,しぎたひがしちゅうおうこうえん,新喜多東中央公園（しぎたひがしちゅうおうこうえん）,城東区新喜多東1-8,城東区,,,街区公園,,,,,,公園・スポーツ,公園,公園・スポーツ/公園,154,764
135.5577854,34.69271092,西放出公園,にしはなてんこうえん,西放出公園（にしはなてんこうえん）,城東区放出西2-15,城東区,,,街区公園,,,,,,公園・スポーツ,公園,公園・スポーツ/公園,154,761
135.55841,34.69142903,放出西三公園,はなてんにしさんこうえん,放出西三公園（はなてんにしさんこうえん）,城東区放出西3-20,城東区,,,街区公園,,,,,,公園・スポーツ,公園,公園・スポーツ/公園,154,763
135.5607189,34.692575,放出公園,はなてんこうえん,放出公園（はなてんこうえん）,鶴見区放出東2-2,鶴見区,,,街区公園,,,,,,公園・スポーツ,公園,公園・スポーツ/公園,154,4186
135.5592778,34.68958617,放出小公園,はなてんしょうこうえん,放出小公園（はなてんしょうこうえん）,鶴見区放出東3-2(高架下),鶴見区,,,街区公園,,,,,,公園・スポーツ,公園,公園・スポーツ/公園,154,4187
135.566319,34.69072808,榎本南公園,えのもとみなみこうえん,榎本南公園（えのもとみなみこうえん）,鶴見区今津中1-9,鶴見区,,,街区公園,,,,,,公園・スポーツ,公園,公園・スポーツ/公園,154,4183
135.5670723,34.69434986,榎本公園,えのもとこうえん,榎本公園（えのもとこうえん）,鶴見区今津北1-6,鶴見区,,,街区公園,,,,,,公園・スポーツ,公園,公園・スポーツ/公園,154,4181
135.5705251,34.69135,今津公園,いまづこうえん,今津公園（いまづこうえん）,鶴見区今津中2-3,鶴見区,,,近隣公園,,,,,,公園・スポーツ,公園,公園・スポーツ/公園,154,4184
135.5754421,34.689694,今津南公園,いまづみなみこうえん,今津南公園（いまづみなみこうえん）,鶴見区今津南3-3,鶴見区,,,街区公園,,,,,,公園・スポーツ,公園,公園・スポーツ/公園,154,4185
135.579308,34.69540014,今津東公園,いまづひがしこうえん,今津東公園（いまづひがしこうえん）,鶴見区今津北4-4,鶴見区,,,街区公園,,,,,,公園・スポーツ,公園,公園・スポーツ/公園,154,4182
135.4261872,34.69948258,中島公園,なかじまこうえん,中島公園（なかじまこうえん）,西淀川区中島1丁目22番,西淀川区,,,地区公園,,,,,,公園・スポーツ,公園,公園・スポーツ/公園,154,19375
135.4321228,34.70583792,中島東公園,なかじまひがしこうえん,中島東公園（なかじまひがしこうえん）,西淀川区中島1丁目3番,西淀川区,,,街区公園,,,,,,公園・スポーツ,公園,公園・スポーツ/公園,154,19376
135.4345671,34.71121211,佃公園,つくだこうえん,佃公園（つくだこうえん）,西淀川区佃5丁目7番,西淀川区,,,街区公園,,,,,,公園・スポーツ,公園,公園・スポーツ/公園,154,19349
135.4413726,34.69812106,福町公園,ふくまちこうえん,福町公園（ふくまちこうえん）,西淀川区福町2丁目4番,西淀川区,,,街区公園,,,,,,公園・スポーツ,公園,公園・スポーツ/公園,154,19369
135.4467187,34.70020636,姫島浜公園,ひめじまはまこうえん,姫島浜公園（ひめじまはまこうえん）,西淀川区姫島3丁目14番,西淀川区,,,街区公園,,,,,,公園・スポーツ,公園,公園・スポーツ/公園,154,19365
135.4453395,34.69822222,福町東公園,ふくまちひがしこうえん,福町東公園（ふくまちひがしこうえん）,西淀川区福町1丁目11番,西淀川区,,,街区公園,,,,,,公園・スポーツ,公園,公園・スポーツ/公園,154,19368
135.4467887,34.70169967,西姫島公園,にしひめじまこうえん,西姫島公園（にしひめじまこうえん）,西淀川区姫島6丁目4番,西淀川区,,,街区公園,,,,,,公園・スポーツ,公園,公園・スポーツ/公園,154,19366
135.44443,34.70256228,福町北公園,ふくまちきたこうえん,福町北公園（ふくまちきたこうえん）,西淀川区福町3丁目3番,西淀川区,,,街区公園,,,,,,公園・スポーツ,公園,公園・スポーツ/公園,154,19371
135.4504222,34.69918864,南姫島公園,みなみひめじまこうえん,南姫島公園（みなみひめじまこうえん）,西淀川区姫島3丁目6番,西淀川区,,,街区公園,,,,,,公園・スポーツ,公園,公園・スポーツ/公園,154,19362
135.4591498,34.70286025,姫島東第一公園,ひめじまひがしだいいちこうえん,姫島東第一公園（ひめじまひがしだいいちこうえん）,西淀川区姫島1丁目1番,西淀川区,,,街区公園,,,,,,公園・スポーツ,公園,公園・スポーツ/公園,154,19360
135.4356963,34.70423981,出来島西公園,できじまにしこうえん,出来島西公園（できじまにしこうえん）,西淀川区出来島3丁目2番,西淀川区,,,街区公園,,,,,,公園・スポーツ,公園,公園・スポーツ/公園,154,19377
135.4381245,34.70493733,大和田川公園,おおおわだがわこうえん,大和田川公園（おおおわだがわこうえん）,西淀川区出来島2丁目1番,西淀川区,,,街区公園,,,,,,公園・スポーツ,公園,公園・スポーツ/公園,154,19379
135.4437744,34.70558019,大和田中央公園,おおわだちゅうおうこうえん,大和田中央公園（おおわだちゅうおうこうえん）,西淀川区大和田4丁目4番,西淀川区,,,街区公園,,,,,,公園・スポーツ,公園,公園・スポーツ/公園,154,19356
135.4409319,34.70894286,出来島公園,できじまこうえん,出来島公園（できじまこうえん）,西淀川区出来島1丁目10番,西淀川区,,,街区公園,,,,,,公園・スポーツ,公園,公園・スポーツ/公園,154,19378
135.4437077,34.70847503,大和田北公園,おおわだきたこうえん,大和田北公園（おおわだきたこうえん）,西淀川区大和田5丁目20番,西淀川区,,,街区公園,,,,,,公園・スポーツ,公園,公園・スポーツ/公園,154,19354
135.4519819,34.70657308,西淀公園,にしよどこうえん,西淀公園（にしよどこうえん）,西淀川区大和田1丁目1番,西淀川区,,,街区公園,,,,,,公園・スポーツ,公園,公園・スポーツ/公園,154,19355
135.4525323,34.70429519,姫島公園,ひめじまこうえん,姫島公園（ひめじまこうえん）,西淀川区姫島4丁目14番,西淀川区,,,街区公園,,,,,,公園・スポーツ,公園,公園・スポーツ/公園,154,19361
135.4496056,34.70444992,北姫島公園,きたひめじまこうえん,北姫島公園（きたひめじまこうえん）,西淀川区姫島4丁目21番,西淀川区,,,街区公園,,,,,,公園・スポーツ,公園,公園・スポーツ/公園,154,19364
135.4592677,34.70623486,姫之里公園,ひめのさとこうえん,姫之里公園（ひめのさとこうえん）,西淀川区姫里2丁目7番,西淀川区,,,街区公園,,,,,,公園・スポーツ,公園,公園・スポーツ/公園,154,19358
135.4557656,34.70633603,上町公園,うえまちこうえん,上町公園（うえまちこうえん）,西淀川区姫里3丁目7番,西淀川区,,,街区公園,,,,,,公園・スポーツ,公園,公園・スポーツ/公園,154,19359
135.4557184,34.70529292,東姫島公園,ひがしひめじまこうえん,東姫島公園（ひがしひめじまこうえん）,西淀川区姫島4丁目4番,西淀川区,,,街区公園,,,,,,公園・スポーツ,公園,公園・スポーツ/公園,154,19363
135.4522649,34.711029,千舟公園,ちふねこうえん,千舟公園（ちふねこうえん）,西淀川区千舟2丁目8番,西淀川区,,,街区公園,,,,,,公園・スポーツ,公園,公園・スポーツ/公園,154,19357
135.4620226,34.7112675,野里北公園,のざときたこうえん,野里北公園（のざときたこうえん）,西淀川区野里2丁目22番,西淀川区,,,街区公園,,,,,,公園・スポーツ,公園,公園・スポーツ/公園,154,19339
135.4732167,34.69995783,海老江上公園,えびえかみこうえん,海老江上公園（えびえかみこうえん）,福島区海老江3-12,福島区,,,街区公園,,,,,,公園・スポーツ,公園,公園・スポーツ/公園,154,3580
135.4706141,34.69904683,海老江中公園,えびえなかこうえん,海老江中公園（えびえなかこうえん）,福島区海老江6-4,福島区,,,街区公園,,,,,,公園・スポーツ,公園,公園・スポーツ/公園,154,3581
135.4691359,34.69853094,海老江西公園,えびえにしこうえん,海老江西公園（えびえにしこうえん）,福島区海老江8-2,福島区,,,街区公園,,,,,,公園・スポーツ,公園,公園・スポーツ/公園,154,3583
135.4813831,34.69712806,鷺洲中公園,さぎすなかこうえん,鷺洲中公園（さぎすなかこうえん）,福島区鷺洲2-4,福島区,,,街区公園,,,,,,公園・スポーツ,公園,公園・スポーツ/公園,154,3584
135.4778938,34.69922814,鷺洲上公園,さぎすかみこうえん,鷺洲上公園（さぎすかみこうえん）,福島区鷺洲5-6,福島区,,,街区公園,,,,,,公園・スポーツ,公園,公園・スポーツ/公園,154,3585
135.4886891,34.69951692,上福島東公園,かみふくしまひがしこうえん,上福島東公園（かみふくしまひがしこうえん）,福島区福島6-7,福島区,,,街区公園,,,,,,公園・スポーツ,公園,公園・スポーツ/公園,154,3591
135.4848468,34.69833597,上福島公園,かみふくしまこうえん,上福島公園（かみふくしまこうえん）,福島区福島7-10,福島区,,,街区公園,,,,,,公園・スポーツ,公園,公園・スポーツ/公園,154,3592
135.4811641,34.70290311,大淀中5公園,おおよどなか５こうえん,大淀中5公園（おおよどなか５こうえん）,北区大淀中5-8,北区,,,街区公園,,,,,,公園・スポーツ,公園,公園・スポーツ/公園,154,802
135.4794387,34.70066683,鷺洲北公園,さぎすきたこうえん,鷺洲北公園（さぎすきたこうえん）,福島区鷺洲5-7,福島区,,,街区公園,,,,,,公園・スポーツ,公園,公園・スポーツ/公園,154,3586
135.4827218,34.70178092,浦江公園,うらえこうえん,浦江公園（うらえこうえん）,北区大淀南3-3,北区,,,近隣公園,,,,,,公園・スポーツ,公園,公園・スポーツ/公園,154,797
135.4879082,34.70347508,大淀南公園,おおよどみなみこうえん,大淀南公園（おおよどみなみこうえん）,北区大淀南1-8,北区,,,街区公園,,,,,,公園・スポーツ,公園,公園・スポーツ/公園,154,805
135.4859887,34.70078611,上福島北公園,かみふくしまきたこうえん,上福島北公園（かみふくしまきたこうえん）,福島区福島7-23、北区大淀南2-4,福島区,,,街区公園,,,,,,公園・スポーツ,公園,公園・スポーツ/公園,154,3593
135.4653744,34.70650072,花川西公園,はなかわにしこうえん,花川西公園（はなかわにしこうえん）,西淀川区花川2丁目3番,西淀川区,,,街区公園,,,,,,公園・スポーツ,公園,公園・スポーツ/公園,154,19335
135.4635931,34.70876858,野里公園,のざとこうえん,野里公園（のざとこうえん）,西淀川区野里1丁目9番,西淀川区,,,街区公園,,,,,,公園・スポーツ,公園,公園・スポーツ/公園,154,19337
135.4695947,34.70979097,花川公園,はなかわこうえん,花川公園（はなかわこうえん）,西淀川区柏里1丁目9番,西淀川区,,,街区公園,,,,,,公園・スポーツ,公園,公園・スポーツ/公園,154,19332
135.4784281,34.70483614,大淀西公園,おおよどにしこうえん,大淀西公園（おおよどにしこうえん）,北区大淀北2-1,北区,,,街区公園,,,,,,公園・スポーツ,公園,公園・スポーツ/公園,154,804
135.4886918,34.70496686,大淀中公園,おおよどなかこうえん,大淀中公園（おおよどなかこうえん）,北区大淀中1-9,北区,,,街区公園,,,,,,公園・スポーツ,公園,公園・スポーツ/公園,154,801
135.486711,34.70800314,大淀北公園,おおよどきたこうえん,大淀北公園（おおよどきたこうえん）,北区大淀北1-4,北区,,,街区公園,,,,,,公園・スポーツ,公園,公園・スポーツ/公園,154,803
135.4414831,34.71164558,佃中公園,つくだなかこうえん,佃中公園（つくだなかこうえん）,西淀川区佃3丁目9番,西淀川区,,,街区公園,,,,,,公園・スポーツ,公園,公園・スポーツ/公園,154,19353
135.448719,34.71357364,佃ふれあい公園,つくだふれあいこうえん,佃ふれあい公園（つくだふれあいこうえん）,西淀川区佃2丁目1番,西淀川区,,,街区公園,,,,,,公園・スポーツ,公園,公園・スポーツ/公園,154,19350
135.4471094,34.71427144,新佃公園,しんつくだこうえん,新佃公園（しんつくだこうえん）,西淀川区佃2丁目6番,西淀川区,,,街区公園,,,,,,公園・スポーツ,公園,公園・スポーツ/公園,154,19351
135.4610686,34.71365561,北之町公園,きたのまちこうえん,北之町公園（きたのまちこうえん）,西淀川区歌島3丁目7番,西淀川区,,,街区公園,,,,,,公園・スポーツ,公園,公園・スポーツ/公園,154,19340
135.4553021,34.71687283,御幣島公園,みてじまこうえん,御幣島公園（みてじまこうえん）,西淀川区御幣島4丁目9番,西淀川区,,,街区公園,,,,,,公園・スポーツ,公園,公園・スポーツ/公園,154,19344
135.4579296,34.71740928,御幣島東公園,みてじまひがしこうえん,御幣島東公園（みてじまひがしこうえん）,西淀川区御幣島3丁目7番,西淀川区,,,街区公園,,,,,,公園・スポーツ,公園,公園・スポーツ/公園,154,19345
135.4483585,34.71881553,東佃公園,ひがしつくだこうえん,東佃公園（ひがしつくだこうえん）,西淀川区佃1丁目18番,西淀川区,,,街区公園,,,,,,公園・スポーツ,公園,公園・スポーツ/公園,154,19352
135.4578151,34.71977247,歌島公園,うたじまこうえん,歌島公園（うたじまこうえん）,西淀川区御幣島5丁目7番,西淀川区,,,街区公園,,,,,,公園・スポーツ,公園,公園・スポーツ/公園,154,19343
135.4521544,34.72273436,竹島南公園,たけしまみなみこうえん,竹島南公園（たけしまみなみこうえん）,西淀川区竹島2丁目2番、4丁目1番,西淀川区,,,街区公園,,,,,,公園・スポーツ,公園,公園・スポーツ/公園,154,19348
135.4606219,34.72613106,加島中住宅前公園,かしまなかじゅうたくまえこうえん,加島中住宅前公園（かしまなかじゅうたくまえこうえん）,淀川区加島1-51,淀川区,06-6309-0008,,街区公園,,,,,,公園・スポーツ,公園,公園・スポーツ/公園,154,2810
135.4591969,34.724839,加島南公園,かしまみなみこうえん,加島南公園（かしまみなみこうえん）,淀川区加島1-31,淀川区,06-6309-0008,,街区公園,,,,,,公園・スポーツ,公園,公園・スポーツ/公園,154,2811
135.4681091,34.71249478,柏里公園,かしわざとこうえん,柏里公園（かしわざとこうえん）,西淀川区柏里3丁目1番,西淀川区,,,街区公園,,,,,,公園・スポーツ,公園,公園・スポーツ/公園,154,19333
135.4658029,34.71201444,柏里西公園,かしわざとにしこうえん,柏里西公園（かしわざとにしこうえん）,西淀川区柏里3丁目7番,西淀川区,,,街区公園,,,,,,公園・スポーツ,公園,公園・スポーツ/公園,154,19334
135.473883,34.71308886,新北野公園,しんきたのこうえん,新北野公園（しんきたのこうえん）,淀川区新北野3-14,淀川区,06-6309-0008,,街区公園,,,,,,公園・スポーツ,公園,公園・スポーツ/公園,154,2801
135.4712811,34.71167217,塚本南公園,つかもとみなみこうえん,塚本南公園（つかもとみなみこうえん）,淀川区塚本1-18,淀川区,06-6309-0008,,街区公園,,,,,,公園・スポーツ,公園,公園・スポーツ/公園,154,2802
135.4681583,34.71575603,塚本公園,つかもとこうえん,塚本公園（つかもとこうえん）,淀川区塚本4-15,淀川区,06-6309-0008,,街区公園,,,,,,公園・スポーツ,公園,公園・スポーツ/公園,154,2803
135.4636523,34.71629578,歌島三角公園,うたじまさんかくこうえん,歌島三角公園（うたじまさんかくこうえん）,西淀川区歌島1丁目20番,西淀川区,,,街区公園,,,,,,公園・スポーツ,公園,公園・スポーツ/公園,154,19341
135.478389,34.71375786,淀川公園,よどがわこうえん,淀川公園（よどがわこうえん）,淀川区新北野1～3,淀川区,06-6309-0008,,街区公園,,,,,,公園・スポーツ,公園,公園・スポーツ/公園,154,2800
135.4777388,34.71734689,十三公園,じゅうそうこうえん,十三公園（じゅうそうこうえん）,淀川区十三元今里1-1,淀川区,06-6309-0008,,地区公園,,,,,,公園・スポーツ,公園,公園・スポーツ/公園,154,2807
135.4664362,34.71940586,田川西公園,たがわにしこうえん,田川西公園（たがわにしこうえん）,淀川区田川3-6,淀川区,06-6309-0008,,街区公園,,,,,,公園・スポーツ,公園,公園・スポーツ/公園,154,2805
135.462858,34.72017489,田川公園,たがわこうえん,田川公園（たがわこうえん）,淀川区田川3-11,淀川区,06-6309-0008,,近隣公園,,,,,,公園・スポーツ,公園,公園・スポーツ/公園,154,2806
135.473881,34.72104208,田川中公園,たがわなかこうえん,田川中公園（たがわなかこうえん）,淀川区田川2-2,淀川区,06-6309-0008,,街区公園,,,,,,公園・スポーツ,公園,公園・スポーツ/公園,154,2804
135.4637251,34.72422508,三津屋中央公園,みつやちゅうおうこうえん,三津屋中央公園（みつやちゅうおうこうえん）,淀川区三津屋南3-21,淀川区,06-6309-0008,,近隣公園,,,,,,公園・スポーツ,公園,公園・スポーツ/公園,154,2822
135.4715533,34.72297211,田川北公園,たがわきたこうえん,田川北公園（たがわきたこうえん）,淀川区田川北2-5,淀川区,06-6309-0008,,街区公園,,,,,,公園・スポーツ,公園,公園・スポーツ/公園,154,2797
135.4755108,34.72318108,田川東公園,たがわひがしこうえん,田川東公園（たがわひがしこうえん）,淀川区十三元今里3-4,淀川区,06-6309-0008,,街区公園,,,,,,公園・スポーツ,公園,公園・スポーツ/公園,154,2808
135.4697921,34.72596897,三津屋公園,みつやこうえん,三津屋公園（みつやこうえん）,淀川区三津屋南2-20,淀川区,06-6309-0008,,街区公園,,,,,,公園・スポーツ,公園,公園・スポーツ/公園,154,2821
135.4841811,34.72043108,十三東公園,じゅうそうひがしこうえん,十三東公園（じゅうそうひがしこうえん）,淀川区十三東2-6,淀川区,06-6309-0008,,街区公園,,,,,,公園・スポーツ,公園,公園・スポーツ/公園,154,2799
135.4887888,34.72458906,木川西公園,きかわにしこうえん,木川西公園（きかわにしこうえん）,淀川区木川西2-17,淀川区,06-6309-0008,,街区公園,,,,,,公園・スポーツ,公園,公園・スポーツ/公園,154,2795
135.4827467,34.72612808,野中南公園,のなかみなみこうえん,野中南公園（のなかみなみこうえん）,淀川区野中南2-1,淀川区,06-6309-0008,,近隣公園,,,,,,公園・スポーツ,公園,公園・スポーツ/公園,154,2798
135.4531939,34.72668514,竹島公園,たけしまこうえん,竹島公園（たけしまこうえん）,西淀川区竹島3丁目7番,西淀川区,,,街区公園,,,,,,公園・スポーツ,公園,公園・スポーツ/公園,154,19346
135.4488921,34.72698747,竹島西公園,たけしまにしこうえん,竹島西公園（たけしまにしこうえん）,西淀川区竹島5丁目5番,西淀川区,,,街区公園,,,,,,公園・スポーツ,公園,公園・スポーツ/公園,154,19347
135.4591309,34.72678889,新加島公園,しんかしまこうえん,新加島公園（しんかしまこうえん）,淀川区加島1-41,淀川区,06-6309-0008,,街区公園,,,,,,公園・スポーツ,公園,公園・スポーツ/公園,154,2809
135.4597467,34.72863906,加島中央公園,かしまちゅうおうこうえん,加島中央公園（かしまちゅうおうこうえん）,淀川区加島1-58,淀川区,06-6309-0008,,近隣公園,,,,,,公園・スポーツ,公園,公園・スポーツ/公園,154,2812
135.4547691,34.73007797,加島中公園,かしまなかこうえん,加島中公園（かしまなかこうえん）,淀川区加島3-9,淀川区,06-6309-0008,,街区公園,,,,,,公園・スポーツ,公園,公園・スポーツ/公園,154,2814
135.4522689,34.73201406,加島西公園,かしまにしこうえん,加島西公園（かしまにしこうえん）,淀川区加島4-16,淀川区,06-6309-0008,,街区公園,,,,,,公園・スポーツ,公園,公園・スポーツ/公園,154,2815
135.4555722,34.73176083,加島北公園,かしまきたこうえん,加島北公園（かしまきたこうえん）,淀川区加島4-7,淀川区,06-6309-0008,,街区公園,,,,,,公園・スポーツ,公園,公園・スポーツ/公園,154,2816
135.4584693,34.73073908,加島今之町公園,かしまいまのまちこうえん,加島今之町公園（かしまいまのまちこうえん）,淀川区加島2-7,淀川区,06-6309-0008,,街区公園,,,,,,公園・スポーツ,公園,公園・スポーツ/公園,154,2813
135.4739363,34.73006911,三津屋東公園,みつやひがしこうえん,三津屋東公園（みつやひがしこうえん）,淀川区三津屋北1-2,淀川区,06-6309-0008,,街区公園,,,,,,公園・スポーツ,公園,公園・スポーツ/公園,154,2817
135.4787468,34.72833303,野中北公園,のなかきたこうえん,野中北公園（のなかきたこうえん）,淀川区野中北2-4,淀川区,06-6309-0008,,街区公園,,,,,,公園・スポーツ,公園,公園・スポーツ/公園,154,2820
135.4889828,34.72693617,木川公園,きかわこうえん,木川公園（きかわこうえん）,淀川区木川西3-7,淀川区,06-6309-0008,,街区公園,,,,,,公園・スポーツ,公園,公園・スポーツ/公園,154,2796
135.486267,34.73198083,三国本町公園,みくにほんまちこうえん,三国本町公園（みくにほんまちこうえん）,淀川区三国本町1-12,淀川区,06-6309-0008,,近隣公園,,,,,,公園・スポーツ,公園,公園・スポーツ/公園,154,2787
135.4798247,34.73407783,新高公園,にいたかこうえん,新高公園（にいたかこうえん）,淀川区新高4-6,淀川区,06-6309-0008,,街区公園,,,,,,公園・スポーツ,公園,公園・スポーツ/公園,154,2818
135.4781808,34.73577208,新高中央公園,にいたかちゅうおうこうえん,新高中央公園（にいたかちゅうおうこうえん）,淀川区新高4-15,淀川区,06-6309-0008,,近隣公園,,,,,,公園・スポーツ,公園,公園・スポーツ/公園,154,2819
135.4882363,34.73532806,三国中公園,みくになかこうえん,三国中公園（みくになかこうえん）,淀川区三国本町2-3,淀川区,06-6309-0008,,街区公園,,,,,,公園・スポーツ,公園,公園・スポーツ/公園,154,2788
135.4841919,34.73729392,三国西公園,みくににしこうえん,三国西公園（みくににしこうえん）,淀川区三国本町3-30,淀川区,06-6309-0008,,街区公園,,,,,,公園・スポーツ,公園,公園・スポーツ/公園,154,2789
135.4865722,34.73966689,三国公園,みくにこうえん,三国公園（みくにこうえん）,淀川区西三国3-18,淀川区,06-6309-0008,,街区公園,,,,,,公園・スポーツ,公園,公園・スポーツ/公園,154,2790
135.4911192,34.69760294,西梅田公園,にしうめだこうえん,西梅田公園（にしうめだこうえん）,北区梅田2-6,北区,,,街区公園,,,,,,公園・スポーツ,公園,公園・スポーツ/公園,154,826
135.5080307,34.69855792,西天満公園,にしてんまこうえん,西天満公園（にしてんまこうえん）,北区西天満5-7,北区,,,街区公園,,,,,,公園・スポーツ,公園,公園・スポーツ/公園,154,827
135.5088783,34.70391117,扇町公園,おうぎまちこうえん,扇町公園（おうぎまちこうえん）,北区扇町1-1,北区,,,地区公園,,,,,,公園・スポーツ,公園,公園・スポーツ/公園,154,793
135.5070221,34.70141386,野崎公園,のざきこうえん,野崎公園（のざきこうえん）,北区野崎町2,北区,,,街区公園,,,,,,公園・スポーツ,公園,公園・スポーツ/公園,154,829
135.5142217,34.70097186,与力町公園,よりきちょうこうえん,与力町公園（よりきちょうこうえん）,北区与力町5,北区,,,街区公園,,,,,,公園・スポーツ,公園,公園・スポーツ/公園,154,835
135.4914218,34.70611706,中津南公園,なかつみなみこうえん,中津南公園（なかつみなみこうえん）,北区中津5-3,北区,,,街区公園,,,,,,公園・スポーツ,公園,公園・スポーツ/公園,154,821
135.4932328,34.71014692,中津中央公園,なかつちゅうおうこうえん,中津中央公園（なかつちゅうおうこうえん）,北区中津3-4,北区,,,街区公園,,,,,,公園・スポーツ,公園,公園・スポーツ/公園,154,819
135.4992782,34.71048917,豊崎南公園,とよさきみなみこうえん,豊崎南公園（とよさきみなみこうえん）,北区豊崎3-7,北区,,,街区公園,,,,,,公園・スポーツ,公園,公園・スポーツ/公園,154,817
135.5087671,34.70725803,黒崎町公園,くろさきちょうこうえん,黒崎町公園（くろさきちょうこうえん）,北区黒崎町5,北区,,,街区公園,,,,,,公園・スポーツ,公園,公園・スポーツ/公園,154,808
135.5076278,34.70965583,浮田公園,うきたこうえん,浮田公園（うきたこうえん）,北区浮田2-5,北区,,,街区公園,,,,,,公園・スポーツ,公園,公園・スポーツ/公園,154,798
135.5046782,34.70796917,済美公園,せいびこうえん,済美公園（せいびこうえん）,北区中崎西1-7,北区,,,街区公園,,,,,,公園・スポーツ,公園,公園・スポーツ/公園,154,810
135.5145498,34.70879183,菅北公園,かんぼくこうえん,菅北公園（かんぼくこうえん）,北区菅栄町4,北区,,,街区公園,,,,,,公園・スポーツ,公園,公園・スポーツ/公園,154,807
135.5148388,34.71026394,国分寺公園,こくぶんじこうえん,国分寺公園（こくぶんじこうえん）,北区国分寺1-5,北区,,,街区公園,,,,,,公園・スポーツ,公園,公園・スポーツ/公園,154,809
135.518572,34.70060589,東天満公園,ひがしてんまこうえん,東天満公園（ひがしてんまこうえん）,北区天満橋1-7,北区,,,街区公園,,,,,,公園・スポーツ,公園,公園・スポーツ/公園,154,830
135.5243169,34.70222808,中野南公園,なかのみなみこうえん,中野南公園（なかのみなみこうえん）,都島区中野町3-1,都島区,,,街区公園,,,,,,公園・スポーツ,公園,公園・スポーツ/公園,154,2932
135.5311749,34.69771411,京橋公園,きょうばしこうえん,京橋公園（きょうばしこうえん）,都島区東野田町2-6,都島区,,,街区公園,,,,,,公園・スポーツ,公園,公園・スポーツ/公園,154,1722
135.5422471,34.69840614,蒲生南公園,がもうみなみこうえん,蒲生南公園（がもうみなみこうえん）,城東区蒲生3-2,城東区,,,街区公園,,,,,,公園・スポーツ,公園,公園・スポーツ/公園,154,727
135.5394282,34.69720006,新喜多公園,しぎたこうえん,新喜多公園（しぎたこうえん）,城東区新喜多1-9,城東区,,,街区公園,,,,,,公園・スポーツ,公園,公園・スポーツ/公園,154,728
135.5352328,34.70050583,桜之宮東公園,さくらのみやひがしこうえん,桜之宮東公園（さくらのみやひがしこうえん）,都島区東野田町5-10,都島区,,,街区公園,,,,,,公園・スポーツ,公園,公園・スポーツ/公園,154,2927
135.5416751,34.70078094,蒲生中公園,がもうなかこうえん,蒲生中公園（がもうなかこうえん）,城東区中央1-3,城東区,,,街区公園,,,,,,公園・スポーツ,公園,公園・スポーツ/公園,154,729
135.5408625,34.70301572,野江公園,のえこうえん,野江公園（のえこうえん）,城東区野江1-15,城東区,,,街区公園,,,,,,公園・スポーツ,公園,公園・スポーツ/公園,154,759
135.5395528,34.70351717,榎並公園,えなみこうえん,榎並公園（えなみこうえん）,城東区野江2-15,城東区,,,街区公園,,,,,,公園・スポーツ,公園,公園・スポーツ/公園,154,760
135.5215667,34.70588111,中野公園,なかのこうえん,中野公園（なかのこうえん）,都島区中野町5-7,都島区,,,街区公園,,,,,,公園・スポーツ,公園,公園・スポーツ/公園,154,2931
135.5225187,34.70739686,都島中央公園,みやこじまちゅうおうこうえん,都島中央公園（みやこじまちゅうおうこうえん）,都島区中野町5-15,都島区,,,近隣公園,,,,,,公園・スポーツ,公園,公園・スポーツ/公園,154,2934
135.5257277,34.70580283,都島南通公園,みやこじまみなみどおりこうえん,都島南通公園（みやこじまみなみどおりこうえん）,都島区都島南通1-24,都島区,,,街区公園,,,,,,公園・スポーツ,公園,公園・スポーツ/公園,154,2935
135.5163857,34.71129408,鶴満寺公園,かくまんじこうえん,鶴満寺公園（かくまんじこうえん）,北区長柄東1-3,北区,,,街区公園,,,,,,公園・スポーツ,公園,公園・スポーツ/公園,154,806
135.5220282,34.71038911,かすがえ公園,かすがえこうえん,かすがえ公園（かすがえこうえん）,都島区都島本通1-19,都島区,,,街区公園,,,,,,公園・スポーツ,公園,公園・スポーツ/公園,154,2923
135.5240063,34.71055306,善源寺公園,ぜんげんじこうえん,善源寺公園（ぜんげんじこうえん）,都島区善源寺町1-4,都島区,,,街区公園,,,,,,公園・スポーツ,公園,公園・スポーツ/公園,154,2929
135.5277611,34.71086689,都島北一公園,みやこじまきたいちこうえん,都島北一公園（みやこじまきたいちこうえん）,都島区都島北通1-13,都島区,,,街区公園,,,,,,公園・スポーツ,公園,公園・スポーツ/公園,154,2936
135.528358,34.708372,敷島公園,しきしまこうえん,敷島公園（しきしまこうえん）,都島区都島本通3-25,都島区,,,街区公園,,,,,,公園・スポーツ,公園,公園・スポーツ/公園,154,2942
135.5306063,34.70536417,都島公園,みやこじまこうえん,都島公園（みやこじまこうえん）,都島区都島中通1-10・2-21,都島区,,,近隣公園,,,,,,公園・スポーツ,公園,公園・スポーツ/公園,154,2933
135.5322563,34.70636889,東都島公園,ひがしみやこじまこうえん,東都島公園（ひがしみやこじまこうえん）,都島区都島本通4-6,都島区,,,街区公園,,,,,,公園・スポーツ,公園,公園・スポーツ/公園,154,2938
135.5414689,34.70499861,成育西公園,せいいくにしこうえん,成育西公園（せいいくにしこうえん）,城東区成育1-1,城東区,,,街区公園,,,,,,公園・スポーツ,公園,公園・スポーツ/公園,154,741
135.5415248,34.704211,成育南公園,せいいくみなみこうえん,成育南公園（せいいくみなみこうえん）,城東区中央2-2,城東区,,,街区公園,,,,,,公園・スポーツ,公園,公園・スポーツ/公園,154,742
135.5335943,34.70946089,都島北通公園,みやこじまきたどおりこうえん,都島北通公園（みやこじまきたどおりこうえん）,都島区都島北通2-4,都島区,,,街区公園,,,,,,公園・スポーツ,公園,公園・スポーツ/公園,154,2937
135.4995113,34.71389189,豊崎中公園,とよさきなかこうえん,豊崎中公園（とよさきなかこうえん）,北区豊崎7-1,北区,,,街区公園,,,,,,公園・スポーツ,公園,公園・スポーツ/公園,154,814
135.4987608,34.71155808,豊崎西公園,とよさきにしこうえん,豊崎西公園（とよさきにしこうえん）,北区豊崎5-5,北区,,,街区公園,,,,,,公園・スポーツ,公園,公園・スポーツ/公園,154,815
135.5017111,34.71261883,豊崎東公園,とよさきひがしこうえん,豊崎東公園（とよさきひがしこうえん）,北区豊崎4-7,北区,,,街区公園,,,,,,公園・スポーツ,公園,公園・スポーツ/公園,154,816
135.4966082,34.71486697,中津公園,なかつこうえん,中津公園（なかつこうえん）,北区中津2-8,北区,,,近隣公園,,,,,,公園・スポーツ,公園,公園・スポーツ/公園,154,818
135.4980473,34.71369694,中津東公園,なかつひがしこうえん,中津東公園（なかつひがしこうえん）,北区中津2-1,北区,,,街区公園,,,,,,公園・スポーツ,公園,公園・スポーツ/公園,154,820
135.5021308,34.71645306,豊崎北公園,とよさききたこうえん,豊崎北公園（とよさききたこうえん）,北区豊崎6-13,北区,,,街区公園,,,,,,公園・スポーツ,公園,公園・スポーツ/公園,154,813
135.5082833,34.71332811,本庄川崎公園,ほんじょうかわさきこうえん,本庄川崎公園（ほんじょうかわさきこうえん）,北区本庄東2-6,北区,,,街区公園,,,,,,公園・スポーツ,公園,公園・スポーツ/公園,154,832
135.5065363,34.711811,本庄南公園,ほんじょうみなみこうえん,本庄南公園（ほんじょうみなみこうえん）,北区本庄西1-4,北区,,,街区公園,,,,,,公園・スポーツ,公園,公園・スポーツ/公園,154,834
135.5141671,34.71468606,長柄西公園,ながらにしこうえん,長柄西公園（ながらにしこうえん）,北区長柄西1-7,北区,,,街区公園,,,,,,公園・スポーツ,公園,公園・スポーツ/公園,154,824
135.5041722,34.715581,本庄公園,ほんじょうこうえん,本庄公園（ほんじょうこうえん）,北区本庄西3-11,北区,,,近隣公園,,,,,,公園・スポーツ,公園,公園・スポーツ/公園,154,831
135.5091248,34.71664986,本庄小公園,ほんじょうしょうこうえん,本庄小公園（ほんじょうしょうこうえん）,北区本庄東3-4,北区,,,街区公園,,,,,,公園・スポーツ,公園,公園・スポーツ/公園,154,833
135.5137312,34.71740597,長柄公園,ながらこうえん,長柄公園（ながらこうえん）,北区長柄西2-7,北区,,,街区公園,,,,,,公園・スポーツ,公園,公園・スポーツ/公園,154,823
135.4931169,34.72373592,木川南公園,きかわみなみこうえん,木川南公園（きかわみなみこうえん）,淀川区木川東1-4,淀川区,06-6309-0008,,街区公園,,,,,,公園・スポーツ,公園,公園・スポーツ/公園,154,2793
135.518958,34.71209197,長柄東公園,ながらひがしこうえん,長柄東公園（ながらひがしこうえん）,北区長柄東1-6,北区,,,近隣公園,,,,,,公園・スポーツ,公園,公園・スポーツ/公園,154,825
135.5203062,34.714778,毛馬公園,けまこうえん,毛馬公園（けまこうえん）,北区長柄東1-6・2-9,北区,,,地区公園,,,,,,公園・スポーツ,公園,公園・スポーツ/公園,154,1145
135.5234188,34.71198897,善源寺楠公園,ぜんげんじくすこうえん,善源寺楠公園（ぜんげんじくすこうえん）,都島区善源寺町1-11,都島区,,,街区公園,,,,,,公園・スポーツ,公園,公園・スポーツ/公園,154,2930
135.522258,34.71531111,桜之宮公園,さくらのみやこうえん,桜之宮公園（さくらのみやこうえん）,都島区網島町2～友渕町1-1,都島区,,,総合公園,,,,,,公園・スポーツ,公園,公園・スポーツ/公園,154,34
135.5363081,34.71317194,内代公園,うちんだいこうえん,内代公園（うちんだいこうえん）,都島区内代町3-3,都島区,,,街区公園,,,,,,公園・スポーツ,公園,公園・スポーツ/公園,154,2941
135.5395831,34.71295003,高殿南三公園,たかどのみなみさんこうえん,高殿南三公園（たかどのみなみさんこうえん）,旭区高殿3丁目5,旭区,,,街区公園,,,,,,公園・スポーツ,公園,公園・スポーツ/公園,154,2766
135.5329078,34.71546914,高倉中央公園,たかくらちゅうおうこうえん,高倉中央公園（たかくらちゅうおうこうえん）,都島区御幸町2-4,都島区,,,街区公園,,,,,,公園・スポーツ,公園,公園・スポーツ/公園,154,2926
135.5407561,34.71738308,旭公園,あさひこうえん,旭公園（あさひこうえん）,旭区高殿5丁目3,旭区,,,地区公園,,,,,,公園・スポーツ,公園,公園・スポーツ/公園,154,1883
135.5370418,34.71649183,高殿南公園,たかどのみなみこうえん,高殿南公園（たかどのみなみこうえん）,旭区高殿2丁目4,旭区,,,街区公園,,,,,,公園・スポーツ,公園,公園・スポーツ/公園,154,2764
135.5415888,34.71511397,高殿南四公園,たかどのみなみよんこうえん,高殿南四公園（たかどのみなみよんこうえん）,旭区高殿4丁目7,旭区,,,街区公園,,,,,,公園・スポーツ,公園,公園・スポーツ/公園,154,2767
135.519619,34.72052192,毛馬西公園,けまにしこうえん,毛馬西公園（けまにしこうえん）,都島区毛馬町3-1,都島区,,,街区公園,,,,,,公園・スポーツ,公園,公園・スポーツ/公園,154,2943
135.5279672,34.72200008,東毛馬公園,ひがしけまこうえん,東毛馬公園（ひがしけまこうえん）,都島区毛馬町2-5,都島区,,,街区公園,,,,,,公園・スポーツ,公園,公園・スポーツ/公園,154,2939
135.5238332,34.72141089,毛馬南公園,けまみなみこうえん,毛馬南公園（けまみなみこうえん）,都島区毛馬町2-11,都島区,,,緑道,,,,,,公園・スポーツ,公園,公園・スポーツ/公園,154,2946
135.5295357,34.72128611,友渕公園,ともぶちこうえん,友渕公園（ともぶちこうえん）,都島区友渕町3-9,都島区,,,街区公園,,,,,,公園・スポーツ,公園,公園・スポーツ/公園,154,2948
135.5248081,34.71930581,友渕中央公園,ともぶちちゅうおうこうえん,友渕中央公園（ともぶちちゅうおうこうえん）,都島区友渕町1-3,都島区,,,近隣公園,,,,,,公園・スポーツ,公園,公園・スポーツ/公園,154,2949
135.5215748,34.72253908,毛馬中央公園,けまちゅうおうこうえん,毛馬中央公園（けまちゅうおうこうえん）,都島区毛馬町4-1,都島区,,,街区公園,,,,,,公園・スポーツ,公園,公園・スポーツ/公園,154,2944
135.5206471,34.72467508,毛馬北公園,けまきたこうえん,毛馬北公園（けまきたこうえん）,都島区毛馬町4-13,都島区,,,街区公園,,,,,,公園・スポーツ,公園,公園・スポーツ/公園,154,2947
135.5250419,34.72524397,毛馬東公園,けまひがしこうえん,毛馬東公園（けまひがしこうえん）,都島区毛馬町5-5,都島区,,,街区公園,,,,,,公園・スポーツ,公園,公園・スポーツ/公園,154,2945
135.53465,34.71894217,高殿西公園,たかどのにしこうえん,高殿西公園（たかどのにしこうえん）,旭区高殿1丁目3,旭区,,,街区公園,,,,,,公園・スポーツ,公園,公園・スポーツ/公園,154,2755
135.5355468,34.72216694,生江西公園,いくえにしこうえん,生江西公園（いくえにしこうえん）,旭区生江1丁目2,旭区,,,街区公園,,,,,,公園・スポーツ,公園,公園・スポーツ/公園,154,2774
135.5329253,34.72091692,西浪橋公園,にしなみばしこうえん,西浪橋公園（にしなみばしこうえん）,旭区高殿1丁目9,旭区,,,街区公園,,,,,,公園・スポーツ,公園,公園・スポーツ/公園,154,2776
135.5326692,34.72051894,高倉三公園,たかくらさんこうえん,高倉三公園（たかくらさんこうえん）,都島区高倉町3-13,都島区,,,街区公園,,,,,,公園・スポーツ,公園,公園・スポーツ/公園,154,2951
135.5421918,34.72168889,中宮1公園,なかみや1こうえん,中宮1公園（なかみや1こうえん）,旭区中宮1丁目11,旭区,,,街区公園,,,,,,公園・スポーツ,公園,公園・スポーツ/公園,154,2773
135.5347807,34.72340811,生江南公園,いくえみなみこうえん,生江南公園（いくえみなみこうえん）,旭区生江1丁目4,旭区,,,街区公園,,,,,,公園・スポーツ,公園,公園・スポーツ/公園,154,2765
135.5322468,34.72335789,赤川南公園,あかがわみなみこうえん,赤川南公園（あかがわみなみこうえん）,旭区赤川1丁目4,旭区,,,街区公園,,,,,,公園・スポーツ,公園,公園・スポーツ/公園,154,2771
135.541289,34.72363108,江野公園,えのこうえん,江野公園（えのこうえん）,旭区中宮2丁目18,旭区,,,街区公園,,,,,,公園・スポーツ,公園,公園・スポーツ/公園,154,58
135.5373813,34.72471383,生江東公園,いくえひがしこうえん,生江東公園（いくえひがしこうえん）,旭区生江2丁目11,旭区,,,街区公園,,,,,,公園・スポーツ,公園,公園・スポーツ/公園,154,2772
135.5492304,34.69873,西今福公園,にしいまふくこうえん,西今福公園（にしいまふくこうえん）,城東区今福西1-15,城東区,,,街区公園,,,,,,公園・スポーツ,公園,公園・スポーツ/公園,154,733
135.551519,34.69904131,中今福公園,なかいまふくこうえん,中今福公園（なかいまふくこうえん）,城東区今福西2-8,城東区,,,街区公園,,,,,,公園・スポーツ,公園,公園・スポーツ/公園,154,732
135.5561139,34.69925583,南今福北公園,みなみいまふくきたこうえん,南今福北公園（みなみいまふくきたこうえん）,城東区今福南4-13,城東区,,,街区公園,,,,,,公園・スポーツ,公園,公園・スポーツ/公園,154,747
135.5527688,34.69807711,今福南中央公園,いまふくみなみちゅうおうこうえん,今福南中央公園（いまふくみなみちゅうおうこうえん）,城東区今福南2-17,城東区,,,街区公園,,,,,,公園・スポーツ,公園,公園・スポーツ/公園,154,4425
135.5449717,34.70388275,蒲生公園,がもうこうえん,蒲生公園（がもうこうえん）,城東区中央3-8,城東区,,,近隣公園,,,,,,公園・スポーツ,公園,公園・スポーツ/公園,154,726
135.551866,34.70393814,鯰江公園,なまずえこうえん,鯰江公園（なまずえこうえん）,城東区今福西6-5,城東区,,,近隣公園,,,,,,公園・スポーツ,公園,公園・スポーツ/公園,154,730
135.5517191,34.70284697,鯰江南公園,なまずえみなみこうえん,鯰江南公園（なまずえみなみこうえん）,城東区今福西6-7,城東区,,,街区公園,,,,,,公園・スポーツ,公園,公園・スポーツ/公園,154,734
135.5563086,34.70071706,鯰江東公園,なまずえひがしこうえん,鯰江東公園（なまずえひがしこうえん）,城東区今福東1-4,城東区,,,街区公園,,,,,,公園・スポーツ,公園,公園・スポーツ/公園,154,4426
135.5570241,34.69805458,南今福公園,みなみいまふくこうえん,南今福公園（みなみいまふくこうえん）,城東区今福南4-4,城東区,,,街区公園,,,,,,公園・スポーツ,公園,公園・スポーツ/公園,154,746
135.5627192,34.69999994,鶴見南公園,つるみみなみこうえん,鶴見南公園（つるみみなみこうえん）,鶴見区鶴見2-5,鶴見区,,,街区公園,,,,,,公園・スポーツ,公園,公園・スポーツ/公園,154,4194
135.564956,34.69809408,鶴見中央公園,つるみちゅうおうこうえん,鶴見中央公園（つるみちゅうおうこうえん）,鶴見区鶴見1-6,鶴見区,,,近隣公園,,,,,,公園・スポーツ,公園,公園・スポーツ/公園,154,4042
135.5701,34.69863583,横堤南公園,よこづつみみなみこうえん,横堤南公園（よこづつみみなみこうえん）,鶴見区横堤2-3,鶴見区,,,街区公園,,,,,,公園・スポーツ,公園,公園・スポーツ/公園,154,4189
135.565369,34.69672922,鶴見1公園,つるみ１こうえん,鶴見1公園（つるみ１こうえん）,鶴見区鶴見1-6,鶴見区,,,街区公園,,,,,,公園・スポーツ,公園,公園・スポーツ/公園,154,4193
135.5584909,34.70279194,東今福公園,ひがしいまふくこうえん,東今福公園（ひがしいまふくこうえん）,城東区今福東2-11,城東区,,,街区公園,,,,,,公園・スポーツ,公園,公園・スポーツ/公園,154,758
135.5486779,34.70475675,鯰江北公園,なまずえきたこうえん,鯰江北公園（なまずえきたこうえん）,城東区今福西5-13,城東区,,,街区公園,,,,,,公園・スポーツ,公園,公園・スポーツ/公園,154,731
135.5505253,34.70718308,南関目公園,みなみせきめこうえん,南関目公園（みなみせきめこうえん）,城東区関目2-4,城東区,,,街区公園,,,,,,公園・スポーツ,公園,公園・スポーツ/公園,154,725
135.5477192,34.70862789,西関目公園,にしせきめこうえん,西関目公園（にしせきめこうえん）,城東区関目1-7,城東区,,,街区公園,,,,,,公園・スポーツ,公園,公園・スポーツ/公園,154,724
135.5437657,34.70942914,成育公園,せいいくこうえん,成育公園（せいいくこうえん）,城東区成育3-18,城東区,,,街区公園,,,,,,公園・スポーツ,公園,公園・スポーツ/公園,154,740
135.5503858,34.71029386,関目中央公園,せきめちゅうおうこうえん,関目中央公園（せきめちゅうおうこうえん）,城東区関目4-3,城東区,,,街区公園,,,,,,公園・スポーツ,公園,公園・スポーツ/公園,154,723
135.5617491,34.70447944,鶴見北中央公園,つるみきたちゅうおうこうえん,鶴見北中央公園（つるみきたちゅうおうこうえん）,鶴見区鶴見4-7,鶴見区,,,街区公園,,,,,,公園・スポーツ,公園,公園・スポーツ/公園,154,4195
135.564824,34.70448203,鶴見北公園,つるみきたこうえん,鶴見北公園（つるみきたこうえん）,鶴見区鶴見4-14,鶴見区,,,街区公園,,,,,,公園・スポーツ,公園,公園・スポーツ/公園,154,4196
135.5581203,34.70987664,古市中公園,ふるいちなかこうえん,古市中公園（ふるいちなかこうえん）,城東区古市2-6,城東区,,,街区公園,,,,,,公園・スポーツ,公園,公園・スポーツ/公園,154,755
135.5614971,34.70971086,緑第二公園,みどりだいにこうえん,緑第二公園（みどりだいにこうえん）,鶴見区緑1-3,鶴見区,,,街区公園,,,,,,公園・スポーツ,公園,公園・スポーツ/公園,154,4197
135.5729028,34.69921117,横堤中公園,よこづつみなかこうえん,横堤中公園（よこづつみなかこうえん）,鶴見区横堤3-1,鶴見区,,,街区公園,,,,,,公園・スポーツ,公園,公園・スポーツ/公園,154,4190
135.573272,34.69988103,横堤東公園,よこづつみひがしこうえん,横堤東公園（よこづつみひがしこうえん）,鶴見区横堤3-5,鶴見区,,,街区公園,,,,,,公園・スポーツ,公園,公園・スポーツ/公園,154,4191
135.5717062,34.70371878,横堤北公園,よこづつみきたこうえん,横堤北公園（よこづつみきたこうえん）,鶴見区横堤5-1,鶴見区,,,街区公園,,,,,,公園・スポーツ,公園,公園・スポーツ/公園,154,4192
135.5781943,34.70149992,諸口中公園,もろぐちなかこうえん,諸口中公園（もろぐちなかこうえん）,鶴見区諸口1-14,鶴見区,,,街区公園,,,,,,公園・スポーツ,公園,公園・スポーツ/公園,154,4006
135.5827643,34.70134703,諸口東公園,もろぐちひがしこうえん,諸口東公園（もろぐちひがしこうえん）,鶴見区諸口2-14,鶴見区,,,街区公園,,,,,,公園・スポーツ,公園,公園・スポーツ/公園,154,4188
135.5851082,34.69955792,中徳公園,なかとくこうえん,中徳公園（なかとくこうえん）,鶴見区中茶屋1-1,鶴見区,,,街区公園,,,,,,公園・スポーツ,公園,公園・スポーツ/公園,154,4176
135.5890691,34.70675808,安田公園,やすだこうえん,安田公園（やすだこうえん）,鶴見区安田4-2,鶴見区,,,街区公園,,,,,,公園・スポーツ,公園,公園・スポーツ/公園,154,4175
135.5946941,34.70789717,茨田大宮南公園,まったおおみやみなみこうえん,茨田大宮南公園（まったおおみやみなみこうえん）,鶴見区茨田大宮3-7,鶴見区,,,街区公園,,,,,,公園・スポーツ,公園,公園・スポーツ/公園,154,4173
135.5473109,34.71359394,関目駅前小公園,せきめえきまえしょうこうえん,関目駅前小公園（せきめえきまえしょうこうえん）,城東区関目5-9,城東区,,,街区公園,,,,,,公園・スポーツ,公園,公園・スポーツ/公園,154,739
135.5509248,34.71318153,北関目公園,きたせきめこうえん,北関目公園（きたせきめこうえん）,城東区関目6-3,城東区,,,街区公園,,,,,,公園・スポーツ,公園,公園・スポーツ/公園,154,738
135.5566482,34.71477911,古市北公園,ふるいちきたこうえん,古市北公園（ふるいちきたこうえん）,城東区古市3-14,城東区,,,街区公園,,,,,,公園・スポーツ,公園,公園・スポーツ/公園,154,757
135.5491111,34.71769983,高殿７公園,たかどの７こうえん,高殿７公園（たかどの７こうえん）,旭区高殿7丁目15,旭区,,,街区公園,,,,,,公園・スポーツ,公園,公園・スポーツ/公園,154,2777
135.5500031,34.71611894,新森南公園,しんもりみなみこうえん,新森南公園（しんもりみなみこうえん）,旭区新森1丁目4,旭区,,,街区公園,,,,,,公園・スポーツ,公園,公園・スポーツ/公園,154,2746
135.5515419,34.7173,新森南小公園,しんもりみなみしょうこうえん,新森南小公園（しんもりみなみしょうこうえん）,旭区新森1丁目7,旭区,,,街区公園,,,,,,公園・スポーツ,公園,公園・スポーツ/公園,154,2768
135.5589463,34.71300025,古市西北公園,ふるいちにしきたこうえん,古市西北公園（ふるいちにしきたこうえん）,城東区古市3-19,城東区,,,街区公園,,,,,,公園・スポーツ,公園,公園・スポーツ/公園,154,756
135.5615611,34.71428106,緑第一公園,みどりだいいちこうえん,緑第一公園（みどりだいいちこうえん）,鶴見区緑1-17,鶴見区,,,街区公園,,,,,,公園・スポーツ,公園,公園・スポーツ/公園,154,4198
135.5568261,34.71825178,新森中央公園,しんもりちゅうおうこうえん,新森中央公園（しんもりちゅうおうこうえん）,旭区新森4丁目22,旭区,,,街区公園,,,,,,公園・スポーツ,公園,公園・スポーツ/公園,154,2743
135.5630218,34.71827208,新森東公園,しんもりひがしこうえん,新森東公園（しんもりひがしこうえん）,旭区新森6丁目8,旭区,,,街区公園,,,,,,公園・スポーツ,公園,公園・スポーツ/公園,154,2753
135.5447419,34.72081097,大宮南公園,おおみやみなみこうえん,大宮南公園（おおみやみなみこうえん）,旭区大宮1丁目1,旭区,,,街区公園,,,,,,公園・スポーツ,公園,公園・スポーツ/公園,154,2758
135.5488719,34.72097194,森小路南公園,もりしょうじみなみこうえん,森小路南公園（もりしょうじみなみこうえん）,旭区森小路1丁目12,旭区,,,街区公園,,,,,,公園・スポーツ,公園,公園・スポーツ/公園,154,2769
135.5542308,34.720111,新森北公園,しんもりきたこうえん,新森北公園（しんもりきたこうえん）,旭区新森3丁目12,旭区,,,街区公園,,,,,,公園・スポーツ,公園,公園・スポーツ/公園,154,2745
135.5500031,34.72016122,森小路東公園,もりしょうじひがしこうえん,森小路東公園（もりしょうじひがしこうえん）,旭区森小路1丁目7,旭区,,,街区公園,,,,,,公園・スポーツ,公園,公園・スポーツ/公園,154,2770
135.5448079,34.72591103,大宮中公園,おおみやなかこうえん,大宮中公園（おおみやなかこうえん）,旭区大宮3丁目1,旭区,,,街区公園,,,,,,公園・スポーツ,公園,公園・スポーツ/公園,154,2744
135.5496137,34.72363108,森小路公園,もりしょうじこうえん,森小路公園（もりしょうじこうえん）,旭区森小路2丁目5,旭区,,,街区公園,,,,,,公園・スポーツ,公園,公園・スポーツ/公園,154,2760
135.5513688,34.72476406,千林公園,せんばやしこうえん,千林公園（せんばやしこうえん）,旭区千林2丁目9,旭区,,,街区公園,,,,,,公園・スポーツ,公園,公園・スポーツ/公園,154,2747
135.5588641,34.72206914,清水南公園,しみずみなみこうえん,清水南公園（しみずみなみこうえん）,旭区清水2丁目13,旭区,,,街区公園,,,,,,公園・スポーツ,公園,公園・スポーツ/公園,154,2748
135.558631,34.721,清水小公園,しみずしょうこうえん,清水小公園（しみずしょうこうえん）,旭区清水2丁目5,旭区,,,街区公園,,,,,,公園・スポーツ,公園,公園・スポーツ/公園,154,2756
135.5646892,34.72193292,両国町公園,りょうごくちょうこうえん,両国町公園（りょうごくちょうこうえん）,旭区清水4丁目12,旭区,,,街区公園,,,,,,公園・スポーツ,公園,公園・スポーツ/公園,154,2757
135.5601193,34.72378908,清水中公園,しみずなかこうえん,清水中公園（しみずなかこうえん）,旭区清水3丁目31,旭区,,,街区公園,,,,,,公園・スポーツ,公園,公園・スポーツ/公園,154,2750
135.5574668,34.72471383,清水北公園,しみずきたこうえん,清水北公園（しみずきたこうえん）,旭区清水3丁目9,旭区,,,街区公園,,,,,,公園・スポーツ,公園,公園・スポーツ/公園,154,2751
135.584425,34.71211414,浜北公園,はまきたこうえん,浜北公園（はまきたこうえん）,鶴見区浜4-16,鶴見区,,,街区公園,,,,,,公園・スポーツ,公園,公園・スポーツ/公園,154,4177
135.5852113,34.71471414,焼野南公園,やけのみなみこうえん,焼野南公園（やけのみなみこうえん）,鶴見区焼野2-南5,鶴見区,,,街区公園,,,,,,公園・スポーツ,公園,公園・スポーツ/公園,154,4180
135.5939691,34.71145803,茨田大宮西公園,まったおおみやにしこうえん,茨田大宮西公園（まったおおみやにしこうえん）,鶴見区茨田大宮2-7,鶴見区,,,街区公園,,,,,,公園・スポーツ,公園,公園・スポーツ/公園,154,4172
135.5837809,34.715519,焼野南さくら公園,やけのみなみさくらこうえん,焼野南さくら公園（やけのみなみさくらこうえん）,鶴見区焼野1-南10,鶴見区,,,街区公園,,,,,,公園・スポーツ,公園,公園・スポーツ/公園,154,4178
135.5859113,34.71676911,焼野公園,やけのこうえん,焼野公園（やけのこうえん）,鶴見区焼野2-7,鶴見区,,,街区公園,,,,,,公園・スポーツ,公園,公園・スポーツ/公園,154,4179
135.4905533,34.72836108,木川北公園,きかわきたこうえん,木川北公園（きかわきたこうえん）,淀川区木川東4-16,淀川区,06-6309-0008,,街区公園,,,,,,公園・スポーツ,公園,公園・スポーツ/公園,154,2794
135.5014779,34.72775606,西中島東公園,にしなかじまひがしこうえん,西中島東公園（にしなかじまひがしこうえん）,淀川区西中島3-8,淀川区,06-6309-0008,,街区公園,,,,,,公園・スポーツ,公園,公園・スポーツ/公園,154,2791
135.4941578,34.73053089,西町公園,にしまちこうえん,西町公園（にしまちこうえん）,淀川区西中島7-15,淀川区,06-6309-0008,,街区公園,,,,,,公園・スポーツ,公園,公園・スポーツ/公園,154,2792
135.5091922,34.72960289,飛鳥町公園,あすかちょうこうえん,飛鳥町公園（あすかちょうこうえん）,東淀川区柴島1-7,東淀川区,,,街区公園,,,,,,公園・スポーツ,公園,公園・スポーツ/公園,154,98
135.5049187,34.72751094,南方南公園,みなみかたみなみこうえん,南方南公園（みなみかたみなみこうえん）,東淀川区東中島2-5,東淀川区,,,街区公園,,,,,,公園・スポーツ,公園,公園・スポーツ/公園,154,582
135.505422,34.72888083,南方北公園,みなみかたきたこうえん,南方北公園（みなみかたきたこうえん）,東淀川区東中島2-18,東淀川区,,,街区公園,,,,,,公園・スポーツ,公園,公園・スポーツ/公園,154,583
135.5064003,34.72846111,南方公園,みなみかたこうえん,南方公園（みなみかたこうえん）,東淀川区東中島2-24,東淀川区,,,街区公園,,,,,,公園・スポーツ,公園,公園・スポーツ/公園,154,591
135.5144063,34.729178,柴島東公園,くにじまひがしこうえん,柴島東公園（くにじまひがしこうえん）,東淀川区柴島2-18,東淀川区,,,街区公園,,,,,,公園・スポーツ,公園,公園・スポーツ/公園,154,584
135.5028827,34.73172208,山口本町公園,やまぐちほんまちこうえん,山口本町公園（やまぐちほんまちこうえん）,東淀川区東中島1-14,東淀川区,,,街区公園,,,,,,公園・スポーツ,公園,公園・スポーツ/公園,154,581
135.5055001,34.73200006,新駅2号公園,しんえき２ごうこうえん,新駅2号公園（しんえき２ごうこうえん）,東淀川区東中島4-3,東淀川区,,,街区公園,,,,,,公園・スポーツ,公園,公園・スポーツ/公園,154,592
135.5141327,34.73086386,柴島西公園,くにじまにしこうえん,柴島西公園（くにじまにしこうえん）,東淀川区柴島3-7,東淀川区,,,街区公園,,,,,,公園・スポーツ,公園,公園・スポーツ/公園,154,585
135.4944306,34.73785608,北中島公園,きたなかじまこうえん,北中島公園（きたなかじまこうえん）,淀川区宮原5-7,淀川区,06-6309-0008,,街区公園,,,,,,公園・スポーツ,公園,公園・スポーツ/公園,154,2786
135.5055278,34.73480611,日之出南公園,ひのでみなみこうえん,日之出南公園（ひのでみなみこうえん）,東淀川区西淡路2-1,東淀川区,,,街区公園,,,,,,公園・スポーツ,公園,公園・スポーツ/公園,154,579
135.5075032,34.73358619,日之出東公園,ひのでひがしこうえん,日之出東公園（ひのでひがしこうえん）,東淀川区東中島5-6,東淀川区,,,街区公園,,,,,,公園・スポーツ,公園,公園・スポーツ/公園,154,589
135.5036689,34.73671111,日之出公園,ひのでこうえん,日之出公園（ひのでこうえん）,東淀川区西淡路1-5,東淀川区,,,街区公園,,,,,,公園・スポーツ,公園,公園・スポーツ/公園,154,647
135.5114748,34.73598914,淡路2公園,あわじ２こうえん,淡路2公園（あわじ２こうえん）,東淀川区淡路2-1,東淀川区,,,街区公園,,,,,,公園・スポーツ,公園,公園・スポーツ/公園,154,578
135.5086357,34.73815617,西淡路公園,にしあわじこうえん,西淡路公園（にしあわじこうえん）,東淀川区西淡路3-1,東淀川区,,,街区公園,,,,,,公園・スポーツ,公園,公園・スポーツ/公園,154,580
135.5047941,34.73814397,日之出北公園,ひのできたこうえん,日之出北公園（ひのできたこうえん）,東淀川区西淡路1-12,東淀川区,,,街区公園,,,,,,公園・スポーツ,公園,公園・スポーツ/公園,154,648
135.5148139,34.74041908,淡路4公園,あわじ４こうえん,淡路4公園（あわじ４こうえん）,東淀川区淡路4-15,東淀川区,,,街区公園,,,,,,公園・スポーツ,公園,公園・スポーツ/公園,154,586
135.5132218,34.73786714,淡路3公園,あわじさんこうえん,淡路3公園（あわじさんこうえん）,東淀川区淡路3-13,東淀川区,,,街区公園,,,,,,公園・スポーツ,公園,公園・スポーツ/公園,154,1689
135.5257082,34.72666706,城北緑道公園,しろきたりょくどうこうえん,城北緑道公園（しろきたりょくどうこうえん）,都島区毛馬町5-4・大東町2-6・3-1,都島区,,,緑道,,,,,,公園・スポーツ,公園,公園・スポーツ/公園,154,2928
135.5304607,34.72922192,赤川公園,あかがわこうえん,赤川公園（あかがわこうえん）,旭区赤川4丁目21,旭区,,,街区公園,,,,,,公園・スポーツ,公園,公園・スポーツ/公園,154,2763
135.539189,34.72918317,城北公園,しろきたこうえん,城北公園（しろきたこうえん）,旭区生江3丁目29,旭区,,,総合公園,,,,,,公園・スポーツ,公園,公園・スポーツ/公園,154,1921
135.517333,34.73584997,東淡路南公園,ひがしあわじみなみこうえん,東淡路南公園（ひがしあわじみなみこうえん）,東淀川区東淡路2-5,東淀川区,,,街区公園,,,,,,公園・スポーツ,公園,公園・スポーツ/公園,154,643
135.521436,34.73922508,菅原西公園,すがはらにしこうえん,菅原西公園（すがはらにしこうえん）,東淀川区菅原5-1,東淀川区,,,街区公園,,,,,,公園・スポーツ,公園,公園・スポーツ/公園,154,641
135.5203998,34.73857508,東淡路町公園,ひがしあわじまちこうえん,東淡路町公園（ひがしあわじまちこうえん）,東淀川区東淡路4-24,東淀川区,,,街区公園,,,,,,公園・スポーツ,公園,公園・スポーツ/公園,154,644
135.5259501,34.73889694,菅原公園,すがはらこうえん,菅原公園（すがはらこうえん）,東淀川区菅原3-6,東淀川区,,,街区公園,,,,,,公園・スポーツ,公園,公園・スポーツ/公園,154,636
135.5275563,34.73990606,菅原東公園,すがはらひがしこうえん,菅原東公園（すがはらひがしこうえん）,東淀川区菅原4-8,東淀川区,,,街区公園,,,,,,公園・スポーツ,公園,公園・スポーツ/公園,154,637
135.5294831,34.73831708,菅原天満宮公園,すがはらてんまんぐうこうえん,菅原天満宮公園（すがはらてんまんぐうこうえん）,東淀川区菅原2-2,東淀川区,,,街区公園,,,,,,公園・スポーツ,公園,公園・スポーツ/公園,154,639
135.5251827,34.73819194,和合公園,わごうこうえん,和合公園（わごうこうえん）,東淀川区菅原3-2,東淀川区,,,街区公園,,,,,,公園・スポーツ,公園,公園・スポーツ/公園,154,640
135.5341831,34.73883308,北淀公園,きたよどこうえん,北淀公園（きたよどこうえん）,東淀川区豊里1-8,東淀川区,,,街区公園,,,,,,公園・スポーツ,公園,公園・スポーツ/公園,154,221
135.539222,34.73765786,三番公園,さんばこうえん,三番公園（さんばこうえん）,東淀川区豊里2-4,東淀川区,,,街区公園,,,,,,公園・スポーツ,公園,公園・スポーツ/公園,154,222
135.4931943,34.74226711,東三国西公園,ひがしみくににしこうえん,東三国西公園（ひがしみくににしこうえん）,淀川区東三国5-13,淀川区,06-6309-0008,,街区公園,,,,,,公園・スポーツ,公園,公園・スポーツ/公園,154,2785
135.5000469,34.74241917,東三国東公園,ひがしみくにひがしこうえん,東三国東公園（ひがしみくにひがしこうえん）,淀川区東三国2-18,淀川区,06-6309-0008,,街区公園,,,,,,公園・スポーツ,公園,公園・スポーツ/公園,154,2784
135.4900871,34.74755775,十八条中央公園,じゅうはちじょうちゅうおうこうえん,十八条中央公園（じゅうはちじょうちゅうおうこうえん）,淀川区十八条2-10,淀川区,06-6309-0008,,近隣公園,,,,,,公園・スポーツ,公園,公園・スポーツ/公園,154,2782
135.4901942,34.74507208,十八条西公園,じゅうはちじょうにしこうえん,十八条西公園（じゅうはちじょうにしこうえん）,淀川区十八条3-1,淀川区,06-6309-0008,,街区公園,,,,,,公園・スポーツ,公園,公園・スポーツ/公園,154,2783
135.4963993,34.74632508,十八条東公園,じゅうはちじょうひがしこうえん,十八条東公園（じゅうはちじょうひがしこうえん）,淀川区十八条1-8,淀川区,06-6309-0008,,地区公園,,,,,,公園・スポーツ,公園,公園・スポーツ/公園,154,2781
135.5072471,34.74233097,須賀森公園,すがのもりこうえん,須賀森公園（すがのもりこうえん）,東淀川区西淡路4-17,東淀川区,,,街区公園,,,,,,公園・スポーツ,公園,公園・スポーツ/公園,154,646
135.5155577,34.74247194,淡路公園,あわじこうえん,淡路公園（あわじこうえん）,東淀川区淡路5-14,東淀川区,,,街区公園,,,,,,公園・スポーツ,公園,公園・スポーツ/公園,154,645
135.518,34.74401692,鳩ヶ瀬公園,はとがせこうえん,鳩ヶ瀬公園（はとがせこうえん）,東淀川区下新庄1-9,東淀川区,,,街区公園,,,,,,公園・スポーツ,公園,公園・スポーツ/公園,154,203
135.5293059,34.74284989,多幸公園,たこうこうえん,多幸公園（たこうこうえん）,東淀川区豊新2-8,東淀川区,,,街区公園,,,,,,公園・スポーツ,公園,公園・スポーツ/公園,154,218
135.5233218,34.74226083,菅原北公園,すがはらきたこうえん,菅原北公園（すがはらきたこうえん）,東淀川区菅原7-9,東淀川区,,,街区公園,,,,,,公園・スポーツ,公園,公園・スポーツ/公園,154,642
135.5178059,34.74646089,下新庄北公園,しもしんじょうきたこうえん,下新庄北公園（しもしんじょうきたこうえん）,東淀川区下新庄4-14,東淀川区,,,街区公園,,,,,,公園・スポーツ,公園,公園・スポーツ/公園,154,204
135.5219609,34.74555817,下新庄小公園,しもしんじょうしょうこうえん,下新庄小公園（しもしんじょうしょうこうえん）,東淀川区下新庄5-3,東淀川区,,,街区公園,,,,,,公園・スポーツ,公園,公園・スポーツ/公園,154,205
135.5234613,34.74697206,下新庄公園,しもしんじょうこうえん,下新庄公園（しもしんじょうこうえん）,東淀川区下新庄5-17,東淀川区,,,街区公園,,,,,,公園・スポーツ,公園,公園・スポーツ/公園,154,206
135.5328828,34.74212797,豊北公園,とよきたこうえん,豊北公園（とよきたこうえん）,東淀川区豊新1-12,東淀川区,,,街区公園,,,,,,公園・スポーツ,公園,公園・スポーツ/公園,154,217
135.531947,34.743536,六原公園,ろくはらこうえん,六原公園（ろくはらこうえん）,東淀川区豊新3-2,東淀川区,,,街区公園,,,,,,公園・スポーツ,公園,公園・スポーツ/公園,154,219
135.5354781,34.74171089,豊里三角公園,とよさとさんかくこうえん,豊里三角公園（とよさとさんかくこうえん）,東淀川区豊里2-23,東淀川区,,,街区公園,,,,,,公園・スポーツ,公園,公園・スポーツ/公園,154,223
135.5369313,34.74428303,かぶと公園,かぶとこうえん,かぶと公園（かぶとこうえん）,東淀川区豊新4-10,東淀川区,,,街区公園,,,,,,公園・スポーツ,公園,公園・スポーツ/公園,154,220
135.5396613,34.74435794,豊里さつき公園,とよさとさつきこうえん,豊里さつき公園（とよさとさつきこうえん）,東淀川区豊里7-25,東淀川区,,,街区公園,,,,,,公園・スポーツ,公園,公園・スポーツ/公園,154,638
135.5427443,34.74104986,豊里中央公園,とよさとちゅうおうこうえん,豊里中央公園（とよさとちゅうおうこうえん）,東淀川区豊里5-14,東淀川区,,,近隣公園,,,,,,公園・スポーツ,公園,公園・スポーツ/公園,154,1565
135.5310112,34.74797811,新庄公園,しんじょうこうえん,新庄公園（しんじょうこうえん）,東淀川区上新庄2-12,東淀川区,,,街区公園,,,,,,公園・スポーツ,公園,公園・スポーツ/公園,154,202
135.5407642,34.74822206,大門公園,だいもんこうえん,大門公園（だいもんこうえん）,東淀川区大隅1-5,東淀川区,,,街区公園,,,,,,公園・スポーツ,公園,公園・スポーツ/公園,154,207
135.5384944,34.74961117,瑞光寺公園,ずいこうじこうえん,瑞光寺公園（ずいこうじこうえん）,東淀川区瑞光2-2,東淀川区,,,近隣公園,,,,,,公園・スポーツ,公園,公園・スポーツ/公園,154,200
135.542842,34.74833608,三宝寺西公園,さんぽうじにしこうえん,三宝寺西公園（さんぽうじにしこうえん）,東淀川区大桐2-10,東淀川区,,,街区公園,,,,,,公園・スポーツ,公園,公園・スポーツ/公園,154,208
135.5365749,34.75320308,小松公園,こまつこうえん,小松公園（こまつこうえん）,東淀川区小松2-12,東淀川区,,,街区公園,,,,,,公園・スポーツ,公園,公園・スポーツ/公園,154,198
135.5405418,34.75381714,松山公園,まつやまこうえん,松山公園（まつやまこうえん）,東淀川区小松4-14,東淀川区,,,街区公園,,,,,,公園・スポーツ,公園,公園・スポーツ/公園,154,199
135.5453247,34.72700003,大宮ふれあい公園,おおみやふれあいこうえん,大宮ふれあい公園（おおみやふれあいこうえん）,旭区大宮4丁目2,旭区,,,街区公園,,,,,,公園・スポーツ,公園,公園・スポーツ/公園,154,2775
135.5539169,34.72661906,今市公園,いまいちこうえん,今市公園（いまいちこうえん）,旭区今市2丁目7,旭区,,,街区公園,,,,,,公園・スポーツ,公園,公園・スポーツ/公園,154,2761
135.5460469,34.730611,大宮北公園,おおみやきたこうえん,大宮北公園（おおみやきたこうえん）,旭区大宮5丁目9(高架下),旭区,,,街区公園,,,,,,公園・スポーツ,公園,公園・スポーツ/公園,154,2762
135.5520001,34.73272797,太子橋西公園,たいしばしにしこうえん,太子橋西公園（たいしばしにしこうえん）,旭区太子橋1丁目17,旭区,,,街区公園,,,,,,公園・スポーツ,公園,公園・スポーツ/公園,154,2749
135.5508689,34.73031089,太子橋南公園,たいしばしみなみこうえん,太子橋南公園（たいしばしみなみこうえん）,旭区太子橋1丁目8,旭区,,,街区公園,,,,,,公園・スポーツ,公園,公園・スポーツ/公園,154,2754
135.5559563,34.73586106,太子橋中公園,たいしばしなかこうえん,太子橋中公園（たいしばしなかこうえん）,旭区太子橋2丁目7,旭区,,,近隣公園,,,,,,公園・スポーツ,公園,公園・スポーツ/公園,154,2752
135.5491563,34.74077489,竹間公園,たけまこうえん,竹間公園（たけまこうえん）,東淀川区大道南1-5,東淀川区,,,街区公園,,,,,,公園・スポーツ,公園,公園・スポーツ/公園,154,213
135.5445081,34.73754714,野村公園,のむらこうえん,野村公園（のむらこうえん）,東淀川区豊里3-4,東淀川区,,,街区公園,,,,,,公園・スポーツ,公園,公園・スポーツ/公園,154,224
135.5592219,34.73857214,太子橋東公園,たいしばしひがしこうえん,太子橋東公園（たいしばしひがしこうえん）,旭区太子橋3丁目3,旭区,,,街区公園,,,,,,公園・スポーツ,公園,公園・スポーツ/公園,154,2759
135.5492,34.74289714,能条東公園,のうじょうひがしこうえん,能条東公園（のうじょうひがしこうえん）,東淀川区大道南1-19,東淀川区,,,街区公園,,,,,,公園・スポーツ,公園,公園・スポーツ/公園,154,214
135.5467281,34.74203606,能條公園,のうじょうこうえん,能條公園（のうじょうこうえん）,東淀川区大道南3-2,東淀川区,,,街区公園,,,,,,公園・スポーツ,公園,公園・スポーツ/公園,154,216
135.5517858,34.74329389,大道南公園,だいどうみなみこうえん,大道南公園（だいどうみなみこうえん）,東淀川区大道南1-30,東淀川区,,,街区公園,,,,,,公園・スポーツ,公園,公園・スポーツ/公園,154,215
135.5500281,34.74453583,大道公園,だいどうこうえん,大道公園（だいどうこうえん）,東淀川区大道南2-16,東淀川区,,,街区公園,,,,,,公園・スポーツ,公園,公園・スポーツ/公園,154,1688
135.5437138,34.74572497,今在家公園,いまざいけこうえん,今在家公園（いまざいけこうえん）,東淀川区大桐2-2,東淀川区,,,街区公園,,,,,,公園・スポーツ,公園,公園・スポーツ/公園,154,209
135.5458219,34.74753303,大桐公園,だいどうこうえん,大桐公園（だいどうこうえん）,東淀川区大桐3-8,東淀川区,,,街区公園,,,,,,公園・スポーツ,公園,公園・スポーツ/公園,154,210
135.5487668,34.74574197,大道北公園,だいどうきたこうえん,大道北公園（だいどうきたこうえん）,東淀川区大道南2-19,東淀川区,,,街区公園,,,,,,公園・スポーツ,公園,公園・スポーツ/公園,154,4834
135.5516693,34.74626714,東大道公園,ひがしだいどうこうえん,東大道公園（ひがしだいどうこうえん）,東淀川区大桐4-3,東淀川区,,,街区公園,,,,,,公園・スポーツ,公園,公園・スポーツ/公園,154,211
135.5480109,34.75198894,瑞光4公園,ずいこう４こうえん,瑞光4公園（ずいこう４こうえん）,東淀川区瑞光4-4,東淀川区,,,街区公園,,,,,,公園・スポーツ,公園,公園・スポーツ/公園,154,201
135.5501938,34.74979386,大隅公園,おおすみこうえん,大隅公園（おおすみこうえん）,東淀川区大桐5-14,東淀川区,,,街区公園,,,,,,公園・スポーツ,公園,公園・スポーツ/公園,154,212
135.5491893,34.75276686,大隅東公園,おおすみひがしこうえん,大隅東公園（おおすみひがしこうえん）,東淀川区瑞光4-5,東淀川区,,,街区公園,,,,,,公園・スポーツ,公園,公園・スポーツ/公園,154,109
135.5537033,34.75322817,南江口公園,みなみえぐちこうえん,南江口公園（みなみえぐちこうえん）,東淀川区南江口3-13,東淀川区,,,街区公園,,,,,,公園・スポーツ,公園,公園・スポーツ/公園,154,197
135.5429889,34.76295608,井高野南公園,いたかのみなみこうえん,井高野南公園（いたかのみなみこうえん）,東淀川区井高野1-3,東淀川区,,,街区公園,,,,,,公園・スポーツ,公園,公園・スポーツ/公園,154,192
135.5439779,34.75882217,北江口中央公園,きたえぐちちゅうおうこうえん,北江口中央公園（きたえぐちちゅうおうこうえん）,東淀川区北江口2-1,東淀川区,,,近隣公園,,,,,,公園・スポーツ,公園,公園・スポーツ/公園,154,194
135.5456003,34.75826386,北江口公園,きたえぐちこうえん,北江口公園（きたえぐちこうえん）,東淀川区北江口2-10,東淀川区,,,街区公園,,,,,,公園・スポーツ,公園,公園・スポーツ/公園,154,195
135.5512893,34.75571689,南江口北公園,みなみえぐちきたこうえん,南江口北公園（みなみえぐちきたこうえん）,東淀川区南江口3-2,東淀川区,,,街区公園,,,,,,公園・スポーツ,公園,公園・スポーツ/公園,154,196
135.5441281,34.76550281,井高野公園,いたかのこうえん,井高野公園（いたかのこうえん）,東淀川区井高野3-3,東淀川区,,,近隣公園,,,,,,公園・スポーツ,公園,公園・スポーツ/公園,154,193
135.5975723,34.71222489,茨田大宮中央公園,まったおおみやちゅうおうこうえん,茨田大宮中央公園（まったおおみやちゅうおうこうえん）,鶴見区茨田大宮4-23,鶴見区,,,近隣公園,,,,,,公園・スポーツ,公園,公園・スポーツ/公園,154,4174
135.4956892,34.68552503,靱公園（東園）,うつぼこうえん（ひがしえん）,靱公園（東園）（うつぼこうえん（ひがしえん））,西区靱本町1-9,西区,,,総合公園,,http://www.osgf.or.jp/osakapark/hfm_park/06utsubo/index.html,,,,公園・スポーツ,公園,公園・スポーツ/公園,143,2201
135.4897037,34.68385561,靱公園（西園）,うつぼこうえん（にしえん）,靱公園（西園）（うつぼこうえん（にしえん））,西区靱本町2-1,西区,,,総合公園,,http://www.osgf.or.jp/osakapark/hfm_park/06utsubo/index.html,,,,公園・スポーツ,公園,公園・スポーツ/公園,143,2202
135.4944576,34.68579833,靱公園（バラ園）,うつぼこうえん（ばらえん）,靱公園（バラ園）（うつぼこうえん（ばらえん））,西区靱本町1-9,西区,,,総合公園,,http://www.osgf.or.jp/osakapark/hfm_park/06utsubo/rose/index.html,,,,公園・スポーツ,公園,公園・スポーツ/公園,143,2203
135.5270557,34.68640406,大阪城公園,おおさかじょうこうえん,大阪城公園（おおさかじょうこうえん）,中央区大阪城1～3,中央区,06-6941-1144,,歴史公園,,http://www.osaka-info.jp/jp/search/detail/sightseeing_5287.html,,,,公園・スポーツ,公園,公園・スポーツ/公園,143,1665
135.4001722,34.63666694,野鳥園臨港緑地,やちょうえんりんこうりょくち,野鳥園臨港緑地（やちょうえんりんこうりょくち）,住之江区南港北3-5-30,住之江区,,,,,http://www.osaka-nankou-bird-sanctuary.com/o.n.b.s_web/infomation/info.htm,,,,公園・スポーツ,公園,公園・スポーツ/公園,143,679
135.4017777,34.61451917,南港魚つり園護岸,なんこううおつりえんごがん,南港魚つり園護岸（なんこううおつりえんごがん）,住之江区南港南6-9-3,住之江区,06-6612-2020,,,,http://www.uotsurien.net/,,,,公園・スポーツ,公園,公園・スポーツ/公園,143,672
135.5749219,34.71030606,鶴見緑地展望塔,つるみりょくちてんぼうとう,鶴見緑地展望塔（つるみりょくちてんぼうとう）,鶴見区（花博記念公園鶴見緑地内）,鶴見区,06-6915-2551,06-6915-2552,,,http://www.osgf.or.jp/osakapark/hfm_park/01tsurumi/tsurumi_02.html,,,,公園・スポーツ,公園,公園・スポーツ/公園,143,4168
135.5702779,34.71048106,鶴見緑地バーベキュー場,つるみりょくちばーべきゅーじょう,鶴見緑地バーベキュー場（つるみりょくちばーべきゅーじょう）,鶴見区（花博記念公園鶴見緑地内）,大阪市以外,06-6915-2551,06-6915-2552,,,http://www.city.osaka.lg.jp/kensetsu/page/0000075250.html,,,,公園・スポーツ,公園,公園・スポーツ/公園,143,4110
135.5690779,34.71123908,鶴見緑地キャンプ場,つるみりょくちきゃんぷじょう,鶴見緑地キャンプ場（つるみりょくちきゃんぷじょう）,鶴見区（花博記念公園鶴見緑地内）,鶴見区,06-6915-2551,06-6915-2552,,,http://www.city.osaka.lg.jp/kensetsu/page/0000075447.html,,,,公園・スポーツ,公園,公園・スポーツ/公園,143,4167
135.5769203,34.71522547,むらさき亭,むらさきてい,むらさき亭（むらさきてい）,鶴見区（花博記念公園鶴見緑地内）,鶴見区,06-6915-2551,06-6915-2552,,,http://www.city.osaka.lg.jp/kensetsu/page/0000075445.html,,,,公園・スポーツ,公園,公園・スポーツ/公園,143,4170
135.4628371,34.61468883,住之江抽水所せせらぎの里,すみのえちゅうすいしょせせらぎのさと,住之江抽水所せせらぎの里（すみのえちゅうすいしょせせらぎのさと）,住之江区泉2-1-92,住之江区,06-6686-1240,06-6686-1341,ふるさとをイメージした、せせらぎや池、水田、水車小屋などがあります。敷地内には、約130種の植物があり、四季を通じて楽しんでいただけます。せせらぎの水は、住之江抽水所の建物に降った雨を集めて使っています。また、抽水所の建物の屋上を利用した多目的グラウンドも・,午前9時30分～午後4時30分　　休み：月曜日・火曜日（祝日等と重なる場合はその翌日）、年末年始,http://www.city.osaka.lg.jp/kensetsu/page/0000011312.html,,,,公園・スポーツ,公園,公園・スポーツ/公園,154,1394
135.5016248,34.58779411,山之内公園,やまのうちこうえん,山之内公園（やまのうちこうえん）,住吉区山之内5丁目2番,住吉区,,,街区公園,,,,,,公園・スポーツ,公園,公園・スポーツ/公園,154,371
135.5003501,34.58891894,山之内西公園,やまのうちにしこうえん,山之内西公園（やまのうちにしこうえん）,住吉区山之内5丁目3番,住吉区,,,街区公園,,,,,,公園・スポーツ,公園,公園・スポーツ/公園,154,373
135.5076473,34.59004192,浅香町公園,あさかちょうこうえん,浅香町公園（あさかちょうこうえん）,住吉区浅香2丁目1番,住吉区,,,街区公園,,,,,,公園・スポーツ,公園,公園・スポーツ/公園,154,416
135.5103558,34.59020311,浅香南公園,あさかみなみこうえん,浅香南公園（あさかみなみこうえん）,住吉区浅香1丁目5番,住吉区,,,街区公園,,,,,,公園・スポーツ,公園,公園・スポーツ/公園,154,401
135.5101718,34.59102806,浅香中央公園,あさかちゅうおうこうえん,浅香中央公園（あさかちゅうおうこうえん）,住吉区浅香1丁目6番,住吉区,,,地区公園,,,,,,公園・スポーツ,公園,公園・スポーツ/公園,154,428
135.5005253,34.59326394,山之内中央公園,やまのうちちゅうおうこうえん,山之内中央公園（やまのうちちゅうおうこうえん）,住吉区山之内3丁目17番,住吉区,,,街区公園,,,,,,公園・スポーツ,公園,公園・スポーツ/公園,154,562
135.5071279,34.59494186,杉本町公園,すぎもとちょうこうえん,杉本町公園（すぎもとちょうこうえん）,住吉区杉本2丁目6番,住吉区,,,街区公園,,,,,,公園・スポーツ,公園,公園・スポーツ/公園,154,385
135.4913443,34.60250011,清水丘公園,しみずがおかこうえん,清水丘公園（しみずがおかこうえん）,住吉区清水丘2丁目22番,住吉区,,,街区公園,,,,,,公園・スポーツ,公園,公園・スポーツ/公園,154,393
135.4943249,34.60557492,墨江丘公園,すみえがおかこうえん,墨江丘公園（すみえがおかこうえん）,住吉区墨江4丁目15番,住吉区,,,街区公園,,,,,,公園・スポーツ,公園,公園・スポーツ/公園,154,489
135.5048938,34.60067486,山之内北公園,やまのうちきたこうえん,山之内北公園（やまのうちきたこうえん）,住吉区山之内1丁目1番,住吉区,,,街区公園,,,,,,公園・スポーツ,公園,公園・スポーツ/公園,154,569
135.5177217,34.59386886,庭井2号公園,にわい２ごうこうえん,庭井2号公園（にわい２ごうこうえん）,住吉区庭井2丁目17番,住吉区,,,街区公園,,,,,,公園・スポーツ,公園,公園・スポーツ/公園,154,462
135.5183503,34.59556708,庭井公園,にわいこうえん,庭井公園（にわいこうえん）,住吉区庭井2丁目18番,住吉区,,,街区公園,,,,,,公園・スポーツ,公園,公園・スポーツ/公園,154,463
135.5364172,34.59962781,西浦池グラウンド,にしうらいけぐらうんど,西浦池グラウンド（にしうらいけぐらうんど）,東住吉区住道矢田3-9,東住吉区,,,,,,,,,公園・スポーツ,公園,公園・スポーツ/公園,154,3244
135.5176031,34.60172483,苅田どんぐり公園,かりたどんぐりこうえん,苅田どんぐり公園（かりたどんぐりこうえん）,住吉区苅田3丁目4番,住吉区,,,街区公園,,,,,,公園・スポーツ,公園,公園・スポーツ/公園,154,567
135.4998563,34.61141106,上住吉東公園,うえすみよしひがしこうえん,上住吉東公園（うえすみよしひがしこうえん）,住吉区上住吉1丁目7番,住吉区,,,街区公園,,,,,,公園・スポーツ,公園,公園・スポーツ/公園,154,382
135.4963003,34.610722,上住吉西公園,うえすみよしにしこうえん,上住吉西公園（うえすみよしにしこうえん）,住吉区上住吉2丁目6番,住吉区,,,街区公園,,,,,,公園・スポーツ,公園,公園・スポーツ/公園,154,384
135.497197,34.60848583,千躰公園,せんたいこうえん,千躰公園（せんたいこうえん）,住吉区千躰2丁目5番,住吉区,,,街区公園,,,,,,公園・スポーツ,公園,公園・スポーツ/公園,154,399
135.4981611,34.61529211,神ノ木公園,かみのきこうえん,神ノ木公園（かみのきこうえん）,住吉区帝塚山東5丁目3番,住吉区,,,街区公園,,,,,,公園・スポーツ,公園,公園・スポーツ/公園,154,455
135.496881,34.61406892,住吉一二三公園,すみよしひふみこうえん,住吉一二三公園（すみよしひふみこうえん）,住吉区住吉1丁目7番,住吉区,,,街区公園,,,,,,公園・スポーツ,公園,公園・スポーツ/公園,154,568
135.5092421,34.61240583,西長居公園,にしながいこうえん,西長居公園（にしながいこうえん）,住吉区長居西1丁目14番,住吉区,,,街区公園,,,,,,公園・スポーツ,公園,公園・スポーツ/公園,154,431
135.5032559,34.61327786,南万領公園,みなみまんりょうこうえん,南万領公園（みなみまんりょうこうえん）,住吉区万代東4丁目2番,住吉区,,,街区公園,,,,,,公園・スポーツ,公園,公園・スポーツ/公園,154,508
135.4927194,34.61602806,東粉浜公園,ひがしこはまこうえん,東粉浜公園（ひがしこはまこうえん）,住吉区東粉浜3丁目13番,住吉区,,,街区公園,,,,,,公園・スポーツ,公園,公園・スポーツ/公園,154,471
135.4930468,34.62244711,東粉浜1公園,ひがしこはま１こうえん,東粉浜1公園（ひがしこはま１こうえん）,住吉区東粉浜1丁目13番,住吉区,,,街区公園,,,,,,公園・スポーツ,公園,公園・スポーツ/公園,154,467
135.4974059,34.62118597,帝塚山小公園,てづかやましょうこうえん,帝塚山小公園（てづかやましょうこうえん）,住吉区帝塚山西2丁目2番,住吉区,,,街区公園,,,,,,公園・スポーツ,公園,公園・スポーツ/公園,154,442
135.5083858,34.61795611,播磨大領公園,はりまだいりょうこうえん,播磨大領公園（はりまだいりょうこうえん）,住吉区大領2丁目2番,住吉区,,,街区公園,,,,,,公園・スポーツ,公園,公園・スポーツ/公園,154,420
135.5042672,34.61670008,万領中央公園,まんりょうちゅうおうこうえん,万領中央公園（まんりょうちゅうおうこうえん）,住吉区万代東3丁目1番,住吉区,,,街区公園,,,,,,公園・スポーツ,公園,公園・スポーツ/公園,154,501
135.5028113,34.61981392,万代池公園,ばんだいいけこうえん,万代池公園（ばんだいいけこうえん）,住吉区万代3丁目7番,住吉区,,,地区公園,,,,,,公園・スポーツ,公園,公園・スポーツ/公園,154,493
135.5078313,34.62175,万代東公園,ばんだいひがしこうえん,万代東公園（ばんだいひがしこうえん）,住吉区万代東1丁目1番,住吉区,,,街区公園,,,,,,公園・スポーツ,公園,公園・スポーツ/公園,154,498
135.5633613,34.61044694,いきいき広場,いきいきひろば,いきいき広場（いきいきひろば）,"平野区喜連東5-2,3",平野区,,,,,,,,,公園・スポーツ,公園,公園・スポーツ/公園,154,2393
135.3925967,34.662947,舞洲緑地,まいしまりょくち,舞洲緑地（まいしまりょくち）,此花区北港緑地2,此花区,6460-9855,,,,,,,,公園・スポーツ,公園,公園・スポーツ/公園,154,1500
135.4746699,34.64627961,千島せせらぎの里,ちしませせらぎのさと,千島せせらぎの里（ちしませせらぎのさと）,大正区小林東2-5-59,大正区,06-6551-0766,06-6552-9604,修景池にはガチョウ、アイガモ、アヒルが楽しく泳ぎまわり、自然の小川をイメージして造られたせせらぎには鯉、メダカ、ドジョウなどが生息しています。また、遊歩道には、千島下水処理場のシンボルツリーであるノムラモミジをはじめとして、40種以上の樹木や花が植えられ、,午前9時30分～午後4時30分　　休み：土曜日・日曜日・祝日・年末年始,http://www.city.osaka.lg.jp/kensetsu/page/0000011314.html,,,,公園・スポーツ,公園,公園・スポーツ/公園,154,9182
135.4601759,34.66140494,市岡せせらぎの里,いちおかせせらぎのさと,市岡せせらぎの里（いちおかせせらぎのさと）,港区市岡2-15-25,港区,06-6567-6491,06-6562-7531,敷地内には、豊臣秀吉が大阪の町づくりの際に造った下水溝（背割下水、または太閤下水と呼ばれています）を再現した水路などがあり、歴史ロマンが味わえる空間となっています。また、遊歩道には市岡下水処理場のシンボルツリーであるサルスベリをはじめとして、40種以上の樹,常時,http://www.city.osaka.lg.jp/kensetsu/page/0000011315.html,,,,公園・スポーツ,公園,公園・スポーツ/公園,154,9181
135.4836859,34.65236894,北津守児童遊園地,きたつもりじどうゆうえんち,北津守児童遊園地（きたつもりじどうゆうえんち）,西成区北津守2丁目3番,西成区,,,,,,,,,公園・スポーツ,公園,公園・スポーツ/公園,154,4981
135.4058673,34.66922717,舞洲スラッジセンターのせせらぎ,まいしますらっじせんたーのせせらぎ,舞洲スラッジセンターのせせらぎ（まいしますらっじせんたーのせせらぎ）,此花区北港白津2-2-7,此花区,06-6460-2830,06-6460-2052,下水汚泥を集中処理する舞洲スラッジセンターにあるせせらぎです。,常時,http://www.city.osaka.lg.jp/kensetsu/page/0000011316.html,,,,公園・スポーツ,公園,公園・スポーツ/公園,154,9180
135.4621782,34.69338894,四季の庭,しきのにわ,四季の庭（しきのにわ）,此花区高見1-2-53,此花区,06-6466-3170,0-6-6466-3165,下水道科学館の入口にある四季の庭は、滝やせせらぎ、池のほか、水に触れ合える遊具などもあり、夏はもとより、一年を通じてこども達の歓声が聞こえます。晴れた日には、お弁当を広げる姿も見られます。最寄りの阪神「淀川」駅からの遊歩道沿いには、約50種500本のツバキの・,午前9時～午後5時　　休み：月曜日（祝日等の場合は翌日）、年末年始,http://www.city.osaka.lg.jp/kensetsu/page/0000011311.html,,,,公園・スポーツ,公園,公園・スポーツ/公園,159,1133
135.5067169,34.64612514,みどり公園,みどりこうえん,みどり公園（みどりこうえん）,西成区山王1丁目6番,西成区,,,,,,,,,公園・スポーツ,公園,公園・スポーツ/公園,154,3595
135.5601442,34.64203306,平野せせらぎの里,ひらのせせらぎのさと,平野せせらぎの里（ひらのせせらぎのさと）,平野区加美北2-6-69,平野区,06-6686-1240,06-6686-1341,平野せせらぎの里は、ひと昔前まで大阪の周辺でもみられた小川や里山の風景をイメージして作られています。園内には、木々の間を流れるせせらぎに沿って水車小屋、パーゴラ（つる棚）なども設けられており、四季折々の草花の中を自由に散策していただけます。せせらぎの水に,午前9時30分～午後4時30分　　休み：月曜日・火曜日（祝日等と重なる場合はその翌日）、年末年始,http://www.city.osaka.lg.jp/kensetsu/page/0000011304.html,,,,公園・スポーツ,公園,公園・スポーツ/公園,154,2353
135.5598862,34.64159183,平野下水処理場上部利用施設,ひらのげすいしょりじょうじょうぶりようしせつ,平野下水処理場上部利用施設（ひらのげすいしょりじょうじょうぶりようしせつ）,平野区加美北２－６－６９,平野区,０６－６６８６－１２４０,０６－６６８６－１３４1,,開放時間：午前9時30分～午後4時30分　休み：月曜日・火曜日（祝日等と重なる場合は翌日）、年末年始,http://www.city.osaka.lg.jp/kensetsu/page/0000010437.html,,,,公園・スポーツ,公園,公園・スポーツ/公園,154,19323
135.5555992,34.685193,放出せせらぎの里,はなてんせせらぎのさと,放出せせらぎの里（はなてんせせらぎのさと）,城東区永田2-3-61,城東区,06-6969-5841,06-6967-3531,敷地内には滝やせせらぎのほか、パーゴラやベンチなどの休憩場所を設けています。放出下水処理場のシンボルツリーであるヒラドツツジや城東区の花のモクレンを中心に花や樹木を植栽しています。,,http://www.city.osaka.lg.jp/kensetsu/page/0000011309.html,,,,公園・スポーツ,公園,公園・スポーツ/公園,154,5067
135.5443801,34.68808264,中浜せせらぎの里,なかはませせらぎのさと,中浜せせらぎの里（なかはませせらぎのさと）,城東区中浜1-17-10,城東区,06-6969-5841,06-6967-3531,せせらぎのほか、水の音を楽しむ水琴窟（すいきんくつ）や芝生広場があり、また、明治時代のレンガ積みの下水道管を展示しています。せせらぎの里周辺の約300本の桜並木は毎年春に見事な桜のトンネルうを作り、夜桜とともに皆様に観賞いて頂いています。,午前6時～午後6時,http://www.city.osaka.lg.jp/kensetsu/page/0000011307.html,,,,公園・スポーツ,公園,公園・スポーツ/公園,154,5186
135.5560964,34.68667625,放出下水処理場上部利用施設,はなてんげすいしょりじょうじょうぶりようしせつ,放出下水処理場上部利用施設（はなてんげすいしょりじょうじょうぶりようしせつ）,城東区永田２－３－６１,城東区,０６－６９６９－５８４１,０６－６９６７－３５３１,,開放時間　午前9時30分～午後4時30分　休み：月曜日・火曜日(祝日等と重なる場合は翌日）、年末年始,http://www.city.osaka.lg.jp/kensetsu/page/0000010442.html,,,,公園・スポーツ,公園,公園・スポーツ/公園,154,19322
135.4364388,34.70250797,大野せせらぎの里,おおのせせらぎのさと,大野せせらぎの里（おおのせせらぎのさと）,西淀川区大野2-4-117,西淀川区,06-6474-5788,06-6474-0731,「安定池」という大きな池の周りに遊歩道やせせらぎ、あずまやがあり、水性植物や常緑樹、落葉樹、草花などを植えています。安定池は、水の中に微生物や水生植物など、自然浄化作用（水をきれいにする力）を利用して、下水処理場できれいにした水をさらにきれいにする施設で,午前9時30分～午後4時30分　　休み：月曜日・火曜日（祝日等と重なる場合はその翌日）、年末年始,http://www.city.osaka.lg.jp/kensetsu/page/0000011308.html,,,,公園・スポーツ,公園,公園・スポーツ/公園,155,5065
135.4821639,34.70727206,大淀開発2号公園,おおよどかいはつ２ごうこうえん,大淀開発2号公園（おおよどかいはつ２ごうこうえん）,北区大淀北1,北区,,,,,,,,,公園・スポーツ,公園,公園・スポーツ/公園,154,800
135.481344,34.70816119,淀川河川公園,よどがわかせんこうえん,淀川河川公園（よどがわかせんこうえん）,北区毛馬～海老江,北区,,,,,,,,,公園・スポーツ,公園,公園・スポーツ/公園,154,877
135.4609406,34.71696919,市営住宅御幣島東2号館,しえいじゅうたくみてじまひがしにごうかん,市営住宅御幣島東2号館（しえいじゅうたくみてじまひがしにごうかん）,西淀川区御幣島3－10,西淀川区,,,,,,,,,公園・スポーツ,公園,公園・スポーツ/公園,145,19380
135.5092003,34.71260297,大淀開発1号公園,おおよどかいはつ１ごうこうえん,大淀開発1号公園（おおよどかいはつ１ごうこうえん）,北区本庄東2,北区,,,,,,,,,公園・スポーツ,公園,公園・スポーツ/公園,154,799
135.5790937,34.71248261,自然体験観察園,しぜんたいけんかんさつえん,自然体験観察園（しぜんたいけんかんさつえん）,鶴見区（花博記念公園鶴見緑地内）,鶴見区,06-6912-0650,06-6913-6804,,,http://www.city.osaka.lg.jp/kankyo/page/0000011336.html,,,,公園・スポーツ,公園,公園・スポーツ/公園,154,4169
135.548469,34.73774681,淀川河川公園（豊里地区）,よどがわかせんこうえん（とよさとちく）,淀川河川公園（豊里地区）（よどがわかせんこうえん（とよさとちく））,東淀川区豊里3、大道南1,東淀川区,,,,,,,,,公園・スポーツ,公園,公園・スポーツ/公園,154,587
135.4777078,34.65161408,泉尾東公園,いずおひがしこうえん,泉尾東公園（いずおひがしこうえん）,大正区千島1－29,大正区,,,街区公園,,,,,,公園・スポーツ,児童遊園・広場,公園・スポーツ/児童遊園・広場,157,3965
135.4896168,34.59662489,清水丘児童遊園,しみずがおかじどうゆうえん,清水丘児童遊園（しみずがおかじどうゆうえん）,住吉区清水丘3丁目6番,住吉区,,,,,,,,,公園・スポーツ,児童遊園・広場,公園・スポーツ/児童遊園・広場,157,395
135.4994722,34.59400011,遠里小野3丁目第1児童遊園,おりおのさんちょうめだいいちじどうゆうえん,遠里小野3丁目第1児童遊園（おりおのさんちょうめだいいちじどうゆうえん）,住吉区遠里小野3丁目11番,住吉区,,,児童遊園,,,,,,公園・スポーツ,児童遊園・広場,公園・スポーツ/児童遊園・広場,157,1517
135.4995558,34.59308908,遠里小野3丁目第2児童遊園,おりおのさんちょうめだいにじどうゆうえん,遠里小野3丁目第2児童遊園（おりおのさんちょうめだいにじどうゆうえん）,住吉区遠里小野3丁目13番,住吉区,,,児童遊園,,,,,,公園・スポーツ,児童遊園・広場,公園・スポーツ/児童遊園・広場,157,1518
135.5052219,34.59756106,山之内元町児童遊園,やまのうちもとまちじどうゆうえん,山之内元町児童遊園（やまのうちもとまちじどうゆうえん）,住吉区山之内元町3番,住吉区,,,,,,,,,公園・スポーツ,児童遊園・広場,公園・スポーツ/児童遊園・広場,157,375
135.5148173,34.59369397,苅田南児童遊園,かりたみなみじどうゆうえん,苅田南児童遊園（かりたみなみじどうゆうえん）,住吉区苅田10丁目2番,住吉区,,,児童遊園,,,,,,公園・スポーツ,児童遊園・広場,公園・スポーツ/児童遊園・広場,157,1572
135.5051693,34.60592797,南住吉三児童遊園,みなみすみよしさんじどうゆうえん,南住吉三児童遊園（みなみすみよしさんじどうゆうえん）,住吉区南住吉3丁目8番,住吉区,,,,,,,,,公園・スポーツ,児童遊園・広場,公園・スポーツ/児童遊園・広場,157,477
135.4935689,34.61035306,中一北児童遊園,なかいちきたじどうゆうえん,中一北児童遊園（なかいちきたじどうゆうえん）,住吉区墨江1丁目6番,住吉区,,,,,,,,,公園・スポーツ,児童遊園・広場,公園・スポーツ/児童遊園・広場,157,481
135.4964748,34.61246903,住吉町児童遊園,すみよしちょうじどうゆうえん,住吉町児童遊園（すみよしちょうじどうゆうえん）,住吉区住吉1丁目9番,住吉区,,,,,,,,,公園・スポーツ,児童遊園・広場,公園・スポーツ/児童遊園・広場,157,380
135.5008608,34.61411106,第二万代児童遊園,だいにばんだいじどうゆうえん,第二万代児童遊園（だいにばんだいじどうゆうえん）,住吉区万代6丁目8番,住吉区,,,,,,,,,公園・スポーツ,児童遊園・広場,公園・スポーツ/児童遊園・広場,157,497
135.5325251,34.60292492,矢田東高架下児童遊園,やたひがしこうかしたじどうゆうえん,矢田東高架下児童遊園（やたひがしこうかしたじどうゆうえん）,東住吉区矢田6－7先,東住吉区,,,,,,,,,公園・スポーツ,児童遊園・広場,公園・スポーツ/児童遊園・広場,157,3219
135.5337998,34.60528581,矢田北児童遊園,やたきたじどうゆうえん,矢田北児童遊園（やたきたじどうゆうえん）,東住吉区照ヶ丘矢田3－4,東住吉区,,,,,,,,,公園・スポーツ,児童遊園・広場,公園・スポーツ/児童遊園・広場,157,3215
135.5104029,34.61405006,鶴ヶ丘児童遊園,つるがおかじどうゆうえん,鶴ヶ丘児童遊園（つるがおかじどうゆうえん）,住吉区長居1丁目10番,住吉区,,,,,,,,,公園・スポーツ,児童遊園・広場,公園・スポーツ/児童遊園・広場,157,423
135.5332331,34.60875606,矢田北高架下児童遊園,やたきたこうかしたじどうゆうえん,矢田北高架下児童遊園（やたきたこうかしたじどうゆうえん）,東住吉区矢田2－18先,東住吉区,,,,,,,,,公園・スポーツ,児童遊園・広場,公園・スポーツ/児童遊園・広場,157,40
135.5330829,34.60746106,矢田中高架下児童遊園,やたなかこうかしたじどうゆうえん,矢田中高架下児童遊園（やたなかこうかしたじどうゆうえん）,東住吉区矢田2－21先,東住吉区,,,,,,,,,公園・スポーツ,児童遊園・広場,公園・スポーツ/児童遊園・広場,157,3216
135.5336468,34.61223911,鷹合高架下児童遊園,たかあいこうかしたじどうゆうえん,鷹合高架下児童遊園（たかあいこうかしたじどうゆうえん）,東住吉区鷹合4－18先,東住吉区,,,,,,,,,公園・スポーツ,児童遊園・広場,公園・スポーツ/児童遊園・広場,157,3218
135.462094,34.61494833,住之江抽水所多目的グラウンド,すみのえちゅうすいしょ　たもくてきぐらうんど,住之江抽水所多目的グラウンド（すみのえちゅうすいしょ　たもくてきぐらうんど）,住之江区泉２－１－９２,住之江区,０６－６６８６－１２４０,０６－６６８６－１３４１,,開放時間：午前9時30分～午後4時30分　休み：月曜日・火曜日（祝日等と重なる場合は翌日）、年末年始,http://www.city.osaka.lg.jp/kensetsu/page/0000010442.html,,,,公園・スポーツ,児童遊園・広場,公園・スポーツ/児童遊園・広場,154,19324
135.4336751,34.63203592,南港中央バーベキュー広場,なんこうちゅうおうばーべきゅーひろば,南港中央バーベキュー広場（なんこうちゅうおうばーべきゅーひろば）,住之江区南港東8南港中央公園内,住之江区,06-6614-0569,,,,http://www.optc.or.jp/plant/nckss/bbq.html,,,,公園・スポーツ,児童遊園・広場,公園・スポーツ/児童遊園・広場,157,671
135.4589248,34.63535797,鶴町児童遊園,つるまちじどうゆうえん,鶴町児童遊園（つるまちじどうゆうえん）,大正区鶴町1-7,大正区,,,,,,,,,公園・スポーツ,児童遊園・広場,公園・スポーツ/児童遊園・広場,157,3911
135.4736331,34.63893303,平尾児童遊園,ひらおじどうゆうえん,平尾児童遊園（ひらおじどうゆうえん）,大正区平尾3-17,大正区,,,,,,,,,公園・スポーツ,児童遊園・広場,公園・スポーツ/児童遊園・広場,157,3947
135.4692747,34.64273886,小林児童遊園,こばやしじどうゆうえん,小林児童遊園（こばやしじどうゆうえん）,大正区小林西2-5,大正区,,,,,,,,,公園・スポーツ,児童遊園・広場,公園・スポーツ/児童遊園・広場,157,3830
135.5099387,34.61449994,長居北児童遊園,ながいきたじどうゆうえん,長居北児童遊園（ながいきたじどうゆうえん）,住吉区長居西1丁目7番,住吉区,,,,,,,,,公園・スポーツ,児童遊園・広場,公園・スポーツ/児童遊園・広場,157,432
135.529853,34.61772511,東田辺児童遊園,ひがしたなべじどうゆうえん,東田辺児童遊園（ひがしたなべじどうゆうえん）,東住吉区東田辺3－18,東住吉区,,,,,,,,,公園・スポーツ,児童遊園・広場,公園・スポーツ/児童遊園・広場,157,3223
135.5334083,34.61453283,南百済高架下児童遊園,みなみくだらこうかしたじどうゆうえん,南百済高架下児童遊園（みなみくだらこうかしたじどうゆうえん）,東住吉区鷹合2－13先,東住吉区,,,,,,,,,公園・スポーツ,児童遊園・広場,公園・スポーツ/児童遊園・広場,157,3217
135.519431,34.62826911,長池ちびっこ広場,ながいけちびっこひろば,長池ちびっこ広場（ながいけちびっこひろば）,阿倍野区桃ヶ池町1-13,阿倍野区,,,,,,,,,公園・スポーツ,児童遊園・広場,公園・スポーツ/児童遊園・広場,157,1567
135.5329441,34.62468586,今五児童遊園,いまごじどうゆうえん,今五児童遊園（いまごじどうゆうえん）,東住吉区西今川3－16,東住吉区,,,,,,,,,公園・スポーツ,児童遊園・広場,公園・スポーツ/児童遊園・広場,157,3214
135.5322192,34.62264411,今川・駒三高架下児童遊園,いまがわ・こまさんこうかしたじどうゆうえん,今川・駒三高架下児童遊園（いまがわ・こまさんこうかしたじどうゆうえん）,東住吉区駒川3－20,東住吉区,,,,,,,,,公園・スポーツ,児童遊園・広場,公園・スポーツ/児童遊園・広場,157,3221
135.5303112,34.62848089,北田辺・今川高架下児童遊園,きたたなべ・いまがわこうかしたじどうゆうえん,北田辺・今川高架下児童遊園（きたたなべ・いまがわこうかしたじどうゆうえん）,東住吉区北田辺6－24,東住吉区,,,,,,,,,公園・スポーツ,児童遊園・広場,公園・スポーツ/児童遊園・広場,157,3220
135.4843718,34.63216711,南津守三角児童遊園地,みなみつもりさんかくじどうゆうえんち,南津守三角児童遊園地（みなみつもりさんかくじどうゆうえんち）,西成区南津守3丁目7番,西成区,,,,,,,,,公園・スポーツ,児童遊園・広場,公園・スポーツ/児童遊園・広場,157,3609
135.4823721,34.63380283,西成区コミュニテイ広場,にしなりくこみゅにてぃひろば,西成区コミュニテイ広場（にしなりくこみゅにてぃひろば）,西成区南津守2丁目1番,西成区,,,,,,,,,公園・スポーツ,児童遊園・広場,公園・スポーツ/児童遊園・広場,157,3608
135.4886109,34.64131692,梅南・多目的広場,ばいなん・たもくてきひろば,梅南・多目的広場（ばいなん・たもくてきひろば）,西成区松3丁目3番,西成区,,,,,,,,,公園・スポーツ,児童遊園・広場,公園・スポーツ/児童遊園・広場,157,3607
135.504689,34.64211694,天下茶屋東1丁目児童公園,てんがちゃやひがしいっちょうめじどうゆうえん,天下茶屋東1丁目児童公園（てんがちゃやひがしいっちょうめじどうゆうえん）,西成区天下茶屋東1丁目8番,西成区,,,,,,,,,公園・スポーツ,児童遊園・広場,公園・スポーツ/児童遊園・広場,154,3597
135.5075139,34.63314686,晴明通児童遊園,せいめいどおりじどうゆうえん,晴明通児童遊園（せいめいどおりじどうゆうえん）,阿倍野区晴明通3,阿倍野区,,,,,,,,,公園・スポーツ,児童遊園・広場,公園・スポーツ/児童遊園・広場,157,1570
135.5256886,34.63436903,ひかりのひろば児童遊園,ひかりのひろばじどうゆうえん,ひかりのひろば児童遊園（ひかりのひろばじどうゆうえん）,東住吉区北田辺4－1,東住吉区,,,,,,,,,公園・スポーツ,児童遊園・広場,公園・スポーツ/児童遊園・広場,157,3213
135.5086249,34.63990011,共立児童遊園,きょうりつじどうゆうえん,共立児童遊園（きょうりつじどうゆうえん）,阿倍野区共立通1-1,阿倍野区,,,,,,,,,公園・スポーツ,児童遊園・広場,公園・スポーツ/児童遊園・広場,157,335
135.5163581,34.63712814,苗代田児童遊園,なわしろだじどうゆうえん,苗代田児童遊園（なわしろだじどうゆうえん）,阿倍野区阪南町1-13,阿倍野区,,,,,,,,,公園・スポーツ,児童遊園・広場,公園・スポーツ/児童遊園・広場,157,344
135.5250668,34.63645297,北田辺児童遊園,きたたなべじどうゆうえん,北田辺児童遊園（きたたなべじどうゆうえん）,東住吉区北田辺1－9－4,東住吉区,,,,,,,,,公園・スポーツ,児童遊園・広場,公園・スポーツ/児童遊園・広場,157,3226
135.5219561,34.643203,はちの子ちびっこ広場,はちのこちびっこひろば,はちの子ちびっこ広場（はちのこちびっこひろば）,阿倍野区天王寺町南1-5-9,阿倍野区,,,,,,,,,公園・スポーツ,児童遊園・広場,公園・スポーツ/児童遊園・広場,157,1250
135.522128,34.64288114,八反田児童遊園,はったんだじどうゆうえん,八反田児童遊園（はったんだじどうゆうえん）,阿倍野区天王寺町南1-6,阿倍野区,,,,,,,,,公園・スポーツ,児童遊園・広場,公園・スポーツ/児童遊園・広場,157,1251
135.5344499,34.60680597,喬松児童遊園,きょうしょうじどうゆうえん,喬松児童遊園（きょうしょうじどうゆうえん）,東住吉区照ヶ丘矢田1－14,東住吉区,,,,,,,,,公園・スポーツ,児童遊園・広場,公園・スポーツ/児童遊園・広場,157,3224
135.5400689,34.63220003,新和会児童遊園,しんわかいじどうゆうえん,新和会児童遊園（しんわかいじどうゆうえん）,東住吉区杭全7－13、7－14,東住吉区,,,,,,,,,公園・スポーツ,児童遊園・広場,公園・スポーツ/児童遊園・広場,157,3212
135.535344,34.63931697,杭一児童遊園,くまいちじどうゆうえん,杭一児童遊園（くまいちじどうゆうえん）,東住吉区杭全1－7先,東住吉区,,,,,,,,,公園・スポーツ,児童遊園・広場,公園・スポーツ/児童遊園・広場,157,3222
135.5377998,34.63701692,育和児童遊園,いくわじどうゆうえん,育和児童遊園（いくわじどうゆうえん）,東住吉区杭全2－11－9,東住吉区,,,,,,,,,公園・スポーツ,児童遊園・広場,公園・スポーツ/児童遊園・広場,157,3225
135.4693421,34.64524683,南小林児童遊園,みなみこばやしじどうゆうえん,南小林児童遊園（みなみこばやしじどうゆうえん）,大正区小林西2-9,大正区,,,,,,,,,公園・スポーツ,児童遊園・広場,公園・スポーツ/児童遊園・広場,157,3799
135.4644312,34.65196917,北恩加島児童遊園,きたおかじまじどうゆうえん,北恩加島児童遊園（きたおかじまじどうゆうえん）,大正区北恩加島1-13,大正区,,,,,,,,,公園・スポーツ,児童遊園・広場,公園・スポーツ/児童遊園・広場,157,3800
135.4691473,34.65162517,北村児童遊園,きたむらじどうゆうえん,北村児童遊園（きたむらじどうゆうえん）,大正区北村1-12,大正区,,,,,,,,,公園・スポーツ,児童遊園・広場,公園・スポーツ/児童遊園・広場,157,3953
135.4667718,34.65282783,北村西児童遊園,きたむらにしじどうゆうえん,北村西児童遊園（きたむらにしじどうゆうえん）,大正区北村2-6,大正区,,,,,,,,,公園・スポーツ,児童遊園・広場,公園・スポーツ/児童遊園・広場,157,3958
135.4776418,34.66681711,岩崎橋詰児童遊園,いわさきばしづめじどうゆうえん,岩崎橋詰児童遊園（いわさきばしづめじどうゆうえん）,大正区三軒家西1-7,大正区,,,,,,,,,公園・スポーツ,児童遊園・広場,公園・スポーツ/児童遊園・広場,157,3807
135.5248559,34.64742508,睦児童遊園,むつみじどうゆうえん,睦児童遊園（むつみじどうゆうえん）,阿倍野区天王寺町北2-2,阿倍野区,,,,,,,,,公園・スポーツ,児童遊園・広場,公園・スポーツ/児童遊園・広場,157,1259
135.523117,34.64496117,曙児童遊園,あけぼのじどうゆうえん,曙児童遊園（あけぼのじどうゆうえん）,阿倍野区天王寺町北2-24,阿倍野区,,,,,,,,,公園・スポーツ,児童遊園・広場,公園・スポーツ/児童遊園・広場,157,1261
135.4450781,34.67608314,島屋コミュニティ広場,しまやこみゅにてぃひろば,島屋コミュニティ広場（しまやこみゅにてぃひろば）,此花区島屋3-2,此花区,6461-7375,,,,,,,,公園・スポーツ,児童遊園・広場,公園・スポーツ/児童遊園・広場,149,1036
135.462542,34.68195311,西九条コミュニティ広場,にしくじょうこみゅにてぃひろば,西九条コミュニティ広場（にしくじょうこみゅにてぃひろば）,此花区西九条6-1,此花区,,,,,,,,,公園・スポーツ,児童遊園・広場,公園・スポーツ/児童遊園・広場,149,1012
135.4567917,34.68718114,伝法コミュニティ広場,てんぽうこみゅにてぃひろば,伝法コミュニティ広場（てんぽうこみゅにてぃひろば）,此花区伝法2-1,此花区,6468-2828,,,,,,,,公園・スポーツ,児童遊園・広場,公園・スポーツ/児童遊園・広場,149,1022
135.4485984,34.69827208,福コミュニティ広場,ふくこみゅにてぃひろば,福コミュニティ広場（ふくこみゅにてぃひろば）,西淀川区福町1丁目2番,西淀川区,,,,,,,,,公園・スポーツ,児童遊園・広場,公園・スポーツ/児童遊園・広場,154,19367
135.4405445,34.70131008,大野1丁目児童遊園,おおのいっちょうめじどうゆうえん,大野1丁目児童遊園（おおのいっちょうめじどうゆうえん）,西淀川区大野1丁目4番,西淀川区,,,,,,,,,公園・スポーツ,児童遊園・広場,公園・スポーツ/児童遊園・広場,157,19374
135.4941672,34.69691681,堂島児童遊園,どうじまじどうゆうえん,堂島児童遊園（どうじまじどうゆうえん）,北区堂島2,北区,,,,,,,,,公園・スポーツ,児童遊園・広場,公園・スポーツ/児童遊園・広場,157,790
135.5278938,34.69327189,片町一丁目児童遊園,かたまちいっちょうめじどうゆうえん,片町一丁目児童遊園（かたまちいっちょうめじどうゆうえん）,都島区片町1-1,都島区,,,,,,,,,公園・スポーツ,児童遊園・広場,公園・スポーツ/児童遊園・広場,157,3092
135.5120468,34.70046889,堀川児童遊園,ほりかわじどうゆうえん,堀川児童遊園（ほりかわじどうゆうえん）,北区天神橋3-4,北区,,,,,,,,,公園・スポーツ,児童遊園・広場,公園・スポーツ/児童遊園・広場,157,791
135.5319827,34.69657486,片町二丁目児童遊園,かたまちにちょうめじどうゆうえん,片町二丁目児童遊園（かたまちにちょうめじどうゆうえん）,都島区片町2-5,都島区,,,,,,,,,公園・スポーツ,児童遊園・広場,公園・スポーツ/児童遊園・広場,157,3095
135.5590514,34.68689008,左専道児童遊園,させんどうじどうゆうえん,左専道児童遊園（させんどうじどうゆうえん）,"城東区諏訪１-1,2(阪東大橋高架下)",城東区,,,,,,,,,公園・スポーツ,児童遊園・広場,公園・スポーツ/児童遊園・広場,157,4437
135.5642082,34.68690008,みふき児童公園,みふきじどうこうえん,みふき児童公園（みふきじどうこうえん）,城東区諏訪１-17,城東区,,,,,,,,,公園・スポーツ,児童遊園・広場,公園・スポーツ/児童遊園・広場,157,4438
135.544525,34.69120597,鴫野西5丁目なかよし児童遊園,しぎのにし5ちょうめなかよしじどうゆうえん,鴫野西5丁目なかよし児童遊園（しぎのにし5ちょうめなかよしじどうゆうえん）,城東区鴫野西5-13,城東区,,,,,,,,,公園・スポーツ,児童遊園・広場,公園・スポーツ/児童遊園・広場,157,4434
135.5381973,34.69521883,西鴫野３児童遊園,にししぎの3じどうゆうえん,西鴫野３児童遊園（にししぎの3じどうゆうえん）,城東区鴫野西1-15,城東区,,,,,,,,,公園・スポーツ,児童遊園・広場,公園・スポーツ/児童遊園・広場,157,4430
135.5384829,34.69363306,西鴫野４児童遊園,にししぎの4じどうゆうえん,西鴫野４児童遊園（にししぎの4じどうゆうえん）,城東区鴫野西1-18,城東区,,,,,,,,,公園・スポーツ,児童遊園・広場,公園・スポーツ/児童遊園・広場,157,4431
135.539156,34.69239406,西鴫野５・６児童遊園,にししぎの5・6じどうゆうえん,西鴫野５・６児童遊園（にししぎの5・6じどうゆうえん）,城東区鴫野西2-18,城東区,,,,,,,,,公園・スポーツ,児童遊園・広場,公園・スポーツ/児童遊園・広場,157,4432
135.5383003,34.69437203,西鴫野7児童遊園,にししぎの7じどうゆうえん,西鴫野7児童遊園（にししぎの7じどうゆうえん）,"城東区鴫野西１-16,17",城東区,,,,,,,,,公園・スポーツ,児童遊園・広場,公園・スポーツ/児童遊園・広場,157,4433
135.5381312,34.69795008,蒲生1児童遊園,がもう1じどうゆうえん,蒲生1児童遊園（がもう1じどうゆうえん）,城東区蒲生1-3,城東区,,,,,,,,,公園・スポーツ,児童遊園・広場,公園・スポーツ/児童遊園・広場,157,4427
135.5410168,34.69840208,蒲生2児童遊園,がもう2じどうゆうえん,蒲生2児童遊園（がもう2じどうゆうえん）,城東区蒲生2-4,城東区,,,,,,,,,公園・スポーツ,児童遊園・広場,公園・スポーツ/児童遊園・広場,157,4428
135.5465462,34.69627278,新喜多東ちびっこ広場,しぎたひがしちびっこひろば,新喜多東ちびっこ広場（しぎたひがしちびっこひろば）,城東区新喜多東1-1,城東区,,,,,,,,,公園・スポーツ,児童遊園・広場,公園・スポーツ/児童遊園・広場,157,4436
135.5465698,34.70109519,蒲生児童遊園,がもうじどうゆうえん,蒲生児童遊園（がもうじどうゆうえん）,城東区今福西3-1,城東区,,,,,,,,,公園・スポーツ,児童遊園・広場,公園・スポーツ/児童遊園・広場,157,4429
135.5435009,34.70230378,城東区老人福祉センター,じょうとうくろうじんふくしせんたー,城東区老人福祉センター（じょうとうくろうじんふくしせんたー）,城東区中央２－１１－２３,城東区,06-6932-0017,06-6934-8340,,,,,,,公園・スポーツ,児童遊園・広場,公園・スポーツ/児童遊園・広場,142,19482
135.5496252,34.69824994,今福南１-１町団児童遊園,いまふくみなみ1-1ちょうだんじどうゆうえん,今福南１-１町団児童遊園（いまふくみなみ1-1ちょうだんじどうゆうえん）,城東区今福南2-23,城東区,,,,,,,,,公園・スポーツ,児童遊園・広場,公園・スポーツ/児童遊園・広場,157,4435
135.5645781,34.68890292,阿遅速雄神社境内児童遊園,あちはやおじんじゃけいだいじどうゆうえん,阿遅速雄神社境内児童遊園（あちはやおじんじゃけいだいじどうゆうえん）,鶴見区放出東3-31-4,鶴見区,,,,,,,,,公園・スポーツ,児童遊園・広場,公園・スポーツ/児童遊園・広場,157,4200
135.5635419,34.69546883,放出北児童遊園,はなてんきたじどうゆうえん,放出北児童遊園（はなてんきたじどうゆうえん）,鶴見区放出東1-19,鶴見区,,,,,,,,,公園・スポーツ,児童遊園・広場,公園・スポーツ/児童遊園・広場,157,4202
135.5633168,34.70094414,つるみ児童遊園,つるみじどうゆうえん,つるみ児童遊園（つるみじどうゆうえん）,鶴見区鶴見3-10,鶴見区,,,,,,,,,公園・スポーツ,児童遊園・広場,公園・スポーツ/児童遊園・広場,157,4201
135.4524986,34.71743697,西淀川中央コミュニティー広場,にしよどがわちゅうおうこみゅにてぃーひろば,西淀川中央コミュニティー広場（にしよどがわちゅうおうこみゅにてぃーひろば）,西淀川区御幣島4丁目19番,西淀川区,,,,,,,,,公園・スポーツ,児童遊園・広場,公園・スポーツ/児童遊園・広場,154,19342
135.4648179,34.70766383,愛光児童遊園,あいこうじどうゆうえん,愛光児童遊園（あいこうじどうゆうえん）,西淀川区花川2丁目16番,西淀川区,,,,,,,,,公園・スポーツ,児童遊園・広場,公園・スポーツ/児童遊園・広場,157,19336
135.5080529,34.70945017,浮田西児童遊園,うきたにしじどうゆうえん,浮田西児童遊園（うきたにしじどうゆうえん）,北区浮田2-2,北区,,,,,,,,,公園・スポーツ,児童遊園・広場,公園・スポーツ/児童遊園・広場,157,789
135.5214057,34.70543914,中野第6町会ちびっこ広場,なかのだいろくちょうかいちびっこひろば,中野第6町会ちびっこ広場（なかのだいろくちょうかいちびっこひろば）,都島区中野町5-6,都島区,,,,,,,,,公園・スポーツ,児童遊園・広場,公園・スポーツ/児童遊園・広場,157,3069
135.5329502,34.71016906,都島北通二丁目西児童遊園,みやこじまきたどおりにちょうめにしじどうゆうえん,都島北通二丁目西児童遊園（みやこじまきたどおりにちょうめにしじどうゆうえん）,都島区都島北通2-11,都島区,,,,,,,,,公園・スポーツ,児童遊園・広場,公園・スポーツ/児童遊園・広場,157,3087
135.5289751,34.70714394,本三児童遊園,ほんさんじどうゆうえん,本三児童遊園（ほんさんじどうゆうえん）,都島区都島本通3-12,都島区,,,,,,,,,公園・スポーツ,児童遊園・広場,公園・スポーツ/児童遊園・広場,157,3096
135.5289832,34.71218908,榎並川ちびっこ広場,えなみがわちびっこひろば,榎並川ちびっこ広場（えなみがわちびっこひろば）,都島区都島北通1-22,都島区,,,,,,,,,公園・スポーツ,児童遊園・広場,公園・スポーツ/児童遊園・広場,157,3068
135.5275502,34.71289208,友善ちびっこ広場,ともぜんちびっこひろば,友善ちびっこ広場（ともぜんちびっこひろば）,都島区善源寺町2-6,都島区,,,,,,,,,公園・スポーツ,児童遊園・広場,公園・スポーツ/児童遊園・広場,157,3070
135.5293639,34.71201886,榎並川第1児童遊園,えなみがわだいいちじどうゆうえん,榎並川第1児童遊園（えなみがわだいいちじどうゆうえん）,都島区都島北通1-23,都島区,,,,,,,,,公園・スポーツ,児童遊園・広場,公園・スポーツ/児童遊園・広場,157,3071
135.5302667,34.711444,榎並川第2児童遊園,えなみがわだいにじどうゆうえん,榎並川第2児童遊園（えなみがわだいにじどうゆうえん）,都島区都島北通1-20,都島区,,,,,,,,,公園・スポーツ,児童遊園・広場,公園・スポーツ/児童遊園・広場,157,3073
135.5311499,34.71098283,榎並川第3児童遊園,えなみがわだいさんじどうゆうえん,榎並川第3児童遊園（えなみがわだいさんじどうゆうえん）,都島区都島北通2-13･15,都島区,,,,,,,,,公園・スポーツ,児童遊園・広場,公園・スポーツ/児童遊園・広場,157,3074
135.5339028,34.71399711,御幸南児童遊園,みゆきみなみじどうゆうえん,御幸南児童遊園（みゆきみなみじどうゆうえん）,都島区御幸町1-7,都島区,,,,,,,,,公園・スポーツ,児童遊園・広場,公園・スポーツ/児童遊園・広場,157,2924
135.5338469,34.71691383,御幸北児童遊園,みゆききたじどうゆうえん,御幸北児童遊園（みゆききたじどうゆうえん）,都島区御幸町2-9,都島区,,,,,,,,,公園・スポーツ,児童遊園・広場,公園・スポーツ/児童遊園・広場,157,2925
135.5333389,34.71739194,高四児童遊園,たかよんじどうゆうえん,高四児童遊園（たかよんじどうゆうえん）,都島区御幸町2-12,都島区,,,,,,,,,公園・スポーツ,児童遊園・広場,公園・スポーツ/児童遊園・広場,157,3076
135.5184029,34.72153308,毛馬第3児童遊園,けまだいさんじどうゆうえん,毛馬第3児童遊園（けまだいさんじどうゆうえん）,都島区毛馬町3-7,都島区,,,,,,,,,公園・スポーツ,児童遊園・広場,公園・スポーツ/児童遊園・広場,157,3101
135.5198561,34.72373592,毛馬第4児童遊園,けまだいよんじどうゆうえん,毛馬第4児童遊園（けまだいよんじどうゆうえん）,都島区毛馬町4-11,都島区,,,,,,,,,公園・スポーツ,児童遊園・広場,公園・スポーツ/児童遊園・広場,157,3102
135.5222641,34.71805317,毛馬第1児童遊園,けまだいいちじどうゆうえん,毛馬第1児童遊園（けまだいいちじどうゆうえん）,都島区毛馬町1-2,都島区,,,,,,,,,公園・スポーツ,児童遊園・広場,公園・スポーツ/児童遊園・広場,157,3098
135.5215917,34.71999397,毛馬第2児童遊園,けまだいにじどうゆうえん,毛馬第2児童遊園（けまだいにじどうゆうえん）,都島区毛馬町1-19,都島区,,,,,,,,,公園・スポーツ,児童遊園・広場,公園・スポーツ/児童遊園・広場,157,3100
135.5255889,34.72285289,大東第1児童遊園,だいとうだいいちじどうゆうえん,大東第1児童遊園（だいとうだいいちじどうゆうえん）,都島区大東町2-1,都島区,,,,,,,,,公園・スポーツ,児童遊園・広場,公園・スポーツ/児童遊園・広場,157,3082
135.5308973,34.72282814,大東さくら児童遊園,だいとうさくらじどうゆうえん,大東さくら児童遊園（だいとうさくらじどうゆうえん）,都島区大東町1-10,都島区,,,,,,,,,公園・スポーツ,児童遊園・広場,公園・スポーツ/児童遊園・広場,157,3079
135.5295721,34.72325306,大東第4児童遊園,だいとうだいよんじどうゆうえん,大東第4児童遊園（だいとうだいよんじどうゆうえん）,都島区大東町1-8,都島区,,,,,,,,,公園・スポーツ,児童遊園・広場,公園・スポーツ/児童遊園・広場,157,3085
135.5236829,34.72615617,桜高前児童遊園,さくらこうまえじどうゆうえん,桜高前児童遊園（さくらこうまえじどうゆうえん）,都島区毛馬町5-15,都島区,,,,,,,,,公園・スポーツ,児童遊園・広場,公園・スポーツ/児童遊園・広場,157,3078
135.5272443,34.727522,大東第2児童遊園,だいとうだいにじどうゆうえん,大東第2児童遊園（だいとうだいにじどうゆうえん）,都島区大東町3-7,都島区,,,,,,,,,公園・スポーツ,児童遊園・広場,公園・スポーツ/児童遊園・広場,157,3083
135.5289219,34.72565817,大東第3児童遊園,だいとうだいさんじどうゆうえん,大東第3児童遊園（だいとうだいさんじどうゆうえん）,都島区大東町2-22,都島区,,,,,,,,,公園・スポーツ,児童遊園・広場,公園・スポーツ/児童遊園・広場,157,3084
135.5173721,34.73419192,東天児童遊園,とうてんじどうゆうえん,東天児童遊園（とうてんじどうゆうえん）,東淀川区東淡路1-1,東淀川区,,,,,,,,,公園・スポーツ,児童遊園・広場,公園・スポーツ/児童遊園・広場,157,184
135.5128109,34.73871386,西淡路児童遊園,にしあわじじどうゆうえん,西淡路児童遊園（にしあわじじどうゆうえん）,東淀川区淡路3-13,東淀川区,,,,,,,,,公園・スポーツ,児童遊園・広場,公園・スポーツ/児童遊園・広場,157,185
135.5124861,34.73928892,淡路本町児童遊園,あわじほんまちじどうゆうえん,淡路本町児童遊園（あわじほんまちじどうゆうえん）,東淀川区淡路3-16,東淀川区,,,,,,,,,公園・スポーツ,児童遊園・広場,公園・スポーツ/児童遊園・広場,157,186
135.5259332,34.73907817,菅中児童遊園,すがなかじどうゆうえん,菅中児童遊園（すがなかじどうゆうえん）,東淀川区菅原3-6,東淀川区,,,,,,,,,公園・スポーツ,児童遊園・広場,公園・スポーツ/児童遊園・広場,157,180
135.5092252,34.74006883,西一児童遊園,にしいちじどうゆうえん,西一児童遊園（にしいちじどうゆうえん）,東淀川区西淡路3-13,東淀川区,,,,,,,,,公園・スポーツ,児童遊園・広場,公園・スポーツ/児童遊園・広場,157,188
135.5081142,34.74177511,引江仲よし広場児童遊園,ひきえなかよしひろばじどうゆうえん,引江仲よし広場児童遊園（ひきえなかよしひろばじどうゆうえん）,東淀川区西淡路4-19-21,東淀川区,,,,,,,,,公園・スポーツ,児童遊園・広場,公園・スポーツ/児童遊園・広場,157,189
135.5124443,34.74215306,淡路西1町団ちびっこ広場,あわじにし１ちょうだんちびっこひろば,淡路西1町団ちびっこ広場（あわじにし１ちょうだんちびっこひろば）,東淀川区西淡路5-15,東淀川区,,,,,,,,,公園・スポーツ,児童遊園・広場,公園・スポーツ/児童遊園・広場,157,191
135.5122422,34.74367183,十三吹田線福祉北陽第1ちびっこ広場,じゅうそうすいたせんふくしほくようだい１ちびっこひろば,十三吹田線福祉北陽第1ちびっこ広場（じゅうそうすいたせんふくしほくようだい１ちびっこひろば）,東淀川区西淡路5-9,東淀川区,,,,,,,,,公園・スポーツ,児童遊園・広場,公園・スポーツ/児童遊園・広場,157,190
135.5340363,34.70968611,都島北通二丁目東児童遊園,みやこじまきたどおりにちょうめひがしじどうゆうえん,都島北通二丁目東児童遊園（みやこじまきたどおりにちょうめひがしじどうゆうえん）,都島区都島北通2-9,都島区,,,,,,,,,公園・スポーツ,児童遊園・広場,公園・スポーツ/児童遊園・広場,157,3088
135.534778,34.70918286,内代小児童遊園,うちんだいしょうじどうゆうえん,内代小児童遊園（うちんだいしょうじどうゆうえん）,都島区内代町1-4,都島区,,,,,,,,,公園・スポーツ,児童遊園・広場,公園・スポーツ/児童遊園・広場,157,3089
135.5351169,34.70892808,内代児童普通遊園,うちんだいふつうじどうゆうえん,内代児童普通遊園（うちんだいふつうじどうゆうえん）,都島区内代町1-1,都島区,,,,,,,,,公園・スポーツ,児童遊園・広場,公園・スポーツ/児童遊園・広場,157,3091
135.535125,34.71704414,御幸東児童遊園,みゆきひがしじどうゆうえん,御幸東児童遊園（みゆきひがしじどうゆうえん）,都島区御幸町2-11,都島区,,,,,,,,,公園・スポーツ,児童遊園・広場,公園・スポーツ/児童遊園・広場,157,3075
135.5632778,34.71361389,緑児童遊園,みどりじどうゆうえん,緑児童遊園（みどりじどうゆうえん）,鶴見区緑3-3-3,鶴見区,,,,,,,,,公園・スポーツ,児童遊園・広場,公園・スポーツ/児童遊園・広場,157,4199
135.5399469,34.746369,西大道児童遊園,にしだいどうじどうゆうえん,西大道児童遊園（にしだいどうじどうゆうえん）,東淀川区豊里7-32,東淀川区,,,,,,,,,公園・スポーツ,児童遊園・広場,公園・スポーツ/児童遊園・広場,157,183
135.5500281,34.74653103,大道児童遊園,だいどうじどうゆうえん,大道児童遊園（だいどうじどうゆうえん）,東淀川区大桐4-2,東淀川区,,,,,,,,,公園・スポーツ,児童遊園・広場,公園・スポーツ/児童遊園・広場,157,179
135.5369529,34.748039,アポロ児童遊園,あぽろじどうゆうえん,アポロ児童遊園（あぽろじどうゆうえん）,東淀川区豊新5-12,東淀川区,,,,,,,,,公園・スポーツ,児童遊園・広場,公園・スポーツ/児童遊園・広場,157,181
135.535567,34.74774708,豊新第七児童遊園,ほうしんだいななじどうゆうえん,豊新第七児童遊園（ほうしんだいななじどうゆうえん）,東淀川区豊新5-15,東淀川区,,,,,,,,,公園・スポーツ,児童遊園・広場,公園・スポーツ/児童遊園・広場,157,885
135.5459358,34.74956911,三宝寺東児童遊園,さんぽうじひがしじどうゆうえん,三宝寺東児童遊園（さんぽうじひがしじどうゆうえん）,東淀川区大桐3-18,東淀川区,,,,,,,,,公園・スポーツ,児童遊園・広場,公園・スポーツ/児童遊園・広場,157,178
135.5426277,34.75027806,瑞西児童遊園,ずいにしじどうゆうえん,瑞西児童遊園（ずいにしじどうゆうえん）,東淀川区瑞光3-1,東淀川区,,,,,,,,,公園・スポーツ,児童遊園・広場,公園・スポーツ/児童遊園・広場,157,1539
135.5460779,34.75431092,大隅西児童遊園,おおすみにしじどうゆうえん,大隅西児童遊園（おおすみにしじどうゆうえん）,東淀川区小松5-1,東淀川区,,,,,,,,,公園・スポーツ,児童遊園・広場,公園・スポーツ/児童遊園・広場,157,176
135.5450748,34.75128592,瑞光第2児童遊園,ずいこうだいにじどうゆうえん,瑞光第2児童遊園（ずいこうだいにじどうゆうえん）,東淀川区瑞光4-2,東淀川区,,,,,,,,,公園・スポーツ,児童遊園・広場,公園・スポーツ/児童遊園・広場,157,1540
135.5481827,34.75109217,みたから児童遊園,みたからじどうゆうえん,みたから児童遊園（みたからじどうゆうえん）,東淀川区大隅2-7,東淀川区,,,,,,,,,公園・スポーツ,児童遊園・広場,公園・スポーツ/児童遊園・広場,157,177
135.5478863,34.75298903,瑞光コーポちびっこ広場,ずいこうこーぽちびっこひろば,瑞光コーポちびっこ広場（ずいこうこーぽちびっこひろば）,東淀川区瑞光4-11,東淀川区,,,,,,,,,公園・スポーツ,児童遊園・広場,公園・スポーツ/児童遊園・広場,157,1558
135.536583,34.75690589,相川南児童遊園,あいかわみなみじどうゆうえん,相川南児童遊園（あいかわみなみじどうゆうえん）,東淀川区相川2-14,東淀川区,,,,,,,,,公園・スポーツ,児童遊園・広場,公園・スポーツ/児童遊園・広場,157,1381
135.4750143,34.663111,三西皓養社児童遊園,,三西皓養社児童遊園（）,大正区泉尾1-8,大正区,,,,,,,,,公園・スポーツ,児童遊園・広場,公園・スポーツ/児童遊園・広場,157,3876
